<?xml version="1.0" encoding="UTF-8"?>
<kml xmlns="http://www.opengis.net/kml/2.2" xmlns:gx="http://www.google.com/kml/ext/2.2">
    <Document id="1">
        <Placemark id="3">
            <Polygon id="2">
                <outerBoundaryIs>
                    <LinearRing id="4">
                        <coordinates>79.57004037340054,30.589963646461843,0.0 79.57004037340054,30.588296601112486,0.0 79.56837345751536,30.588296601112486,0.0 79.56837345751536,30.58662955576313,0.0 79.56503962574499,30.58662955576313,0.0 79.56503962574499,30.584962510413774,0.0 79.56337270985979,30.584962510413774,0.0 79.56337270985979,30.581628419715063,0.0 79.56170579397461,30.581628419715063,0.0 79.56170579397461,30.579961374365705,0.0 79.56003887808941,30.579961374365705,0.0 79.56003887808941,30.57829432901635,0.0 79.55837196220423,30.57829432901635,0.0 79.55837196220423,30.576627283666994,0.0 79.55670504631904,30.576627283666994,0.0 79.55670504631904,30.57496023831764,0.0 79.55337121454866,30.57496023831764,0.0 79.55337121454866,30.573293192968283,0.0 79.55170429866348,30.573293192968283,0.0 79.55170429866348,30.57162614761893,0.0 79.55003738277829,30.57162614761893,0.0 79.55003738277829,30.56995910226957,0.0 79.5483704668931,30.56995910226957,0.0 79.5483704668931,30.556622739474726,0.0 79.55003738277829,30.556622739474726,0.0 79.55003738277829,30.551621603426657,0.0 79.55170429866348,30.551621603426657,0.0 79.55170429866348,30.54662046737859,0.0 79.55337121454866,30.54662046737859,0.0 79.55337121454866,30.543286376679877,0.0 79.55503813043386,30.543286376679877,0.0 79.55503813043386,30.539952285981165,0.0 79.55670504631904,30.539952285981165,0.0 79.55670504631904,30.536618195282454,0.0 79.55837196220423,30.536618195282454,0.0 79.55837196220423,30.5349511499331,0.0 79.56003887808941,30.5349511499331,0.0 79.56003887808941,30.52995001388503,0.0 79.56170579397461,30.52995001388503,0.0 79.56170579397461,30.52328183248761,0.0 79.56337270985979,30.52328183248761,0.0 79.56337270985979,30.51828069643954,0.0 79.56503962574499,30.51828069643954,0.0 79.56503962574499,30.51494660574083,0.0 79.56670654163017,30.51494660574083,0.0 79.56670654163017,30.513279560391474,0.0 79.56837345751536,30.513279560391474,0.0 79.56837345751536,30.509945469692763,0.0 79.57004037340054,30.509945469692763,0.0 79.57004037340054,30.508278424343406,0.0 79.57170728928574,30.508278424343406,0.0 79.57170728928574,30.504944333644694,0.0 79.57337420517092,30.504944333644694,0.0 79.57337420517092,30.50327728829534,0.0 79.57504112105612,30.50327728829534,0.0 79.57504112105612,30.49994319759663,0.0 79.5767080369413,30.49994319759663,0.0 79.5767080369413,30.496609106897914,0.0 79.5783749528265,30.496609106897914,0.0 79.5783749528265,30.48994092550049,0.0 79.5767080369413,30.48994092550049,0.0 79.5767080369413,30.48327274410307,0.0 79.57504112105612,30.48327274410307,0.0 79.57504112105612,30.481605698753715,0.0 79.5767080369413,30.481605698753715,0.0 79.5767080369413,30.469936381308223,0.0 79.5783749528265,30.469936381308223,0.0 79.5783749528265,30.468269335958865,0.0 79.58004186871167,30.468269335958865,0.0 79.58004186871167,30.464935245260154,0.0 79.58170878459687,30.464935245260154,0.0 79.58170878459687,30.4632681999108,0.0 79.58337570048205,30.4632681999108,0.0 79.58337570048205,30.461601154561443,0.0 79.58504261636725,30.461601154561443,0.0 79.58504261636725,30.45993410921209,0.0 79.58670953225244,30.45993410921209,0.0 79.58670953225244,30.456600018513377,0.0 79.58837644813762,30.456600018513377,0.0 79.58837644813762,30.45493297316402,0.0 79.591710279908,30.45493297316402,0.0 79.591710279908,30.453265927814666,0.0 79.5933771957932,30.453265927814666,0.0 79.5933771957932,30.45159888246531,0.0 79.59504411167838,30.45159888246531,0.0 79.59504411167838,30.44993183711595,0.0 79.59671102756357,30.44993183711595,0.0 79.59671102756357,30.448264791766597,0.0 79.60004485933395,30.448264791766597,0.0 79.60004485933395,30.44659774641724,0.0 79.60171177521913,30.44659774641724,0.0 79.60171177521913,30.444930701067886,0.0 79.6050456069895,30.444930701067886,0.0 79.6050456069895,30.44326365571853,0.0 79.6067125228747,30.44326365571853,0.0 79.6067125228747,30.441596610369174,0.0 79.61171327053026,30.441596610369174,0.0 79.61171327053026,30.439929565019817,0.0 79.61504710230064,30.439929565019817,0.0 79.61504710230064,30.438262519670463,0.0 79.62504859761177,30.438262519670463,0.0 79.62504859761177,30.439929565019817,0.0 79.63004934526734,30.439929565019817,0.0 79.63004934526734,30.441596610369174,0.0 79.63171626115253,30.441596610369174,0.0 79.63171626115253,30.444930701067886,0.0 79.63671700880809,30.444930701067886,0.0 79.63671700880809,30.44659774641724,0.0 79.64171775646366,30.44659774641724,0.0 79.64171775646366,30.444930701067886,0.0 79.6517192517748,30.444930701067886,0.0 79.6517192517748,30.44659774641724,0.0 79.65505308354517,30.44659774641724,0.0 79.65505308354517,30.448264791766597,0.0 79.65671999943035,30.448264791766597,0.0 79.65671999943035,30.44993183711595,0.0 79.65838691531555,30.44993183711595,0.0 79.65838691531555,30.45159888246531,0.0 79.66005383120073,30.45159888246531,0.0 79.66005383120073,30.453265927814666,0.0 79.6667214947415,30.453265927814666,0.0 79.6667214947415,30.45493297316402,0.0 79.67505607416743,30.45493297316402,0.0 79.67505607416743,30.456600018513377,0.0 79.67672299005262,30.456600018513377,0.0 79.67672299005262,30.45826706386273,0.0 79.6783899059378,30.45826706386273,0.0 79.6783899059378,30.45993410921209,0.0 79.68172373770818,30.45993410921209,0.0 79.68172373770818,30.461601154561443,0.0 79.68339065359338,30.461601154561443,0.0 79.68339065359338,30.464935245260154,0.0 79.68505756947856,30.464935245260154,0.0 79.68505756947856,30.46660229060951,0.0 79.68672448536375,30.46660229060951,0.0 79.68672448536375,30.468269335958865,0.0 79.68839140124894,30.468269335958865,0.0 79.68839140124894,30.471603426657577,0.0 79.69005831713413,30.471603426657577,0.0 79.69005831713413,30.473270472006934,0.0 79.69172523301931,30.473270472006934,0.0 79.69172523301931,30.474937517356288,0.0 79.69505906478969,30.474937517356288,0.0 79.69505906478969,30.476604562705646,0.0 79.69672598067488,30.476604562705646,0.0 79.69672598067488,30.478271608055003,0.0 79.69839289656007,30.478271608055003,0.0 79.69839289656007,30.493275016199203,0.0 79.70005981244526,30.493275016199203,0.0 79.70005981244526,30.49494206154856,0.0 79.69839289656007,30.49494206154856,0.0 79.69839289656007,30.496609106897914,0.0 79.69672598067488,30.496609106897914,0.0 79.69672598067488,30.49827615224727,0.0 79.69505906478969,30.49827615224727,0.0 79.69505906478969,30.49994319759663,0.0 79.69339214890451,30.49994319759663,0.0 79.69339214890451,30.501610242945983,0.0 79.69172523301931,30.501610242945983,0.0 79.69172523301931,30.50327728829534,0.0 79.68839140124894,30.50327728829534,0.0 79.68839140124894,30.50661137899405,0.0 79.68672448536375,30.50661137899405,0.0 79.68672448536375,30.513279560391474,0.0 79.68505756947856,30.513279560391474,0.0 79.68505756947856,30.51494660574083,0.0 79.680056821823,30.51494660574083,0.0 79.680056821823,30.516613651090186,0.0 79.67505607416743,30.516613651090186,0.0 79.67505607416743,30.51828069643954,0.0 79.67338915828225,30.51828069643954,0.0 79.67338915828225,30.52328183248761,0.0 79.67172224239705,30.52328183248761,0.0 79.67172224239705,30.528282968535677,0.0 79.67005532651187,30.528282968535677,0.0 79.67005532651187,30.52995001388503,0.0 79.6633876629711,30.52995001388503,0.0 79.6633876629711,30.53161705923439,0.0 79.66172074708592,30.53161705923439,0.0 79.66172074708592,30.533284104583743,0.0 79.65505308354517,30.533284104583743,0.0 79.65505308354517,30.5349511499331,0.0 79.6517192517748,30.5349511499331,0.0 79.6517192517748,30.53828524063181,0.0 79.6500523358896,30.53828524063181,0.0 79.6500523358896,30.541619331330523,0.0 79.64838542000442,30.541619331330523,0.0 79.64838542000442,30.543286376679877,0.0 79.64671850411922,30.543286376679877,0.0 79.64671850411922,30.548287512727946,0.0 79.64505158823404,30.548287512727946,0.0 79.64505158823404,30.551621603426657,0.0 79.64338467234884,30.551621603426657,0.0 79.64338467234884,30.559956830173437,0.0 79.64171775646366,30.559956830173437,0.0 79.64171775646366,30.56162387552279,0.0 79.64005084057847,30.56162387552279,0.0 79.64005084057847,30.564957966221503,0.0 79.63838392469329,30.564957966221503,0.0 79.63838392469329,30.56995910226957,0.0 79.63671700880809,30.56995910226957,0.0 79.63671700880809,30.57162614761893,0.0 79.63505009292291,30.57162614761893,0.0 79.63505009292291,30.573293192968283,0.0 79.63171626115253,30.573293192968283,0.0 79.63171626115253,30.57496023831764,0.0 79.63004934526734,30.57496023831764,0.0 79.63004934526734,30.576627283666994,0.0 79.62004784995621,30.576627283666994,0.0 79.62004784995621,30.57829432901635,0.0 79.61504710230064,30.57829432901635,0.0 79.61504710230064,30.579961374365705,0.0 79.61171327053026,30.579961374365705,0.0 79.61171327053026,30.581628419715063,0.0 79.6067125228747,30.581628419715063,0.0 79.6067125228747,30.583295465064417,0.0 79.59837794344875,30.583295465064417,0.0 79.59837794344875,30.584962510413774,0.0 79.591710279908,30.584962510413774,0.0 79.591710279908,30.58662955576313,0.0 79.58670953225244,30.58662955576313,0.0 79.58670953225244,30.588296601112486,0.0 79.57337420517092,30.588296601112486,0.0 79.57337420517092,30.589963646461843,0.0 79.57004037340054,30.589963646461843,0.0</coordinates>
                    </LinearRing>
                </outerBoundaryIs>
            </Polygon>
        </Placemark>
    </Document>
</kml>
