{
"type": "FeatureCollection",
"name": "flood_extent_t0225",
"crs": { "type": "name", "properties": { "name": "urn:ogc:def:crs:OGC:1.3:CRS84" } },
"features": [
{ "type": "Feature", "properties": { "flooded": 1.0 }, "geometry": { "type": "Polygon", "coordinates": [ [ [ 87.045052961478945, 26.664997570119411 ], [ 87.045052961478945, 26.663330787744144 ], [ 87.04171923143042, 26.663330787744144 ], [ 87.04171923143042, 26.661664005368877 ], [ 87.038385501381882, 26.661664005368877 ], [ 87.038385501381882, 26.663330787744144 ], [ 87.03671863635762, 26.663330787744144 ], [ 87.03671863635762, 26.661664005368877 ], [ 87.035051771333357, 26.661664005368877 ], [ 87.035051771333357, 26.659997222993614 ], [ 87.031718041284819, 26.659997222993614 ], [ 87.031718041284819, 26.65666365824308 ], [ 87.028384311236294, 26.65666365824308 ], [ 87.028384311236294, 26.654996875867813 ], [ 87.023383716163494, 26.654996875867813 ], [ 87.023383716163494, 26.653330093492549 ], [ 87.021716851139232, 26.653330093492549 ], [ 87.021716851139232, 26.651663311117282 ], [ 87.015049391042169, 26.651663311117282 ], [ 87.015049391042169, 26.649996528742015 ], [ 87.013382526017907, 26.649996528742015 ], [ 87.013382526017907, 26.648329746366748 ], [ 87.010048795969368, 26.648329746366748 ], [ 87.010048795969368, 26.644996181616218 ], [ 87.008381930945106, 26.644996181616218 ], [ 87.008381930945106, 26.641662616865684 ], [ 87.006715065920844, 26.641662616865684 ], [ 87.006715065920844, 26.639995834490417 ], [ 87.005048200896567, 26.639995834490417 ], [ 87.005048200896567, 26.638329052115154 ], [ 87.003381335872305, 26.638329052115154 ], [ 87.003381335872305, 26.636662269739887 ], [ 87.001714470848043, 26.636662269739887 ], [ 87.001714470848043, 26.633328704989353 ], [ 87.000047605823781, 26.633328704989353 ], [ 87.000047605823781, 26.628328357863555 ], [ 86.998380740799504, 26.628328357863555 ], [ 86.998380740799504, 26.624994793113025 ], [ 86.996713875775242, 26.624994793113025 ], [ 86.996713875775242, 26.618327663611957 ], [ 86.99504701075098, 26.618327663611957 ], [ 86.99504701075098, 26.603326622234565 ], [ 86.996713875775242, 26.603326622234565 ], [ 86.996713875775242, 26.598326275108764 ], [ 86.99504701075098, 26.598326275108764 ], [ 86.99504701075098, 26.584992016106636 ], [ 86.996713875775242, 26.584992016106636 ], [ 86.996713875775242, 26.581658451356105 ], [ 86.998380740799504, 26.581658451356105 ], [ 86.998380740799504, 26.573324539479774 ], [ 87.000047605823781, 26.573324539479774 ], [ 87.000047605823781, 26.571657757104507 ], [ 87.001714470848043, 26.571657757104507 ], [ 87.001714470848043, 26.568324192353973 ], [ 87.003381335872305, 26.568324192353973 ], [ 87.003381335872305, 26.56665740997871 ], [ 87.005048200896567, 26.56665740997871 ], [ 87.005048200896567, 26.564990627603443 ], [ 87.006715065920844, 26.564990627603443 ], [ 87.006715065920844, 26.563323845228176 ], [ 87.008381930945106, 26.563323845228176 ], [ 87.008381930945106, 26.561657062852909 ], [ 87.010048795969368, 26.561657062852909 ], [ 87.010048795969368, 26.558323498102379 ], [ 87.01171566099363, 26.558323498102379 ], [ 87.01171566099363, 26.556656715727112 ], [ 87.015049391042169, 26.556656715727112 ], [ 87.015049391042169, 26.554989933351845 ], [ 87.016716256066431, 26.554989933351845 ], [ 87.016716256066431, 26.553323150976581 ], [ 87.018383121090693, 26.553323150976581 ], [ 87.018383121090693, 26.551656368601314 ], [ 87.020049986114969, 26.551656368601314 ], [ 87.020049986114969, 26.549989586226047 ], [ 87.033384906309095, 26.549989586226047 ], [ 87.033384906309095, 26.54832280385078 ], [ 87.04171923143042, 26.54832280385078 ], [ 87.04171923143042, 26.546656021475513 ], [ 87.055054151624546, 26.546656021475513 ], [ 87.055054151624546, 26.54832280385078 ], [ 87.061721611721609, 26.54832280385078 ], [ 87.061721611721609, 26.549989586226047 ], [ 87.063388476745871, 26.549989586226047 ], [ 87.063388476745871, 26.551656368601314 ], [ 87.065055341770133, 26.551656368601314 ], [ 87.065055341770133, 26.553323150976581 ], [ 87.071722801867196, 26.553323150976581 ], [ 87.071722801867196, 26.554989933351845 ], [ 87.075056531915735, 26.554989933351845 ], [ 87.075056531915735, 26.556656715727112 ], [ 87.076723396939997, 26.556656715727112 ], [ 87.076723396939997, 26.558323498102379 ], [ 87.078390261964259, 26.558323498102379 ], [ 87.078390261964259, 26.559990280477646 ], [ 87.080057126988535, 26.559990280477646 ], [ 87.080057126988535, 26.561657062852909 ], [ 87.081723992012797, 26.561657062852909 ], [ 87.081723992012797, 26.563323845228176 ], [ 87.085057722061322, 26.563323845228176 ], [ 87.085057722061322, 26.564990627603443 ], [ 87.086724587085598, 26.564990627603443 ], [ 87.086724587085598, 26.56665740997871 ], [ 87.08839145210986, 26.56665740997871 ], [ 87.08839145210986, 26.568324192353973 ], [ 87.090058317134122, 26.568324192353973 ], [ 87.090058317134122, 26.56999097472924 ], [ 87.091725182158385, 26.56999097472924 ], [ 87.091725182158385, 26.573324539479774 ], [ 87.093392047182661, 26.573324539479774 ], [ 87.093392047182661, 26.576658104230305 ], [ 87.095058912206923, 26.576658104230305 ], [ 87.095058912206923, 26.579991668980838 ], [ 87.096725777231185, 26.579991668980838 ], [ 87.096725777231185, 26.586658798481903 ], [ 87.098392642255448, 26.586658798481903 ], [ 87.098392642255448, 26.589992363232433 ], [ 87.100059507279724, 26.589992363232433 ], [ 87.100059507279724, 26.596659492733497 ], [ 87.101726372303986, 26.596659492733497 ], [ 87.101726372303986, 26.601659839859298 ], [ 87.100059507279724, 26.601659839859298 ], [ 87.100059507279724, 26.61332731648616 ], [ 87.101726372303986, 26.61332731648616 ], [ 87.101726372303986, 26.618327663611957 ], [ 87.100059507279724, 26.618327663611957 ], [ 87.100059507279724, 26.619994445987224 ], [ 87.098392642255448, 26.619994445987224 ], [ 87.098392642255448, 26.631661922614089 ], [ 87.096725777231185, 26.631661922614089 ], [ 87.096725777231185, 26.633328704989353 ], [ 87.095058912206923, 26.633328704989353 ], [ 87.095058912206923, 26.636662269739887 ], [ 87.093392047182661, 26.636662269739887 ], [ 87.093392047182661, 26.641662616865684 ], [ 87.091725182158385, 26.641662616865684 ], [ 87.091725182158385, 26.644996181616218 ], [ 87.090058317134122, 26.644996181616218 ], [ 87.090058317134122, 26.646662963991481 ], [ 87.08839145210986, 26.646662963991481 ], [ 87.08839145210986, 26.648329746366748 ], [ 87.086724587085598, 26.648329746366748 ], [ 87.086724587085598, 26.649996528742015 ], [ 87.08339085703706, 26.649996528742015 ], [ 87.08339085703706, 26.651663311117282 ], [ 87.081723992012797, 26.651663311117282 ], [ 87.081723992012797, 26.653330093492549 ], [ 87.080057126988535, 26.653330093492549 ], [ 87.080057126988535, 26.654996875867813 ], [ 87.076723396939997, 26.654996875867813 ], [ 87.076723396939997, 26.65666365824308 ], [ 87.075056531915735, 26.65666365824308 ], [ 87.075056531915735, 26.658330440618347 ], [ 87.068389071818672, 26.658330440618347 ], [ 87.068389071818672, 26.659997222993614 ], [ 87.060054746697347, 26.659997222993614 ], [ 87.060054746697347, 26.661664005368877 ], [ 87.05838788167307, 26.661664005368877 ], [ 87.05838788167307, 26.663330787744144 ], [ 87.053387286600284, 26.663330787744144 ], [ 87.053387286600284, 26.661664005368877 ], [ 87.050053556551745, 26.661664005368877 ], [ 87.050053556551745, 26.663330787744144 ], [ 87.048386691527483, 26.663330787744144 ], [ 87.048386691527483, 26.664997570119411 ], [ 87.045052961478945, 26.664997570119411 ] ] ] } }
]
}
