{
"type": "FeatureCollection",
"name": "flood_extent_t0030",
"crs": { "type": "name", "properties": { "name": "urn:ogc:def:crs:OGC:1.3:CRS84" } },
"features": [
{ "type": "Feature", "properties": { "flooded": 1.0 }, "geometry": { "type": "Polygon", "coordinates": [ [ [ 87.045052961478945, 26.63499548736462 ], [ 87.045052961478945, 26.633328704989353 ], [ 87.04171923143042, 26.633328704989353 ], [ 87.04171923143042, 26.631661922614089 ], [ 87.040052366406158, 26.631661922614089 ], [ 87.040052366406158, 26.629995140238822 ], [ 87.038385501381882, 26.629995140238822 ], [ 87.038385501381882, 26.628328357863555 ], [ 87.03671863635762, 26.628328357863555 ], [ 87.03671863635762, 26.626661575488288 ], [ 87.035051771333357, 26.626661575488288 ], [ 87.035051771333357, 26.619994445987224 ], [ 87.033384906309095, 26.619994445987224 ], [ 87.033384906309095, 26.618327663611957 ], [ 87.035051771333357, 26.618327663611957 ], [ 87.035051771333357, 26.61332731648616 ], [ 87.03671863635762, 26.61332731648616 ], [ 87.03671863635762, 26.60999375173563 ], [ 87.038385501381882, 26.60999375173563 ], [ 87.038385501381882, 26.608326969360363 ], [ 87.040052366406158, 26.608326969360363 ], [ 87.040052366406158, 26.606660186985096 ], [ 87.04171923143042, 26.606660186985096 ], [ 87.04171923143042, 26.604993404609829 ], [ 87.055054151624546, 26.604993404609829 ], [ 87.055054151624546, 26.606660186985096 ], [ 87.05838788167307, 26.606660186985096 ], [ 87.05838788167307, 26.608326969360363 ], [ 87.060054746697347, 26.608326969360363 ], [ 87.060054746697347, 26.60999375173563 ], [ 87.061721611721609, 26.60999375173563 ], [ 87.061721611721609, 26.61332731648616 ], [ 87.063388476745871, 26.61332731648616 ], [ 87.063388476745871, 26.626661575488288 ], [ 87.061721611721609, 26.626661575488288 ], [ 87.061721611721609, 26.629995140238822 ], [ 87.060054746697347, 26.629995140238822 ], [ 87.060054746697347, 26.631661922614089 ], [ 87.05838788167307, 26.631661922614089 ], [ 87.05838788167307, 26.633328704989353 ], [ 87.055054151624546, 26.633328704989353 ], [ 87.055054151624546, 26.63499548736462 ], [ 87.045052961478945, 26.63499548736462 ] ] ] } }
]
}
