{
"type": "FeatureCollection",
"name": "flood_extent_t0120",
"crs": { "type": "name", "properties": { "name": "urn:ogc:def:crs:OGC:1.3:CRS84" } },
"features": [
{ "type": "Feature", "properties": { "flooded": 1.0 }, "geometry": { "type": "Polygon", "coordinates": [ [ [ 87.048386691527483, 26.653330093492549 ], [ 87.048386691527483, 26.651663311117282 ], [ 87.038385501381882, 26.651663311117282 ], [ 87.038385501381882, 26.649996528742015 ], [ 87.031718041284819, 26.649996528742015 ], [ 87.031718041284819, 26.648329746366748 ], [ 87.030051176260557, 26.648329746366748 ], [ 87.030051176260557, 26.646662963991481 ], [ 87.028384311236294, 26.646662963991481 ], [ 87.028384311236294, 26.644996181616218 ], [ 87.025050581187756, 26.644996181616218 ], [ 87.025050581187756, 26.643329399240951 ], [ 87.023383716163494, 26.643329399240951 ], [ 87.023383716163494, 26.641662616865684 ], [ 87.020049986114969, 26.641662616865684 ], [ 87.020049986114969, 26.638329052115154 ], [ 87.018383121090693, 26.638329052115154 ], [ 87.018383121090693, 26.63499548736462 ], [ 87.016716256066431, 26.63499548736462 ], [ 87.016716256066431, 26.631661922614089 ], [ 87.015049391042169, 26.631661922614089 ], [ 87.015049391042169, 26.629995140238822 ], [ 87.013382526017907, 26.629995140238822 ], [ 87.013382526017907, 26.624994793113025 ], [ 87.01171566099363, 26.624994793113025 ], [ 87.01171566099363, 26.616660881236694 ], [ 87.010048795969368, 26.616660881236694 ], [ 87.010048795969368, 26.611660534110893 ], [ 87.01171566099363, 26.611660534110893 ], [ 87.01171566099363, 26.606660186985096 ], [ 87.010048795969368, 26.606660186985096 ], [ 87.010048795969368, 26.603326622234565 ], [ 87.01171566099363, 26.603326622234565 ], [ 87.01171566099363, 26.601659839859298 ], [ 87.013382526017907, 26.601659839859298 ], [ 87.013382526017907, 26.5916591456077 ], [ 87.015049391042169, 26.5916591456077 ], [ 87.015049391042169, 26.589992363232433 ], [ 87.016716256066431, 26.589992363232433 ], [ 87.016716256066431, 26.586658798481903 ], [ 87.018383121090693, 26.586658798481903 ], [ 87.018383121090693, 26.584992016106636 ], [ 87.021716851139232, 26.584992016106636 ], [ 87.021716851139232, 26.583325233731369 ], [ 87.023383716163494, 26.583325233731369 ], [ 87.023383716163494, 26.581658451356105 ], [ 87.025050581187756, 26.581658451356105 ], [ 87.025050581187756, 26.578324886605571 ], [ 87.028384311236294, 26.578324886605571 ], [ 87.028384311236294, 26.576658104230305 ], [ 87.031718041284819, 26.576658104230305 ], [ 87.031718041284819, 26.574991321855038 ], [ 87.033384906309095, 26.574991321855038 ], [ 87.033384906309095, 26.573324539479774 ], [ 87.04171923143042, 26.573324539479774 ], [ 87.04171923143042, 26.571657757104507 ], [ 87.050053556551745, 26.571657757104507 ], [ 87.050053556551745, 26.573324539479774 ], [ 87.053387286600284, 26.573324539479774 ], [ 87.053387286600284, 26.571657757104507 ], [ 87.05838788167307, 26.571657757104507 ], [ 87.05838788167307, 26.573324539479774 ], [ 87.061721611721609, 26.573324539479774 ], [ 87.061721611721609, 26.574991321855038 ], [ 87.063388476745871, 26.574991321855038 ], [ 87.063388476745871, 26.576658104230305 ], [ 87.065055341770133, 26.576658104230305 ], [ 87.065055341770133, 26.578324886605571 ], [ 87.06672220679441, 26.578324886605571 ], [ 87.06672220679441, 26.579991668980838 ], [ 87.068389071818672, 26.579991668980838 ], [ 87.068389071818672, 26.581658451356105 ], [ 87.071722801867196, 26.581658451356105 ], [ 87.071722801867196, 26.583325233731369 ], [ 87.073389666891472, 26.583325233731369 ], [ 87.073389666891472, 26.584992016106636 ], [ 87.075056531915735, 26.584992016106636 ], [ 87.075056531915735, 26.586658798481903 ], [ 87.076723396939997, 26.586658798481903 ], [ 87.076723396939997, 26.58832558085717 ], [ 87.078390261964259, 26.58832558085717 ], [ 87.078390261964259, 26.5916591456077 ], [ 87.080057126988535, 26.5916591456077 ], [ 87.080057126988535, 26.594992710358234 ], [ 87.081723992012797, 26.594992710358234 ], [ 87.081723992012797, 26.598326275108764 ], [ 87.08339085703706, 26.598326275108764 ], [ 87.08339085703706, 26.601659839859298 ], [ 87.085057722061322, 26.601659839859298 ], [ 87.085057722061322, 26.60999375173563 ], [ 87.086724587085598, 26.60999375173563 ], [ 87.086724587085598, 26.626661575488288 ], [ 87.085057722061322, 26.626661575488288 ], [ 87.085057722061322, 26.628328357863555 ], [ 87.08339085703706, 26.628328357863555 ], [ 87.08339085703706, 26.633328704989353 ], [ 87.081723992012797, 26.633328704989353 ], [ 87.081723992012797, 26.63499548736462 ], [ 87.080057126988535, 26.63499548736462 ], [ 87.080057126988535, 26.638329052115154 ], [ 87.078390261964259, 26.638329052115154 ], [ 87.078390261964259, 26.639995834490417 ], [ 87.075056531915735, 26.639995834490417 ], [ 87.075056531915735, 26.643329399240951 ], [ 87.073389666891472, 26.643329399240951 ], [ 87.073389666891472, 26.644996181616218 ], [ 87.071722801867196, 26.644996181616218 ], [ 87.071722801867196, 26.646662963991481 ], [ 87.068389071818672, 26.646662963991481 ], [ 87.068389071818672, 26.648329746366748 ], [ 87.065055341770133, 26.648329746366748 ], [ 87.065055341770133, 26.649996528742015 ], [ 87.063388476745871, 26.649996528742015 ], [ 87.063388476745871, 26.651663311117282 ], [ 87.053387286600284, 26.651663311117282 ], [ 87.053387286600284, 26.653330093492549 ], [ 87.048386691527483, 26.653330093492549 ] ] ] } }
]
}
