{
"type": "FeatureCollection",
"name": "flood_extent_t0150",
"crs": { "type": "name", "properties": { "name": "urn:ogc:def:crs:OGC:1.3:CRS84" } },
"features": [
{ "type": "Feature", "properties": { "flooded": 1.0 }, "geometry": { "type": "Polygon", "coordinates": [ [ [ 87.043386096454682, 26.65666365824308 ], [ 87.043386096454682, 26.654996875867813 ], [ 87.03671863635762, 26.654996875867813 ], [ 87.03671863635762, 26.653330093492549 ], [ 87.031718041284819, 26.653330093492549 ], [ 87.031718041284819, 26.651663311117282 ], [ 87.030051176260557, 26.651663311117282 ], [ 87.030051176260557, 26.649996528742015 ], [ 87.026717446212032, 26.649996528742015 ], [ 87.026717446212032, 26.648329746366748 ], [ 87.023383716163494, 26.648329746366748 ], [ 87.023383716163494, 26.646662963991481 ], [ 87.021716851139232, 26.646662963991481 ], [ 87.021716851139232, 26.644996181616218 ], [ 87.020049986114969, 26.644996181616218 ], [ 87.020049986114969, 26.643329399240951 ], [ 87.018383121090693, 26.643329399240951 ], [ 87.018383121090693, 26.641662616865684 ], [ 87.016716256066431, 26.641662616865684 ], [ 87.016716256066431, 26.639995834490417 ], [ 87.015049391042169, 26.639995834490417 ], [ 87.015049391042169, 26.636662269739887 ], [ 87.013382526017907, 26.636662269739887 ], [ 87.013382526017907, 26.633328704989353 ], [ 87.01171566099363, 26.633328704989353 ], [ 87.01171566099363, 26.631661922614089 ], [ 87.010048795969368, 26.631661922614089 ], [ 87.010048795969368, 26.628328357863555 ], [ 87.008381930945106, 26.628328357863555 ], [ 87.008381930945106, 26.624994793113025 ], [ 87.005048200896567, 26.624994793113025 ], [ 87.005048200896567, 26.618327663611957 ], [ 87.006715065920844, 26.618327663611957 ], [ 87.006715065920844, 26.611660534110893 ], [ 87.005048200896567, 26.611660534110893 ], [ 87.005048200896567, 26.60999375173563 ], [ 87.006715065920844, 26.60999375173563 ], [ 87.006715065920844, 26.606660186985096 ], [ 87.005048200896567, 26.606660186985096 ], [ 87.005048200896567, 26.603326622234565 ], [ 87.006715065920844, 26.603326622234565 ], [ 87.006715065920844, 26.594992710358234 ], [ 87.008381930945106, 26.594992710358234 ], [ 87.008381930945106, 26.586658798481903 ], [ 87.010048795969368, 26.586658798481903 ], [ 87.010048795969368, 26.583325233731369 ], [ 87.01171566099363, 26.583325233731369 ], [ 87.01171566099363, 26.581658451356105 ], [ 87.013382526017907, 26.581658451356105 ], [ 87.013382526017907, 26.579991668980838 ], [ 87.015049391042169, 26.579991668980838 ], [ 87.015049391042169, 26.578324886605571 ], [ 87.016716256066431, 26.578324886605571 ], [ 87.016716256066431, 26.576658104230305 ], [ 87.018383121090693, 26.576658104230305 ], [ 87.018383121090693, 26.574991321855038 ], [ 87.020049986114969, 26.574991321855038 ], [ 87.020049986114969, 26.571657757104507 ], [ 87.023383716163494, 26.571657757104507 ], [ 87.023383716163494, 26.56999097472924 ], [ 87.025050581187756, 26.56999097472924 ], [ 87.025050581187756, 26.568324192353973 ], [ 87.028384311236294, 26.568324192353973 ], [ 87.028384311236294, 26.56665740997871 ], [ 87.033384906309095, 26.56665740997871 ], [ 87.033384906309095, 26.564990627603443 ], [ 87.035051771333357, 26.564990627603443 ], [ 87.035051771333357, 26.56665740997871 ], [ 87.040052366406158, 26.56665740997871 ], [ 87.040052366406158, 26.564990627603443 ], [ 87.04171923143042, 26.564990627603443 ], [ 87.04171923143042, 26.563323845228176 ], [ 87.053387286600284, 26.563323845228176 ], [ 87.053387286600284, 26.564990627603443 ], [ 87.060054746697347, 26.564990627603443 ], [ 87.060054746697347, 26.56665740997871 ], [ 87.061721611721609, 26.56665740997871 ], [ 87.061721611721609, 26.568324192353973 ], [ 87.065055341770133, 26.568324192353973 ], [ 87.065055341770133, 26.56999097472924 ], [ 87.068389071818672, 26.56999097472924 ], [ 87.068389071818672, 26.571657757104507 ], [ 87.070055936842934, 26.571657757104507 ], [ 87.070055936842934, 26.574991321855038 ], [ 87.073389666891472, 26.574991321855038 ], [ 87.073389666891472, 26.576658104230305 ], [ 87.076723396939997, 26.576658104230305 ], [ 87.076723396939997, 26.578324886605571 ], [ 87.078390261964259, 26.578324886605571 ], [ 87.078390261964259, 26.581658451356105 ], [ 87.080057126988535, 26.581658451356105 ], [ 87.080057126988535, 26.583325233731369 ], [ 87.081723992012797, 26.583325233731369 ], [ 87.081723992012797, 26.584992016106636 ], [ 87.08339085703706, 26.584992016106636 ], [ 87.08339085703706, 26.586658798481903 ], [ 87.085057722061322, 26.586658798481903 ], [ 87.085057722061322, 26.589992363232433 ], [ 87.086724587085598, 26.589992363232433 ], [ 87.086724587085598, 26.593325927982967 ], [ 87.08839145210986, 26.593325927982967 ], [ 87.08839145210986, 26.594992710358234 ], [ 87.090058317134122, 26.594992710358234 ], [ 87.090058317134122, 26.596659492733497 ], [ 87.091725182158385, 26.596659492733497 ], [ 87.091725182158385, 26.60999375173563 ], [ 87.090058317134122, 26.60999375173563 ], [ 87.090058317134122, 26.611660534110893 ], [ 87.091725182158385, 26.611660534110893 ], [ 87.091725182158385, 26.623328010737758 ], [ 87.090058317134122, 26.623328010737758 ], [ 87.090058317134122, 26.629995140238822 ], [ 87.08839145210986, 26.629995140238822 ], [ 87.08839145210986, 26.631661922614089 ], [ 87.086724587085598, 26.631661922614089 ], [ 87.086724587085598, 26.63499548736462 ], [ 87.085057722061322, 26.63499548736462 ], [ 87.085057722061322, 26.636662269739887 ], [ 87.08339085703706, 26.636662269739887 ], [ 87.08339085703706, 26.639995834490417 ], [ 87.081723992012797, 26.639995834490417 ], [ 87.081723992012797, 26.641662616865684 ], [ 87.080057126988535, 26.641662616865684 ], [ 87.080057126988535, 26.644996181616218 ], [ 87.078390261964259, 26.644996181616218 ], [ 87.078390261964259, 26.646662963991481 ], [ 87.076723396939997, 26.646662963991481 ], [ 87.076723396939997, 26.648329746366748 ], [ 87.070055936842934, 26.648329746366748 ], [ 87.070055936842934, 26.649996528742015 ], [ 87.068389071818672, 26.649996528742015 ], [ 87.068389071818672, 26.651663311117282 ], [ 87.06672220679441, 26.651663311117282 ], [ 87.06672220679441, 26.653330093492549 ], [ 87.063388476745871, 26.653330093492549 ], [ 87.063388476745871, 26.654996875867813 ], [ 87.060054746697347, 26.654996875867813 ], [ 87.060054746697347, 26.653330093492549 ], [ 87.056721016648808, 26.653330093492549 ], [ 87.056721016648808, 26.654996875867813 ], [ 87.053387286600284, 26.654996875867813 ], [ 87.053387286600284, 26.65666365824308 ], [ 87.050053556551745, 26.65666365824308 ], [ 87.050053556551745, 26.654996875867813 ], [ 87.046719826503221, 26.654996875867813 ], [ 87.046719826503221, 26.65666365824308 ], [ 87.043386096454682, 26.65666365824308 ] ] ] } }
]
}
