{
"type": "FeatureCollection",
"name": "flood_extent_t0195",
"crs": { "type": "name", "properties": { "name": "urn:ogc:def:crs:OGC:1.3:CRS84" } },
"features": [
{ "type": "Feature", "properties": { "flooded": 1.0 }, "geometry": { "type": "Polygon", "coordinates": [ [ [ 87.046719826503221, 26.661664005368877 ], [ 87.046719826503221, 26.659997222993614 ], [ 87.038385501381882, 26.659997222993614 ], [ 87.038385501381882, 26.658330440618347 ], [ 87.033384906309095, 26.658330440618347 ], [ 87.033384906309095, 26.65666365824308 ], [ 87.031718041284819, 26.65666365824308 ], [ 87.031718041284819, 26.654996875867813 ], [ 87.030051176260557, 26.654996875867813 ], [ 87.030051176260557, 26.653330093492549 ], [ 87.025050581187756, 26.653330093492549 ], [ 87.025050581187756, 26.651663311117282 ], [ 87.023383716163494, 26.651663311117282 ], [ 87.023383716163494, 26.649996528742015 ], [ 87.020049986114969, 26.649996528742015 ], [ 87.020049986114969, 26.648329746366748 ], [ 87.013382526017907, 26.648329746366748 ], [ 87.013382526017907, 26.646662963991481 ], [ 87.01171566099363, 26.646662963991481 ], [ 87.01171566099363, 26.643329399240951 ], [ 87.010048795969368, 26.643329399240951 ], [ 87.010048795969368, 26.641662616865684 ], [ 87.008381930945106, 26.641662616865684 ], [ 87.008381930945106, 26.638329052115154 ], [ 87.006715065920844, 26.638329052115154 ], [ 87.006715065920844, 26.636662269739887 ], [ 87.005048200896567, 26.636662269739887 ], [ 87.005048200896567, 26.63499548736462 ], [ 87.003381335872305, 26.63499548736462 ], [ 87.003381335872305, 26.631661922614089 ], [ 87.001714470848043, 26.631661922614089 ], [ 87.001714470848043, 26.626661575488288 ], [ 87.000047605823781, 26.626661575488288 ], [ 87.000047605823781, 26.621661228362491 ], [ 86.998380740799504, 26.621661228362491 ], [ 86.998380740799504, 26.619994445987224 ], [ 87.000047605823781, 26.619994445987224 ], [ 87.000047605823781, 26.616660881236694 ], [ 86.998380740799504, 26.616660881236694 ], [ 86.998380740799504, 26.61332731648616 ], [ 87.000047605823781, 26.61332731648616 ], [ 87.000047605823781, 26.60999375173563 ], [ 86.998380740799504, 26.60999375173563 ], [ 86.998380740799504, 26.606660186985096 ], [ 87.000047605823781, 26.606660186985096 ], [ 87.000047605823781, 26.598326275108764 ], [ 86.998380740799504, 26.598326275108764 ], [ 86.998380740799504, 26.596659492733497 ], [ 87.000047605823781, 26.596659492733497 ], [ 87.000047605823781, 26.593325927982967 ], [ 86.998380740799504, 26.593325927982967 ], [ 86.998380740799504, 26.589992363232433 ], [ 87.000047605823781, 26.589992363232433 ], [ 87.000047605823781, 26.58832558085717 ], [ 87.001714470848043, 26.58832558085717 ], [ 87.001714470848043, 26.586658798481903 ], [ 87.003381335872305, 26.586658798481903 ], [ 87.003381335872305, 26.583325233731369 ], [ 87.001714470848043, 26.583325233731369 ], [ 87.001714470848043, 26.581658451356105 ], [ 87.003381335872305, 26.581658451356105 ], [ 87.003381335872305, 26.576658104230305 ], [ 87.005048200896567, 26.576658104230305 ], [ 87.005048200896567, 26.573324539479774 ], [ 87.006715065920844, 26.573324539479774 ], [ 87.006715065920844, 26.571657757104507 ], [ 87.008381930945106, 26.571657757104507 ], [ 87.008381930945106, 26.56999097472924 ], [ 87.010048795969368, 26.56999097472924 ], [ 87.010048795969368, 26.56665740997871 ], [ 87.01171566099363, 26.56665740997871 ], [ 87.01171566099363, 26.564990627603443 ], [ 87.015049391042169, 26.564990627603443 ], [ 87.015049391042169, 26.561657062852909 ], [ 87.020049986114969, 26.561657062852909 ], [ 87.020049986114969, 26.559990280477646 ], [ 87.021716851139232, 26.559990280477646 ], [ 87.021716851139232, 26.558323498102379 ], [ 87.023383716163494, 26.558323498102379 ], [ 87.023383716163494, 26.556656715727112 ], [ 87.033384906309095, 26.556656715727112 ], [ 87.033384906309095, 26.554989933351845 ], [ 87.035051771333357, 26.554989933351845 ], [ 87.035051771333357, 26.556656715727112 ], [ 87.03671863635762, 26.556656715727112 ], [ 87.03671863635762, 26.554989933351845 ], [ 87.040052366406158, 26.554989933351845 ], [ 87.040052366406158, 26.553323150976581 ], [ 87.048386691527483, 26.553323150976581 ], [ 87.048386691527483, 26.551656368601314 ], [ 87.051720421576007, 26.551656368601314 ], [ 87.051720421576007, 26.553323150976581 ], [ 87.053387286600284, 26.553323150976581 ], [ 87.053387286600284, 26.554989933351845 ], [ 87.061721611721609, 26.554989933351845 ], [ 87.061721611721609, 26.556656715727112 ], [ 87.065055341770133, 26.556656715727112 ], [ 87.065055341770133, 26.558323498102379 ], [ 87.06672220679441, 26.558323498102379 ], [ 87.06672220679441, 26.559990280477646 ], [ 87.070055936842934, 26.559990280477646 ], [ 87.070055936842934, 26.561657062852909 ], [ 87.073389666891472, 26.561657062852909 ], [ 87.073389666891472, 26.563323845228176 ], [ 87.075056531915735, 26.563323845228176 ], [ 87.075056531915735, 26.564990627603443 ], [ 87.076723396939997, 26.564990627603443 ], [ 87.076723396939997, 26.56665740997871 ], [ 87.078390261964259, 26.56665740997871 ], [ 87.078390261964259, 26.568324192353973 ], [ 87.080057126988535, 26.568324192353973 ], [ 87.080057126988535, 26.571657757104507 ], [ 87.08339085703706, 26.571657757104507 ], [ 87.08339085703706, 26.573324539479774 ], [ 87.086724587085598, 26.573324539479774 ], [ 87.086724587085598, 26.574991321855038 ], [ 87.08839145210986, 26.574991321855038 ], [ 87.08839145210986, 26.578324886605571 ], [ 87.090058317134122, 26.578324886605571 ], [ 87.090058317134122, 26.579991668980838 ], [ 87.091725182158385, 26.579991668980838 ], [ 87.091725182158385, 26.583325233731369 ], [ 87.093392047182661, 26.583325233731369 ], [ 87.093392047182661, 26.58832558085717 ], [ 87.095058912206923, 26.58832558085717 ], [ 87.095058912206923, 26.596659492733497 ], [ 87.096725777231185, 26.596659492733497 ], [ 87.096725777231185, 26.601659839859298 ], [ 87.098392642255448, 26.601659839859298 ], [ 87.098392642255448, 26.60999375173563 ], [ 87.096725777231185, 26.60999375173563 ], [ 87.096725777231185, 26.628328357863555 ], [ 87.095058912206923, 26.628328357863555 ], [ 87.095058912206923, 26.631661922614089 ], [ 87.093392047182661, 26.631661922614089 ], [ 87.093392047182661, 26.63499548736462 ], [ 87.091725182158385, 26.63499548736462 ], [ 87.091725182158385, 26.639995834490417 ], [ 87.090058317134122, 26.639995834490417 ], [ 87.090058317134122, 26.641662616865684 ], [ 87.08839145210986, 26.641662616865684 ], [ 87.08839145210986, 26.643329399240951 ], [ 87.086724587085598, 26.643329399240951 ], [ 87.086724587085598, 26.644996181616218 ], [ 87.085057722061322, 26.644996181616218 ], [ 87.085057722061322, 26.646662963991481 ], [ 87.08339085703706, 26.646662963991481 ], [ 87.08339085703706, 26.648329746366748 ], [ 87.081723992012797, 26.648329746366748 ], [ 87.081723992012797, 26.649996528742015 ], [ 87.080057126988535, 26.649996528742015 ], [ 87.080057126988535, 26.651663311117282 ], [ 87.078390261964259, 26.651663311117282 ], [ 87.078390261964259, 26.653330093492549 ], [ 87.073389666891472, 26.653330093492549 ], [ 87.073389666891472, 26.654996875867813 ], [ 87.070055936842934, 26.654996875867813 ], [ 87.070055936842934, 26.65666365824308 ], [ 87.065055341770133, 26.65666365824308 ], [ 87.065055341770133, 26.658330440618347 ], [ 87.05838788167307, 26.658330440618347 ], [ 87.05838788167307, 26.659997222993614 ], [ 87.056721016648808, 26.659997222993614 ], [ 87.056721016648808, 26.661664005368877 ], [ 87.053387286600284, 26.661664005368877 ], [ 87.053387286600284, 26.659997222993614 ], [ 87.050053556551745, 26.659997222993614 ], [ 87.050053556551745, 26.661664005368877 ], [ 87.046719826503221, 26.661664005368877 ] ] ] } }
]
}
