{
"type": "FeatureCollection",
"name": "flood_extent_t0045",
"crs": { "type": "name", "properties": { "name": "urn:ogc:def:crs:OGC:1.3:CRS84" } },
"features": [
{ "type": "Feature", "properties": { "flooded": 1.0 }, "geometry": { "type": "Polygon", "coordinates": [ [ [ 87.046719826503221, 26.639995834490417 ], [ 87.046719826503221, 26.638329052115154 ], [ 87.040052366406158, 26.638329052115154 ], [ 87.040052366406158, 26.636662269739887 ], [ 87.038385501381882, 26.636662269739887 ], [ 87.038385501381882, 26.63499548736462 ], [ 87.03671863635762, 26.63499548736462 ], [ 87.03671863635762, 26.633328704989353 ], [ 87.035051771333357, 26.633328704989353 ], [ 87.035051771333357, 26.631661922614089 ], [ 87.033384906309095, 26.631661922614089 ], [ 87.033384906309095, 26.629995140238822 ], [ 87.031718041284819, 26.629995140238822 ], [ 87.031718041284819, 26.628328357863555 ], [ 87.030051176260557, 26.628328357863555 ], [ 87.030051176260557, 26.623328010737758 ], [ 87.028384311236294, 26.623328010737758 ], [ 87.028384311236294, 26.611660534110893 ], [ 87.030051176260557, 26.611660534110893 ], [ 87.030051176260557, 26.608326969360363 ], [ 87.031718041284819, 26.608326969360363 ], [ 87.031718041284819, 26.604993404609829 ], [ 87.033384906309095, 26.604993404609829 ], [ 87.033384906309095, 26.603326622234565 ], [ 87.035051771333357, 26.603326622234565 ], [ 87.035051771333357, 26.601659839859298 ], [ 87.03671863635762, 26.601659839859298 ], [ 87.03671863635762, 26.599993057484031 ], [ 87.040052366406158, 26.599993057484031 ], [ 87.040052366406158, 26.598326275108764 ], [ 87.043386096454682, 26.598326275108764 ], [ 87.043386096454682, 26.596659492733497 ], [ 87.053387286600284, 26.596659492733497 ], [ 87.053387286600284, 26.598326275108764 ], [ 87.05838788167307, 26.598326275108764 ], [ 87.05838788167307, 26.599993057484031 ], [ 87.060054746697347, 26.599993057484031 ], [ 87.060054746697347, 26.601659839859298 ], [ 87.061721611721609, 26.601659839859298 ], [ 87.061721611721609, 26.603326622234565 ], [ 87.063388476745871, 26.603326622234565 ], [ 87.063388476745871, 26.604993404609829 ], [ 87.065055341770133, 26.604993404609829 ], [ 87.065055341770133, 26.606660186985096 ], [ 87.06672220679441, 26.606660186985096 ], [ 87.06672220679441, 26.60999375173563 ], [ 87.068389071818672, 26.60999375173563 ], [ 87.068389071818672, 26.614994098861427 ], [ 87.070055936842934, 26.614994098861427 ], [ 87.070055936842934, 26.623328010737758 ], [ 87.068389071818672, 26.623328010737758 ], [ 87.068389071818672, 26.629995140238822 ], [ 87.06672220679441, 26.629995140238822 ], [ 87.06672220679441, 26.631661922614089 ], [ 87.065055341770133, 26.631661922614089 ], [ 87.065055341770133, 26.633328704989353 ], [ 87.063388476745871, 26.633328704989353 ], [ 87.063388476745871, 26.63499548736462 ], [ 87.061721611721609, 26.63499548736462 ], [ 87.061721611721609, 26.636662269739887 ], [ 87.05838788167307, 26.636662269739887 ], [ 87.05838788167307, 26.638329052115154 ], [ 87.055054151624546, 26.638329052115154 ], [ 87.055054151624546, 26.639995834490417 ], [ 87.046719826503221, 26.639995834490417 ] ] ] } }
]
}
