{
"type": "FeatureCollection",
"name": "flood_extent_t0015",
"crs": { "type": "name", "properties": { "name": "urn:ogc:def:crs:OGC:1.3:CRS84" } },
"features": [
{ "type": "Feature", "properties": { "flooded": 1.0 }, "geometry": { "type": "Polygon", "coordinates": [ [ [ 87.045052961478945, 26.628328357863555 ], [ 87.045052961478945, 26.626661575488288 ], [ 87.043386096454682, 26.626661575488288 ], [ 87.043386096454682, 26.624994793113025 ], [ 87.04171923143042, 26.624994793113025 ], [ 87.04171923143042, 26.616660881236694 ], [ 87.043386096454682, 26.616660881236694 ], [ 87.043386096454682, 26.614994098861427 ], [ 87.045052961478945, 26.614994098861427 ], [ 87.045052961478945, 26.61332731648616 ], [ 87.053387286600284, 26.61332731648616 ], [ 87.053387286600284, 26.614994098861427 ], [ 87.055054151624546, 26.614994098861427 ], [ 87.055054151624546, 26.616660881236694 ], [ 87.056721016648808, 26.616660881236694 ], [ 87.056721016648808, 26.624994793113025 ], [ 87.055054151624546, 26.624994793113025 ], [ 87.055054151624546, 26.626661575488288 ], [ 87.053387286600284, 26.626661575488288 ], [ 87.053387286600284, 26.628328357863555 ], [ 87.045052961478945, 26.628328357863555 ] ] ] } }
]
}
