{
"type": "FeatureCollection",
"name": "flood_extent_t0105",
"crs": { "type": "name", "properties": { "name": "urn:ogc:def:crs:OGC:1.3:CRS84" } },
"features": [
{ "type": "Feature", "properties": { "flooded": 1.0 }, "geometry": { "type": "Polygon", "coordinates": [ [ [ 87.040052366406158, 26.649996528742015 ], [ 87.040052366406158, 26.648329746366748 ], [ 87.035051771333357, 26.648329746366748 ], [ 87.035051771333357, 26.646662963991481 ], [ 87.031718041284819, 26.646662963991481 ], [ 87.031718041284819, 26.644996181616218 ], [ 87.030051176260557, 26.644996181616218 ], [ 87.030051176260557, 26.643329399240951 ], [ 87.028384311236294, 26.643329399240951 ], [ 87.028384311236294, 26.641662616865684 ], [ 87.023383716163494, 26.641662616865684 ], [ 87.023383716163494, 26.638329052115154 ], [ 87.021716851139232, 26.638329052115154 ], [ 87.021716851139232, 26.63499548736462 ], [ 87.020049986114969, 26.63499548736462 ], [ 87.020049986114969, 26.633328704989353 ], [ 87.018383121090693, 26.633328704989353 ], [ 87.018383121090693, 26.631661922614089 ], [ 87.016716256066431, 26.631661922614089 ], [ 87.016716256066431, 26.626661575488288 ], [ 87.015049391042169, 26.626661575488288 ], [ 87.015049391042169, 26.623328010737758 ], [ 87.013382526017907, 26.623328010737758 ], [ 87.013382526017907, 26.619994445987224 ], [ 87.015049391042169, 26.619994445987224 ], [ 87.015049391042169, 26.616660881236694 ], [ 87.013382526017907, 26.616660881236694 ], [ 87.013382526017907, 26.604993404609829 ], [ 87.015049391042169, 26.604993404609829 ], [ 87.015049391042169, 26.598326275108764 ], [ 87.016716256066431, 26.598326275108764 ], [ 87.016716256066431, 26.593325927982967 ], [ 87.018383121090693, 26.593325927982967 ], [ 87.018383121090693, 26.5916591456077 ], [ 87.020049986114969, 26.5916591456077 ], [ 87.020049986114969, 26.589992363232433 ], [ 87.021716851139232, 26.589992363232433 ], [ 87.021716851139232, 26.58832558085717 ], [ 87.023383716163494, 26.58832558085717 ], [ 87.023383716163494, 26.586658798481903 ], [ 87.025050581187756, 26.586658798481903 ], [ 87.025050581187756, 26.584992016106636 ], [ 87.026717446212032, 26.584992016106636 ], [ 87.026717446212032, 26.583325233731369 ], [ 87.028384311236294, 26.583325233731369 ], [ 87.028384311236294, 26.581658451356105 ], [ 87.030051176260557, 26.581658451356105 ], [ 87.030051176260557, 26.579991668980838 ], [ 87.033384906309095, 26.579991668980838 ], [ 87.033384906309095, 26.578324886605571 ], [ 87.04171923143042, 26.578324886605571 ], [ 87.04171923143042, 26.576658104230305 ], [ 87.043386096454682, 26.576658104230305 ], [ 87.043386096454682, 26.574991321855038 ], [ 87.048386691527483, 26.574991321855038 ], [ 87.048386691527483, 26.576658104230305 ], [ 87.05838788167307, 26.576658104230305 ], [ 87.05838788167307, 26.578324886605571 ], [ 87.061721611721609, 26.578324886605571 ], [ 87.061721611721609, 26.579991668980838 ], [ 87.063388476745871, 26.579991668980838 ], [ 87.063388476745871, 26.581658451356105 ], [ 87.065055341770133, 26.581658451356105 ], [ 87.065055341770133, 26.583325233731369 ], [ 87.06672220679441, 26.583325233731369 ], [ 87.06672220679441, 26.584992016106636 ], [ 87.070055936842934, 26.584992016106636 ], [ 87.070055936842934, 26.586658798481903 ], [ 87.071722801867196, 26.586658798481903 ], [ 87.071722801867196, 26.58832558085717 ], [ 87.073389666891472, 26.58832558085717 ], [ 87.073389666891472, 26.589992363232433 ], [ 87.075056531915735, 26.589992363232433 ], [ 87.075056531915735, 26.593325927982967 ], [ 87.076723396939997, 26.593325927982967 ], [ 87.076723396939997, 26.594992710358234 ], [ 87.078390261964259, 26.594992710358234 ], [ 87.078390261964259, 26.599993057484031 ], [ 87.080057126988535, 26.599993057484031 ], [ 87.080057126988535, 26.601659839859298 ], [ 87.081723992012797, 26.601659839859298 ], [ 87.081723992012797, 26.604993404609829 ], [ 87.08339085703706, 26.604993404609829 ], [ 87.08339085703706, 26.624994793113025 ], [ 87.081723992012797, 26.624994793113025 ], [ 87.081723992012797, 26.629995140238822 ], [ 87.080057126988535, 26.629995140238822 ], [ 87.080057126988535, 26.633328704989353 ], [ 87.078390261964259, 26.633328704989353 ], [ 87.078390261964259, 26.636662269739887 ], [ 87.076723396939997, 26.636662269739887 ], [ 87.076723396939997, 26.638329052115154 ], [ 87.075056531915735, 26.638329052115154 ], [ 87.075056531915735, 26.639995834490417 ], [ 87.073389666891472, 26.639995834490417 ], [ 87.073389666891472, 26.641662616865684 ], [ 87.071722801867196, 26.641662616865684 ], [ 87.071722801867196, 26.643329399240951 ], [ 87.068389071818672, 26.643329399240951 ], [ 87.068389071818672, 26.644996181616218 ], [ 87.06672220679441, 26.644996181616218 ], [ 87.06672220679441, 26.646662963991481 ], [ 87.063388476745871, 26.646662963991481 ], [ 87.063388476745871, 26.648329746366748 ], [ 87.061721611721609, 26.648329746366748 ], [ 87.061721611721609, 26.649996528742015 ], [ 87.040052366406158, 26.649996528742015 ] ] ] } }
]
}
