{
"type": "FeatureCollection",
"name": "flood_extent_t0060",
"crs": { "type": "name", "properties": { "name": "urn:ogc:def:crs:OGC:1.3:CRS84" } },
"features": [
{ "type": "Feature", "properties": { "flooded": 1.0 }, "geometry": { "type": "Polygon", "coordinates": [ [ [ 87.046719826503221, 26.643329399240951 ], [ 87.046719826503221, 26.641662616865684 ], [ 87.04171923143042, 26.641662616865684 ], [ 87.04171923143042, 26.639995834490417 ], [ 87.03671863635762, 26.639995834490417 ], [ 87.03671863635762, 26.638329052115154 ], [ 87.033384906309095, 26.638329052115154 ], [ 87.033384906309095, 26.636662269739887 ], [ 87.031718041284819, 26.636662269739887 ], [ 87.031718041284819, 26.63499548736462 ], [ 87.030051176260557, 26.63499548736462 ], [ 87.030051176260557, 26.633328704989353 ], [ 87.028384311236294, 26.633328704989353 ], [ 87.028384311236294, 26.631661922614089 ], [ 87.026717446212032, 26.631661922614089 ], [ 87.026717446212032, 26.626661575488288 ], [ 87.025050581187756, 26.626661575488288 ], [ 87.025050581187756, 26.618327663611957 ], [ 87.023383716163494, 26.618327663611957 ], [ 87.023383716163494, 26.60999375173563 ], [ 87.025050581187756, 26.60999375173563 ], [ 87.025050581187756, 26.604993404609829 ], [ 87.026717446212032, 26.604993404609829 ], [ 87.026717446212032, 26.603326622234565 ], [ 87.028384311236294, 26.603326622234565 ], [ 87.028384311236294, 26.599993057484031 ], [ 87.030051176260557, 26.599993057484031 ], [ 87.030051176260557, 26.598326275108764 ], [ 87.031718041284819, 26.598326275108764 ], [ 87.031718041284819, 26.596659492733497 ], [ 87.035051771333357, 26.596659492733497 ], [ 87.035051771333357, 26.594992710358234 ], [ 87.03671863635762, 26.594992710358234 ], [ 87.03671863635762, 26.593325927982967 ], [ 87.04171923143042, 26.593325927982967 ], [ 87.04171923143042, 26.5916591456077 ], [ 87.045052961478945, 26.5916591456077 ], [ 87.045052961478945, 26.589992363232433 ], [ 87.055054151624546, 26.589992363232433 ], [ 87.055054151624546, 26.5916591456077 ], [ 87.05838788167307, 26.5916591456077 ], [ 87.05838788167307, 26.593325927982967 ], [ 87.061721611721609, 26.593325927982967 ], [ 87.061721611721609, 26.594992710358234 ], [ 87.063388476745871, 26.594992710358234 ], [ 87.063388476745871, 26.598326275108764 ], [ 87.06672220679441, 26.598326275108764 ], [ 87.06672220679441, 26.599993057484031 ], [ 87.068389071818672, 26.599993057484031 ], [ 87.068389071818672, 26.601659839859298 ], [ 87.070055936842934, 26.601659839859298 ], [ 87.070055936842934, 26.604993404609829 ], [ 87.071722801867196, 26.604993404609829 ], [ 87.071722801867196, 26.60999375173563 ], [ 87.073389666891472, 26.60999375173563 ], [ 87.073389666891472, 26.626661575488288 ], [ 87.071722801867196, 26.626661575488288 ], [ 87.071722801867196, 26.631661922614089 ], [ 87.070055936842934, 26.631661922614089 ], [ 87.070055936842934, 26.63499548736462 ], [ 87.068389071818672, 26.63499548736462 ], [ 87.068389071818672, 26.636662269739887 ], [ 87.06672220679441, 26.636662269739887 ], [ 87.06672220679441, 26.638329052115154 ], [ 87.065055341770133, 26.638329052115154 ], [ 87.065055341770133, 26.639995834490417 ], [ 87.061721611721609, 26.639995834490417 ], [ 87.061721611721609, 26.641662616865684 ], [ 87.055054151624546, 26.641662616865684 ], [ 87.055054151624546, 26.643329399240951 ], [ 87.046719826503221, 26.643329399240951 ] ] ] } }
]
}
