{
"type": "FeatureCollection",
"name": "flood_extent_t0075",
"crs": { "type": "name", "properties": { "name": "urn:ogc:def:crs:OGC:1.3:CRS84" } },
"features": [
{ "type": "Feature", "properties": { "flooded": 1.0 }, "geometry": { "type": "Polygon", "coordinates": [ [ [ 87.048386691527483, 26.646662963991481 ], [ 87.048386691527483, 26.644996181616218 ], [ 87.04171923143042, 26.644996181616218 ], [ 87.04171923143042, 26.643329399240951 ], [ 87.03671863635762, 26.643329399240951 ], [ 87.03671863635762, 26.641662616865684 ], [ 87.031718041284819, 26.641662616865684 ], [ 87.031718041284819, 26.639995834490417 ], [ 87.030051176260557, 26.639995834490417 ], [ 87.030051176260557, 26.638329052115154 ], [ 87.028384311236294, 26.638329052115154 ], [ 87.028384311236294, 26.636662269739887 ], [ 87.026717446212032, 26.636662269739887 ], [ 87.026717446212032, 26.633328704989353 ], [ 87.025050581187756, 26.633328704989353 ], [ 87.025050581187756, 26.629995140238822 ], [ 87.023383716163494, 26.629995140238822 ], [ 87.023383716163494, 26.628328357863555 ], [ 87.021716851139232, 26.628328357863555 ], [ 87.021716851139232, 26.621661228362491 ], [ 87.020049986114969, 26.621661228362491 ], [ 87.020049986114969, 26.606660186985096 ], [ 87.021716851139232, 26.606660186985096 ], [ 87.021716851139232, 26.601659839859298 ], [ 87.023383716163494, 26.601659839859298 ], [ 87.023383716163494, 26.598326275108764 ], [ 87.025050581187756, 26.598326275108764 ], [ 87.025050581187756, 26.596659492733497 ], [ 87.026717446212032, 26.596659492733497 ], [ 87.026717446212032, 26.594992710358234 ], [ 87.028384311236294, 26.594992710358234 ], [ 87.028384311236294, 26.593325927982967 ], [ 87.030051176260557, 26.593325927982967 ], [ 87.030051176260557, 26.5916591456077 ], [ 87.033384906309095, 26.5916591456077 ], [ 87.033384906309095, 26.589992363232433 ], [ 87.035051771333357, 26.589992363232433 ], [ 87.035051771333357, 26.58832558085717 ], [ 87.040052366406158, 26.58832558085717 ], [ 87.040052366406158, 26.586658798481903 ], [ 87.043386096454682, 26.586658798481903 ], [ 87.043386096454682, 26.584992016106636 ], [ 87.056721016648808, 26.584992016106636 ], [ 87.056721016648808, 26.586658798481903 ], [ 87.060054746697347, 26.586658798481903 ], [ 87.060054746697347, 26.58832558085717 ], [ 87.061721611721609, 26.58832558085717 ], [ 87.061721611721609, 26.589992363232433 ], [ 87.065055341770133, 26.589992363232433 ], [ 87.065055341770133, 26.5916591456077 ], [ 87.06672220679441, 26.5916591456077 ], [ 87.06672220679441, 26.593325927982967 ], [ 87.068389071818672, 26.593325927982967 ], [ 87.068389071818672, 26.594992710358234 ], [ 87.070055936842934, 26.594992710358234 ], [ 87.070055936842934, 26.596659492733497 ], [ 87.071722801867196, 26.596659492733497 ], [ 87.071722801867196, 26.599993057484031 ], [ 87.073389666891472, 26.599993057484031 ], [ 87.073389666891472, 26.604993404609829 ], [ 87.075056531915735, 26.604993404609829 ], [ 87.075056531915735, 26.608326969360363 ], [ 87.076723396939997, 26.608326969360363 ], [ 87.076723396939997, 26.626661575488288 ], [ 87.075056531915735, 26.626661575488288 ], [ 87.075056531915735, 26.629995140238822 ], [ 87.073389666891472, 26.629995140238822 ], [ 87.073389666891472, 26.633328704989353 ], [ 87.071722801867196, 26.633328704989353 ], [ 87.071722801867196, 26.636662269739887 ], [ 87.070055936842934, 26.636662269739887 ], [ 87.070055936842934, 26.639995834490417 ], [ 87.06672220679441, 26.639995834490417 ], [ 87.06672220679441, 26.641662616865684 ], [ 87.065055341770133, 26.641662616865684 ], [ 87.065055341770133, 26.643329399240951 ], [ 87.061721611721609, 26.643329399240951 ], [ 87.061721611721609, 26.644996181616218 ], [ 87.055054151624546, 26.644996181616218 ], [ 87.055054151624546, 26.646662963991481 ], [ 87.048386691527483, 26.646662963991481 ] ] ] } }
]
}
