{
"type": "FeatureCollection",
"name": "flood_extent_t0210",
"crs": { "type": "name", "properties": { "name": "urn:ogc:def:crs:OGC:1.3:CRS84" } },
"features": [
{ "type": "Feature", "properties": { "flooded": 1.0 }, "geometry": { "type": "Polygon", "coordinates": [ [ [ 87.045052961478945, 26.663330787744144 ], [ 87.045052961478945, 26.661664005368877 ], [ 87.03671863635762, 26.661664005368877 ], [ 87.03671863635762, 26.659997222993614 ], [ 87.033384906309095, 26.659997222993614 ], [ 87.033384906309095, 26.658330440618347 ], [ 87.031718041284819, 26.658330440618347 ], [ 87.031718041284819, 26.65666365824308 ], [ 87.030051176260557, 26.65666365824308 ], [ 87.030051176260557, 26.654996875867813 ], [ 87.028384311236294, 26.654996875867813 ], [ 87.028384311236294, 26.653330093492549 ], [ 87.023383716163494, 26.653330093492549 ], [ 87.023383716163494, 26.651663311117282 ], [ 87.021716851139232, 26.651663311117282 ], [ 87.021716851139232, 26.649996528742015 ], [ 87.015049391042169, 26.649996528742015 ], [ 87.015049391042169, 26.648329746366748 ], [ 87.01171566099363, 26.648329746366748 ], [ 87.01171566099363, 26.646662963991481 ], [ 87.010048795969368, 26.646662963991481 ], [ 87.010048795969368, 26.643329399240951 ], [ 87.008381930945106, 26.643329399240951 ], [ 87.008381930945106, 26.641662616865684 ], [ 87.006715065920844, 26.641662616865684 ], [ 87.006715065920844, 26.638329052115154 ], [ 87.005048200896567, 26.638329052115154 ], [ 87.005048200896567, 26.636662269739887 ], [ 87.003381335872305, 26.636662269739887 ], [ 87.003381335872305, 26.633328704989353 ], [ 87.001714470848043, 26.633328704989353 ], [ 87.001714470848043, 26.629995140238822 ], [ 87.000047605823781, 26.629995140238822 ], [ 87.000047605823781, 26.624994793113025 ], [ 86.998380740799504, 26.624994793113025 ], [ 86.998380740799504, 26.621661228362491 ], [ 86.996713875775242, 26.621661228362491 ], [ 86.996713875775242, 26.619994445987224 ], [ 86.998380740799504, 26.619994445987224 ], [ 86.998380740799504, 26.616660881236694 ], [ 86.996713875775242, 26.616660881236694 ], [ 86.996713875775242, 26.606660186985096 ], [ 86.998380740799504, 26.606660186985096 ], [ 86.998380740799504, 26.598326275108764 ], [ 86.996713875775242, 26.598326275108764 ], [ 86.996713875775242, 26.594992710358234 ], [ 86.998380740799504, 26.594992710358234 ], [ 86.998380740799504, 26.593325927982967 ], [ 86.996713875775242, 26.593325927982967 ], [ 86.996713875775242, 26.58832558085717 ], [ 86.998380740799504, 26.58832558085717 ], [ 86.998380740799504, 26.584992016106636 ], [ 87.000047605823781, 26.584992016106636 ], [ 87.000047605823781, 26.581658451356105 ], [ 87.001714470848043, 26.581658451356105 ], [ 87.001714470848043, 26.579991668980838 ], [ 87.000047605823781, 26.579991668980838 ], [ 87.000047605823781, 26.576658104230305 ], [ 87.001714470848043, 26.576658104230305 ], [ 87.001714470848043, 26.573324539479774 ], [ 87.003381335872305, 26.573324539479774 ], [ 87.003381335872305, 26.571657757104507 ], [ 87.005048200896567, 26.571657757104507 ], [ 87.005048200896567, 26.56999097472924 ], [ 87.006715065920844, 26.56999097472924 ], [ 87.006715065920844, 26.568324192353973 ], [ 87.008381930945106, 26.568324192353973 ], [ 87.008381930945106, 26.564990627603443 ], [ 87.010048795969368, 26.564990627603443 ], [ 87.010048795969368, 26.563323845228176 ], [ 87.01171566099363, 26.563323845228176 ], [ 87.01171566099363, 26.559990280477646 ], [ 87.015049391042169, 26.559990280477646 ], [ 87.015049391042169, 26.558323498102379 ], [ 87.018383121090693, 26.558323498102379 ], [ 87.018383121090693, 26.556656715727112 ], [ 87.020049986114969, 26.556656715727112 ], [ 87.020049986114969, 26.554989933351845 ], [ 87.021716851139232, 26.554989933351845 ], [ 87.021716851139232, 26.553323150976581 ], [ 87.035051771333357, 26.553323150976581 ], [ 87.035051771333357, 26.551656368601314 ], [ 87.03671863635762, 26.551656368601314 ], [ 87.03671863635762, 26.549989586226047 ], [ 87.038385501381882, 26.549989586226047 ], [ 87.038385501381882, 26.551656368601314 ], [ 87.043386096454682, 26.551656368601314 ], [ 87.043386096454682, 26.549989586226047 ], [ 87.055054151624546, 26.549989586226047 ], [ 87.055054151624546, 26.551656368601314 ], [ 87.061721611721609, 26.551656368601314 ], [ 87.061721611721609, 26.553323150976581 ], [ 87.063388476745871, 26.553323150976581 ], [ 87.063388476745871, 26.554989933351845 ], [ 87.06672220679441, 26.554989933351845 ], [ 87.06672220679441, 26.556656715727112 ], [ 87.071722801867196, 26.556656715727112 ], [ 87.071722801867196, 26.558323498102379 ], [ 87.075056531915735, 26.558323498102379 ], [ 87.075056531915735, 26.561657062852909 ], [ 87.076723396939997, 26.561657062852909 ], [ 87.076723396939997, 26.563323845228176 ], [ 87.078390261964259, 26.563323845228176 ], [ 87.078390261964259, 26.564990627603443 ], [ 87.081723992012797, 26.564990627603443 ], [ 87.081723992012797, 26.56665740997871 ], [ 87.08339085703706, 26.56665740997871 ], [ 87.08339085703706, 26.56999097472924 ], [ 87.08839145210986, 26.56999097472924 ], [ 87.08839145210986, 26.571657757104507 ], [ 87.090058317134122, 26.571657757104507 ], [ 87.090058317134122, 26.574991321855038 ], [ 87.091725182158385, 26.574991321855038 ], [ 87.091725182158385, 26.578324886605571 ], [ 87.093392047182661, 26.578324886605571 ], [ 87.093392047182661, 26.581658451356105 ], [ 87.095058912206923, 26.581658451356105 ], [ 87.095058912206923, 26.586658798481903 ], [ 87.096725777231185, 26.586658798481903 ], [ 87.096725777231185, 26.593325927982967 ], [ 87.098392642255448, 26.593325927982967 ], [ 87.098392642255448, 26.596659492733497 ], [ 87.096725777231185, 26.596659492733497 ], [ 87.096725777231185, 26.598326275108764 ], [ 87.098392642255448, 26.598326275108764 ], [ 87.098392642255448, 26.603326622234565 ], [ 87.100059507279724, 26.603326622234565 ], [ 87.100059507279724, 26.608326969360363 ], [ 87.098392642255448, 26.608326969360363 ], [ 87.098392642255448, 26.614994098861427 ], [ 87.096725777231185, 26.614994098861427 ], [ 87.096725777231185, 26.618327663611957 ], [ 87.098392642255448, 26.618327663611957 ], [ 87.098392642255448, 26.621661228362491 ], [ 87.096725777231185, 26.621661228362491 ], [ 87.096725777231185, 26.624994793113025 ], [ 87.098392642255448, 26.624994793113025 ], [ 87.098392642255448, 26.628328357863555 ], [ 87.096725777231185, 26.628328357863555 ], [ 87.096725777231185, 26.631661922614089 ], [ 87.095058912206923, 26.631661922614089 ], [ 87.095058912206923, 26.633328704989353 ], [ 87.093392047182661, 26.633328704989353 ], [ 87.093392047182661, 26.638329052115154 ], [ 87.091725182158385, 26.638329052115154 ], [ 87.091725182158385, 26.641662616865684 ], [ 87.090058317134122, 26.641662616865684 ], [ 87.090058317134122, 26.644996181616218 ], [ 87.08839145210986, 26.644996181616218 ], [ 87.08839145210986, 26.646662963991481 ], [ 87.086724587085598, 26.646662963991481 ], [ 87.086724587085598, 26.648329746366748 ], [ 87.085057722061322, 26.648329746366748 ], [ 87.085057722061322, 26.649996528742015 ], [ 87.081723992012797, 26.649996528742015 ], [ 87.081723992012797, 26.651663311117282 ], [ 87.080057126988535, 26.651663311117282 ], [ 87.080057126988535, 26.653330093492549 ], [ 87.078390261964259, 26.653330093492549 ], [ 87.078390261964259, 26.654996875867813 ], [ 87.075056531915735, 26.654996875867813 ], [ 87.075056531915735, 26.65666365824308 ], [ 87.070055936842934, 26.65666365824308 ], [ 87.070055936842934, 26.658330440618347 ], [ 87.060054746697347, 26.658330440618347 ], [ 87.060054746697347, 26.659997222993614 ], [ 87.05838788167307, 26.659997222993614 ], [ 87.05838788167307, 26.661664005368877 ], [ 87.048386691527483, 26.661664005368877 ], [ 87.048386691527483, 26.663330787744144 ], [ 87.045052961478945, 26.663330787744144 ] ] ] } }
]
}
