{
"type": "FeatureCollection",
"name": "flood_extent_t0240",
"crs": { "type": "name", "properties": { "name": "urn:ogc:def:crs:OGC:1.3:CRS84" } },
"features": [
{ "type": "Feature", "properties": { "flooded": 1.0 }, "geometry": { "type": "Polygon", "coordinates": [ [ [ 87.043386096454682, 26.664997570119411 ], [ 87.043386096454682, 26.663330787744144 ], [ 87.035051771333357, 26.663330787744144 ], [ 87.035051771333357, 26.661664005368877 ], [ 87.033384906309095, 26.661664005368877 ], [ 87.033384906309095, 26.659997222993614 ], [ 87.031718041284819, 26.659997222993614 ], [ 87.031718041284819, 26.658330440618347 ], [ 87.030051176260557, 26.658330440618347 ], [ 87.030051176260557, 26.65666365824308 ], [ 87.028384311236294, 26.65666365824308 ], [ 87.028384311236294, 26.654996875867813 ], [ 87.021716851139232, 26.654996875867813 ], [ 87.021716851139232, 26.651663311117282 ], [ 87.018383121090693, 26.651663311117282 ], [ 87.018383121090693, 26.653330093492549 ], [ 87.015049391042169, 26.653330093492549 ], [ 87.015049391042169, 26.651663311117282 ], [ 87.013382526017907, 26.651663311117282 ], [ 87.013382526017907, 26.649996528742015 ], [ 87.01171566099363, 26.649996528742015 ], [ 87.01171566099363, 26.648329746366748 ], [ 87.010048795969368, 26.648329746366748 ], [ 87.010048795969368, 26.646662963991481 ], [ 87.008381930945106, 26.646662963991481 ], [ 87.008381930945106, 26.643329399240951 ], [ 87.006715065920844, 26.643329399240951 ], [ 87.006715065920844, 26.641662616865684 ], [ 87.005048200896567, 26.641662616865684 ], [ 87.005048200896567, 26.639995834490417 ], [ 87.003381335872305, 26.639995834490417 ], [ 87.003381335872305, 26.636662269739887 ], [ 87.001714470848043, 26.636662269739887 ], [ 87.001714470848043, 26.63499548736462 ], [ 87.000047605823781, 26.63499548736462 ], [ 87.000047605823781, 26.631661922614089 ], [ 86.998380740799504, 26.631661922614089 ], [ 86.998380740799504, 26.628328357863555 ], [ 86.996713875775242, 26.628328357863555 ], [ 86.996713875775242, 26.626661575488288 ], [ 86.99504701075098, 26.626661575488288 ], [ 86.99504701075098, 26.618327663611957 ], [ 86.993380145726718, 26.618327663611957 ], [ 86.993380145726718, 26.603326622234565 ], [ 86.99504701075098, 26.603326622234565 ], [ 86.99504701075098, 26.601659839859298 ], [ 86.993380145726718, 26.601659839859298 ], [ 86.993380145726718, 26.586658798481903 ], [ 86.99504701075098, 26.586658798481903 ], [ 86.99504701075098, 26.578324886605571 ], [ 86.996713875775242, 26.578324886605571 ], [ 86.996713875775242, 26.571657757104507 ], [ 86.998380740799504, 26.571657757104507 ], [ 86.998380740799504, 26.56665740997871 ], [ 87.000047605823781, 26.56665740997871 ], [ 87.000047605823781, 26.564990627603443 ], [ 87.001714470848043, 26.564990627603443 ], [ 87.001714470848043, 26.563323845228176 ], [ 87.003381335872305, 26.563323845228176 ], [ 87.003381335872305, 26.561657062852909 ], [ 87.006715065920844, 26.561657062852909 ], [ 87.006715065920844, 26.559990280477646 ], [ 87.008381930945106, 26.559990280477646 ], [ 87.008381930945106, 26.558323498102379 ], [ 87.010048795969368, 26.558323498102379 ], [ 87.010048795969368, 26.556656715727112 ], [ 87.01171566099363, 26.556656715727112 ], [ 87.01171566099363, 26.554989933351845 ], [ 87.013382526017907, 26.554989933351845 ], [ 87.013382526017907, 26.553323150976581 ], [ 87.015049391042169, 26.553323150976581 ], [ 87.015049391042169, 26.551656368601314 ], [ 87.016716256066431, 26.551656368601314 ], [ 87.016716256066431, 26.549989586226047 ], [ 87.018383121090693, 26.549989586226047 ], [ 87.018383121090693, 26.54832280385078 ], [ 87.020049986114969, 26.54832280385078 ], [ 87.020049986114969, 26.546656021475513 ], [ 87.033384906309095, 26.546656021475513 ], [ 87.033384906309095, 26.54498923910025 ], [ 87.043386096454682, 26.54498923910025 ], [ 87.043386096454682, 26.543322456724983 ], [ 87.053387286600284, 26.543322456724983 ], [ 87.053387286600284, 26.54498923910025 ], [ 87.056721016648808, 26.54498923910025 ], [ 87.056721016648808, 26.546656021475513 ], [ 87.060054746697347, 26.546656021475513 ], [ 87.060054746697347, 26.54498923910025 ], [ 87.061721611721609, 26.54498923910025 ], [ 87.061721611721609, 26.546656021475513 ], [ 87.063388476745871, 26.546656021475513 ], [ 87.063388476745871, 26.54832280385078 ], [ 87.06672220679441, 26.54832280385078 ], [ 87.06672220679441, 26.549989586226047 ], [ 87.071722801867196, 26.549989586226047 ], [ 87.071722801867196, 26.551656368601314 ], [ 87.073389666891472, 26.551656368601314 ], [ 87.073389666891472, 26.553323150976581 ], [ 87.075056531915735, 26.553323150976581 ], [ 87.075056531915735, 26.554989933351845 ], [ 87.076723396939997, 26.554989933351845 ], [ 87.076723396939997, 26.556656715727112 ], [ 87.080057126988535, 26.556656715727112 ], [ 87.080057126988535, 26.558323498102379 ], [ 87.081723992012797, 26.558323498102379 ], [ 87.081723992012797, 26.559990280477646 ], [ 87.08339085703706, 26.559990280477646 ], [ 87.08339085703706, 26.561657062852909 ], [ 87.086724587085598, 26.561657062852909 ], [ 87.086724587085598, 26.563323845228176 ], [ 87.090058317134122, 26.563323845228176 ], [ 87.090058317134122, 26.56665740997871 ], [ 87.091725182158385, 26.56665740997871 ], [ 87.091725182158385, 26.568324192353973 ], [ 87.093392047182661, 26.568324192353973 ], [ 87.093392047182661, 26.571657757104507 ], [ 87.095058912206923, 26.571657757104507 ], [ 87.095058912206923, 26.574991321855038 ], [ 87.096725777231185, 26.574991321855038 ], [ 87.096725777231185, 26.576658104230305 ], [ 87.098392642255448, 26.576658104230305 ], [ 87.098392642255448, 26.584992016106636 ], [ 87.100059507279724, 26.584992016106636 ], [ 87.100059507279724, 26.586658798481903 ], [ 87.101726372303986, 26.586658798481903 ], [ 87.101726372303986, 26.594992710358234 ], [ 87.103393237328248, 26.594992710358234 ], [ 87.103393237328248, 26.603326622234565 ], [ 87.101726372303986, 26.603326622234565 ], [ 87.101726372303986, 26.61332731648616 ], [ 87.103393237328248, 26.61332731648616 ], [ 87.103393237328248, 26.618327663611957 ], [ 87.101726372303986, 26.618327663611957 ], [ 87.101726372303986, 26.621661228362491 ], [ 87.100059507279724, 26.621661228362491 ], [ 87.100059507279724, 26.628328357863555 ], [ 87.098392642255448, 26.628328357863555 ], [ 87.098392642255448, 26.633328704989353 ], [ 87.096725777231185, 26.633328704989353 ], [ 87.096725777231185, 26.63499548736462 ], [ 87.095058912206923, 26.63499548736462 ], [ 87.095058912206923, 26.639995834490417 ], [ 87.093392047182661, 26.639995834490417 ], [ 87.093392047182661, 26.643329399240951 ], [ 87.091725182158385, 26.643329399240951 ], [ 87.091725182158385, 26.646662963991481 ], [ 87.090058317134122, 26.646662963991481 ], [ 87.090058317134122, 26.648329746366748 ], [ 87.08839145210986, 26.648329746366748 ], [ 87.08839145210986, 26.649996528742015 ], [ 87.086724587085598, 26.649996528742015 ], [ 87.086724587085598, 26.651663311117282 ], [ 87.08339085703706, 26.651663311117282 ], [ 87.08339085703706, 26.653330093492549 ], [ 87.081723992012797, 26.653330093492549 ], [ 87.081723992012797, 26.654996875867813 ], [ 87.078390261964259, 26.654996875867813 ], [ 87.078390261964259, 26.65666365824308 ], [ 87.076723396939997, 26.65666365824308 ], [ 87.076723396939997, 26.658330440618347 ], [ 87.071722801867196, 26.658330440618347 ], [ 87.071722801867196, 26.659997222993614 ], [ 87.061721611721609, 26.659997222993614 ], [ 87.061721611721609, 26.661664005368877 ], [ 87.060054746697347, 26.661664005368877 ], [ 87.060054746697347, 26.663330787744144 ], [ 87.050053556551745, 26.663330787744144 ], [ 87.050053556551745, 26.664997570119411 ], [ 87.043386096454682, 26.664997570119411 ] ] ] } }
]
}
