{
"type": "FeatureCollection",
"name": "flood_extent_t0135",
"crs": { "type": "name", "properties": { "name": "urn:ogc:def:crs:OGC:1.3:CRS84" } },
"features": [
{ "type": "Feature", "properties": { "flooded": 1.0 }, "geometry": { "type": "Polygon", "coordinates": [ [ [ 87.043386096454682, 26.654996875867813 ], [ 87.043386096454682, 26.653330093492549 ], [ 87.03671863635762, 26.653330093492549 ], [ 87.03671863635762, 26.651663311117282 ], [ 87.031718041284819, 26.651663311117282 ], [ 87.031718041284819, 26.649996528742015 ], [ 87.030051176260557, 26.649996528742015 ], [ 87.030051176260557, 26.648329746366748 ], [ 87.026717446212032, 26.648329746366748 ], [ 87.026717446212032, 26.646662963991481 ], [ 87.023383716163494, 26.646662963991481 ], [ 87.023383716163494, 26.644996181616218 ], [ 87.021716851139232, 26.644996181616218 ], [ 87.021716851139232, 26.643329399240951 ], [ 87.020049986114969, 26.643329399240951 ], [ 87.020049986114969, 26.641662616865684 ], [ 87.018383121090693, 26.641662616865684 ], [ 87.018383121090693, 26.639995834490417 ], [ 87.016716256066431, 26.639995834490417 ], [ 87.016716256066431, 26.636662269739887 ], [ 87.015049391042169, 26.636662269739887 ], [ 87.015049391042169, 26.633328704989353 ], [ 87.013382526017907, 26.633328704989353 ], [ 87.013382526017907, 26.631661922614089 ], [ 87.01171566099363, 26.631661922614089 ], [ 87.01171566099363, 26.626661575488288 ], [ 87.010048795969368, 26.626661575488288 ], [ 87.010048795969368, 26.624994793113025 ], [ 87.008381930945106, 26.624994793113025 ], [ 87.008381930945106, 26.599993057484031 ], [ 87.010048795969368, 26.599993057484031 ], [ 87.010048795969368, 26.5916591456077 ], [ 87.01171566099363, 26.5916591456077 ], [ 87.01171566099363, 26.58832558085717 ], [ 87.013382526017907, 26.58832558085717 ], [ 87.013382526017907, 26.586658798481903 ], [ 87.015049391042169, 26.586658798481903 ], [ 87.015049391042169, 26.583325233731369 ], [ 87.018383121090693, 26.583325233731369 ], [ 87.018383121090693, 26.581658451356105 ], [ 87.020049986114969, 26.581658451356105 ], [ 87.020049986114969, 26.578324886605571 ], [ 87.021716851139232, 26.578324886605571 ], [ 87.021716851139232, 26.576658104230305 ], [ 87.023383716163494, 26.576658104230305 ], [ 87.023383716163494, 26.574991321855038 ], [ 87.025050581187756, 26.574991321855038 ], [ 87.025050581187756, 26.573324539479774 ], [ 87.028384311236294, 26.573324539479774 ], [ 87.028384311236294, 26.571657757104507 ], [ 87.031718041284819, 26.571657757104507 ], [ 87.031718041284819, 26.56999097472924 ], [ 87.03671863635762, 26.56999097472924 ], [ 87.03671863635762, 26.568324192353973 ], [ 87.043386096454682, 26.568324192353973 ], [ 87.043386096454682, 26.56665740997871 ], [ 87.050053556551745, 26.56665740997871 ], [ 87.050053556551745, 26.568324192353973 ], [ 87.060054746697347, 26.568324192353973 ], [ 87.060054746697347, 26.56999097472924 ], [ 87.061721611721609, 26.56999097472924 ], [ 87.061721611721609, 26.571657757104507 ], [ 87.065055341770133, 26.571657757104507 ], [ 87.065055341770133, 26.573324539479774 ], [ 87.06672220679441, 26.573324539479774 ], [ 87.06672220679441, 26.576658104230305 ], [ 87.071722801867196, 26.576658104230305 ], [ 87.071722801867196, 26.578324886605571 ], [ 87.073389666891472, 26.578324886605571 ], [ 87.073389666891472, 26.579991668980838 ], [ 87.076723396939997, 26.579991668980838 ], [ 87.076723396939997, 26.583325233731369 ], [ 87.078390261964259, 26.583325233731369 ], [ 87.078390261964259, 26.586658798481903 ], [ 87.080057126988535, 26.586658798481903 ], [ 87.080057126988535, 26.58832558085717 ], [ 87.081723992012797, 26.58832558085717 ], [ 87.081723992012797, 26.589992363232433 ], [ 87.08339085703706, 26.589992363232433 ], [ 87.08339085703706, 26.594992710358234 ], [ 87.085057722061322, 26.594992710358234 ], [ 87.085057722061322, 26.596659492733497 ], [ 87.086724587085598, 26.596659492733497 ], [ 87.086724587085598, 26.599993057484031 ], [ 87.08839145210986, 26.599993057484031 ], [ 87.08839145210986, 26.611660534110893 ], [ 87.090058317134122, 26.611660534110893 ], [ 87.090058317134122, 26.621661228362491 ], [ 87.08839145210986, 26.621661228362491 ], [ 87.08839145210986, 26.628328357863555 ], [ 87.086724587085598, 26.628328357863555 ], [ 87.086724587085598, 26.629995140238822 ], [ 87.085057722061322, 26.629995140238822 ], [ 87.085057722061322, 26.63499548736462 ], [ 87.081723992012797, 26.63499548736462 ], [ 87.081723992012797, 26.639995834490417 ], [ 87.080057126988535, 26.639995834490417 ], [ 87.080057126988535, 26.641662616865684 ], [ 87.078390261964259, 26.641662616865684 ], [ 87.078390261964259, 26.643329399240951 ], [ 87.076723396939997, 26.643329399240951 ], [ 87.076723396939997, 26.644996181616218 ], [ 87.073389666891472, 26.644996181616218 ], [ 87.073389666891472, 26.646662963991481 ], [ 87.071722801867196, 26.646662963991481 ], [ 87.071722801867196, 26.648329746366748 ], [ 87.06672220679441, 26.648329746366748 ], [ 87.06672220679441, 26.649996528742015 ], [ 87.065055341770133, 26.649996528742015 ], [ 87.065055341770133, 26.651663311117282 ], [ 87.063388476745871, 26.651663311117282 ], [ 87.063388476745871, 26.653330093492549 ], [ 87.055054151624546, 26.653330093492549 ], [ 87.055054151624546, 26.654996875867813 ], [ 87.051720421576007, 26.654996875867813 ], [ 87.051720421576007, 26.653330093492549 ], [ 87.045052961478945, 26.653330093492549 ], [ 87.045052961478945, 26.654996875867813 ], [ 87.043386096454682, 26.654996875867813 ] ] ] } }
]
}
