{
"type": "FeatureCollection",
"name": "flood_extent_max",
"crs": { "type": "name", "properties": { "name": "urn:ogc:def:crs:OGC:1.3:CRS84" } },
"features": [
{ "type": "Feature", "properties": { "flooded": 1.0 }, "geometry": { "type": "Polygon", "coordinates": [ [ [ 86.916704354610488, 26.583325233731369 ], [ 86.916704354610488, 26.581658451356105 ], [ 86.911703759537687, 26.581658451356105 ], [ 86.911703759537687, 26.579991668980838 ], [ 86.910036894513425, 26.579991668980838 ], [ 86.910036894513425, 26.578324886605571 ], [ 86.905036299440624, 26.578324886605571 ], [ 86.905036299440624, 26.579991668980838 ], [ 86.9017025693921, 26.579991668980838 ], [ 86.9017025693921, 26.578324886605571 ], [ 86.900035704367824, 26.578324886605571 ], [ 86.900035704367824, 26.576658104230305 ], [ 86.896701974319299, 26.576658104230305 ], [ 86.896701974319299, 26.574991321855038 ], [ 86.893368244270761, 26.574991321855038 ], [ 86.893368244270761, 26.573324539479774 ], [ 86.891701379246499, 26.573324539479774 ], [ 86.891701379246499, 26.571657757104507 ], [ 86.885033919149436, 26.571657757104507 ], [ 86.885033919149436, 26.56999097472924 ], [ 86.881700189100911, 26.56999097472924 ], [ 86.881700189100911, 26.568324192353973 ], [ 86.878366459052373, 26.568324192353973 ], [ 86.878366459052373, 26.56665740997871 ], [ 86.875032729003848, 26.56665740997871 ], [ 86.875032729003848, 26.564990627603443 ], [ 86.87169899895531, 26.564990627603443 ], [ 86.87169899895531, 26.563323845228176 ], [ 86.870032133931048, 26.563323845228176 ], [ 86.870032133931048, 26.561657062852909 ], [ 86.868365268906786, 26.561657062852909 ], [ 86.868365268906786, 26.559990280477646 ], [ 86.866698403882509, 26.559990280477646 ], [ 86.866698403882509, 26.558323498102379 ], [ 86.860030943785446, 26.558323498102379 ], [ 86.860030943785446, 26.556656715727112 ], [ 86.858364078761184, 26.556656715727112 ], [ 86.858364078761184, 26.554989933351845 ], [ 86.85503034871266, 26.554989933351845 ], [ 86.85503034871266, 26.553323150976581 ], [ 86.853363483688383, 26.553323150976581 ], [ 86.853363483688383, 26.551656368601314 ], [ 86.850029753639859, 26.551656368601314 ], [ 86.850029753639859, 26.549989586226047 ], [ 86.848362888615597, 26.549989586226047 ], [ 86.848362888615597, 26.54832280385078 ], [ 86.846696023591321, 26.54832280385078 ], [ 86.846696023591321, 26.546656021475513 ], [ 86.845029158567058, 26.546656021475513 ], [ 86.845029158567058, 26.543322456724983 ], [ 86.843362293542796, 26.543322456724983 ], [ 86.843362293542796, 26.541655674349716 ], [ 86.841695428518534, 26.541655674349716 ], [ 86.841695428518534, 26.539988891974449 ], [ 86.840028563494258, 26.539988891974449 ], [ 86.840028563494258, 26.538322109599186 ], [ 86.838361698469996, 26.538322109599186 ], [ 86.838361698469996, 26.536655327223919 ], [ 86.836694833445733, 26.536655327223919 ], [ 86.836694833445733, 26.533321762473385 ], [ 86.835027968421471, 26.533321762473385 ], [ 86.835027968421471, 26.524987850597057 ], [ 86.833361103397195, 26.524987850597057 ], [ 86.833361103397195, 26.52332106822179 ], [ 86.831694238372933, 26.52332106822179 ], [ 86.831694238372933, 26.519987503471256 ], [ 86.83002737334867, 26.519987503471256 ], [ 86.83002737334867, 26.506653244469128 ], [ 86.828360508324408, 26.506653244469128 ], [ 86.828360508324408, 26.483318291215401 ], [ 86.83002737334867, 26.483318291215401 ], [ 86.83002737334867, 26.476651161714337 ], [ 86.831694238372933, 26.476651161714337 ], [ 86.831694238372933, 26.471650814588539 ], [ 86.833361103397195, 26.471650814588539 ], [ 86.833361103397195, 26.469984032213272 ], [ 86.835027968421471, 26.469984032213272 ], [ 86.835027968421471, 26.468317249838005 ], [ 86.836694833445733, 26.468317249838005 ], [ 86.836694833445733, 26.464983685087475 ], [ 86.838361698469996, 26.464983685087475 ], [ 86.838361698469996, 26.463316902712208 ], [ 86.840028563494258, 26.463316902712208 ], [ 86.840028563494258, 26.461650120336941 ], [ 86.841695428518534, 26.461650120336941 ], [ 86.841695428518534, 26.459983337961678 ], [ 86.843362293542796, 26.459983337961678 ], [ 86.843362293542796, 26.458316555586411 ], [ 86.845029158567058, 26.458316555586411 ], [ 86.845029158567058, 26.456649773211144 ], [ 86.848362888615597, 26.456649773211144 ], [ 86.848362888615597, 26.454982990835877 ], [ 86.850029753639859, 26.454982990835877 ], [ 86.850029753639859, 26.453316208460613 ], [ 86.851696618664121, 26.453316208460613 ], [ 86.851696618664121, 26.451649426085346 ], [ 86.853363483688383, 26.451649426085346 ], [ 86.853363483688383, 26.449982643710079 ], [ 86.85503034871266, 26.449982643710079 ], [ 86.85503034871266, 26.448315861334812 ], [ 86.856697213736922, 26.448315861334812 ], [ 86.856697213736922, 26.446649078959545 ], [ 86.860030943785446, 26.446649078959545 ], [ 86.860030943785446, 26.444982296584282 ], [ 86.863364673833985, 26.444982296584282 ], [ 86.863364673833985, 26.443315514209015 ], [ 86.866698403882509, 26.443315514209015 ], [ 86.866698403882509, 26.441648731833748 ], [ 86.87169899895531, 26.441648731833748 ], [ 86.87169899895531, 26.439981949458481 ], [ 86.875032729003848, 26.439981949458481 ], [ 86.875032729003848, 26.438315167083218 ], [ 86.878366459052373, 26.438315167083218 ], [ 86.878366459052373, 26.436648384707951 ], [ 86.883367054125173, 26.436648384707951 ], [ 86.883367054125173, 26.434981602332684 ], [ 86.898368839343561, 26.434981602332684 ], [ 86.898368839343561, 26.433314819957417 ], [ 86.910036894513425, 26.433314819957417 ], [ 86.910036894513425, 26.434981602332684 ], [ 86.923371814707551, 26.434981602332684 ], [ 86.923371814707551, 26.436648384707951 ], [ 86.935039869877414, 26.436648384707951 ], [ 86.935039869877414, 26.438315167083218 ], [ 86.940040464950201, 26.438315167083218 ], [ 86.940040464950201, 26.439981949458481 ], [ 86.943374194998739, 26.439981949458481 ], [ 86.943374194998739, 26.441648731833748 ], [ 86.946707925047264, 26.441648731833748 ], [ 86.946707925047264, 26.443315514209015 ], [ 86.950041655095802, 26.443315514209015 ], [ 86.950041655095802, 26.444982296584282 ], [ 86.953375385144341, 26.444982296584282 ], [ 86.953375385144341, 26.446649078959545 ], [ 86.955042250168603, 26.446649078959545 ], [ 86.955042250168603, 26.448315861334812 ], [ 86.956709115192865, 26.448315861334812 ], [ 86.956709115192865, 26.449982643710079 ], [ 86.960042845241404, 26.449982643710079 ], [ 86.960042845241404, 26.453316208460613 ], [ 86.963376575289928, 26.453316208460613 ], [ 86.963376575289928, 26.454982990835877 ], [ 86.96504344031419, 26.454982990835877 ], [ 86.96504344031419, 26.456649773211144 ], [ 86.966710305338466, 26.456649773211144 ], [ 86.966710305338466, 26.459983337961678 ], [ 86.968377170362729, 26.459983337961678 ], [ 86.968377170362729, 26.461650120336941 ], [ 86.970044035386991, 26.461650120336941 ], [ 86.970044035386991, 26.464983685087475 ], [ 86.971710900411253, 26.464983685087475 ], [ 86.971710900411253, 26.466650467462742 ], [ 86.973377765435529, 26.466650467462742 ], [ 86.973377765435529, 26.468317249838005 ], [ 86.975044630459792, 26.468317249838005 ], [ 86.975044630459792, 26.471650814588539 ], [ 86.976711495484054, 26.471650814588539 ], [ 86.976711495484054, 26.473317596963806 ], [ 86.978378360508316, 26.473317596963806 ], [ 86.978378360508316, 26.476651161714337 ], [ 86.980045225532592, 26.476651161714337 ], [ 86.980045225532592, 26.478317944089603 ], [ 86.981712090556854, 26.478317944089603 ], [ 86.981712090556854, 26.481651508840137 ], [ 86.983378955581117, 26.481651508840137 ], [ 86.983378955581117, 26.489985420716465 ], [ 86.985045820605379, 26.489985420716465 ], [ 86.985045820605379, 26.494985767842266 ], [ 86.986712685629655, 26.494985767842266 ], [ 86.986712685629655, 26.498319332592796 ], [ 86.988379550653917, 26.498319332592796 ], [ 86.988379550653917, 26.50165289734333 ], [ 86.990046415678179, 26.50165289734333 ], [ 86.990046415678179, 26.508320026844395 ], [ 86.988379550653917, 26.508320026844395 ], [ 86.988379550653917, 26.531654980098121 ], [ 86.986712685629655, 26.531654980098121 ], [ 86.986712685629655, 26.534988544848652 ], [ 86.985045820605379, 26.534988544848652 ], [ 86.985045820605379, 26.538322109599186 ], [ 86.983378955581117, 26.538322109599186 ], [ 86.983378955581117, 26.543322456724983 ], [ 86.981712090556854, 26.543322456724983 ], [ 86.981712090556854, 26.54832280385078 ], [ 86.980045225532592, 26.54832280385078 ], [ 86.980045225532592, 26.549989586226047 ], [ 86.978378360508316, 26.549989586226047 ], [ 86.978378360508316, 26.551656368601314 ], [ 86.976711495484054, 26.551656368601314 ], [ 86.976711495484054, 26.556656715727112 ], [ 86.973377765435529, 26.556656715727112 ], [ 86.973377765435529, 26.558323498102379 ], [ 86.971710900411253, 26.558323498102379 ], [ 86.971710900411253, 26.559990280477646 ], [ 86.970044035386991, 26.559990280477646 ], [ 86.970044035386991, 26.563323845228176 ], [ 86.968377170362729, 26.563323845228176 ], [ 86.968377170362729, 26.564990627603443 ], [ 86.966710305338466, 26.564990627603443 ], [ 86.966710305338466, 26.56665740997871 ], [ 86.963376575289928, 26.56665740997871 ], [ 86.963376575289928, 26.56999097472924 ], [ 86.958375980217127, 26.56999097472924 ], [ 86.958375980217127, 26.571657757104507 ], [ 86.956709115192865, 26.571657757104507 ], [ 86.956709115192865, 26.573324539479774 ], [ 86.955042250168603, 26.573324539479774 ], [ 86.955042250168603, 26.574991321855038 ], [ 86.953375385144341, 26.574991321855038 ], [ 86.953375385144341, 26.576658104230305 ], [ 86.94837479007154, 26.576658104230305 ], [ 86.94837479007154, 26.578324886605571 ], [ 86.943374194998739, 26.578324886605571 ], [ 86.943374194998739, 26.579991668980838 ], [ 86.935039869877414, 26.579991668980838 ], [ 86.935039869877414, 26.581658451356105 ], [ 86.931706139828876, 26.581658451356105 ], [ 86.931706139828876, 26.583325233731369 ], [ 86.930039274804614, 26.583325233731369 ], [ 86.930039274804614, 26.581658451356105 ], [ 86.926705544756075, 26.581658451356105 ], [ 86.926705544756075, 26.583325233731369 ], [ 86.923371814707551, 26.583325233731369 ], [ 86.923371814707551, 26.581658451356105 ], [ 86.920038084659012, 26.581658451356105 ], [ 86.920038084659012, 26.583325233731369 ], [ 86.916704354610488, 26.583325233731369 ] ] ] } }
]
}
