<?xml version="1.0" encoding="UTF-8"?>
<kml xmlns="http://www.opengis.net/kml/2.2" xmlns:gx="http://www.google.com/kml/ext/2.2">
    <Document id="1">
        <Placemark id="3">
            <Polygon id="2">
                <outerBoundaryIs>
                    <LinearRing id="4">
                        <coordinates>86.91670435461049,26.58332523373137,0.0 86.91670435461049,26.581658451356105,0.0 86.91170375953769,26.581658451356105,0.0 86.91170375953769,26.57999166898084,0.0 86.91003689451342,26.57999166898084,0.0 86.91003689451342,26.57832488660557,0.0 86.90503629944062,26.57832488660557,0.0 86.90503629944062,26.57999166898084,0.0 86.9017025693921,26.57999166898084,0.0 86.9017025693921,26.57832488660557,0.0 86.90003570436782,26.57832488660557,0.0 86.90003570436782,26.576658104230305,0.0 86.8967019743193,26.576658104230305,0.0 86.8967019743193,26.574991321855038,0.0 86.89336824427076,26.574991321855038,0.0 86.89336824427076,26.573324539479774,0.0 86.8917013792465,26.573324539479774,0.0 86.8917013792465,26.571657757104507,0.0 86.88503391914944,26.571657757104507,0.0 86.88503391914944,26.56999097472924,0.0 86.88170018910091,26.56999097472924,0.0 86.88170018910091,26.568324192353973,0.0 86.87836645905237,26.568324192353973,0.0 86.87836645905237,26.56665740997871,0.0 86.87503272900385,26.56665740997871,0.0 86.87503272900385,26.564990627603443,0.0 86.87169899895531,26.564990627603443,0.0 86.87169899895531,26.563323845228176,0.0 86.87003213393105,26.563323845228176,0.0 86.87003213393105,26.56165706285291,0.0 86.86836526890679,26.56165706285291,0.0 86.86836526890679,26.559990280477646,0.0 86.86669840388251,26.559990280477646,0.0 86.86669840388251,26.55832349810238,0.0 86.86003094378545,26.55832349810238,0.0 86.86003094378545,26.55665671572711,0.0 86.85836407876118,26.55665671572711,0.0 86.85836407876118,26.554989933351845,0.0 86.85503034871266,26.554989933351845,0.0 86.85503034871266,26.55332315097658,0.0 86.85336348368838,26.55332315097658,0.0 86.85336348368838,26.551656368601314,0.0 86.85002975363986,26.551656368601314,0.0 86.85002975363986,26.549989586226047,0.0 86.8483628886156,26.549989586226047,0.0 86.8483628886156,26.54832280385078,0.0 86.84669602359132,26.54832280385078,0.0 86.84669602359132,26.546656021475513,0.0 86.84502915856706,26.546656021475513,0.0 86.84502915856706,26.543322456724983,0.0 86.8433622935428,26.543322456724983,0.0 86.8433622935428,26.541655674349716,0.0 86.84169542851853,26.541655674349716,0.0 86.84169542851853,26.53998889197445,0.0 86.84002856349426,26.53998889197445,0.0 86.84002856349426,26.538322109599186,0.0 86.83836169847,26.538322109599186,0.0 86.83836169847,26.53665532722392,0.0 86.83669483344573,26.53665532722392,0.0 86.83669483344573,26.533321762473385,0.0 86.83502796842147,26.533321762473385,0.0 86.83502796842147,26.524987850597057,0.0 86.8333611033972,26.524987850597057,0.0 86.8333611033972,26.52332106822179,0.0 86.83169423837293,26.52332106822179,0.0 86.83169423837293,26.519987503471256,0.0 86.83002737334867,26.519987503471256,0.0 86.83002737334867,26.506653244469128,0.0 86.82836050832441,26.506653244469128,0.0 86.82836050832441,26.4833182912154,0.0 86.83002737334867,26.4833182912154,0.0 86.83002737334867,26.476651161714337,0.0 86.83169423837293,26.476651161714337,0.0 86.83169423837293,26.47165081458854,0.0 86.8333611033972,26.47165081458854,0.0 86.8333611033972,26.469984032213272,0.0 86.83502796842147,26.469984032213272,0.0 86.83502796842147,26.468317249838005,0.0 86.83669483344573,26.468317249838005,0.0 86.83669483344573,26.464983685087475,0.0 86.83836169847,26.464983685087475,0.0 86.83836169847,26.463316902712208,0.0 86.84002856349426,26.463316902712208,0.0 86.84002856349426,26.46165012033694,0.0 86.84169542851853,26.46165012033694,0.0 86.84169542851853,26.459983337961678,0.0 86.8433622935428,26.459983337961678,0.0 86.8433622935428,26.45831655558641,0.0 86.84502915856706,26.45831655558641,0.0 86.84502915856706,26.456649773211144,0.0 86.8483628886156,26.456649773211144,0.0 86.8483628886156,26.454982990835877,0.0 86.85002975363986,26.454982990835877,0.0 86.85002975363986,26.453316208460613,0.0 86.85169661866412,26.453316208460613,0.0 86.85169661866412,26.451649426085346,0.0 86.85336348368838,26.451649426085346,0.0 86.85336348368838,26.44998264371008,0.0 86.85503034871266,26.44998264371008,0.0 86.85503034871266,26.448315861334812,0.0 86.85669721373692,26.448315861334812,0.0 86.85669721373692,26.446649078959545,0.0 86.86003094378545,26.446649078959545,0.0 86.86003094378545,26.444982296584282,0.0 86.86336467383398,26.444982296584282,0.0 86.86336467383398,26.443315514209015,0.0 86.86669840388251,26.443315514209015,0.0 86.86669840388251,26.441648731833748,0.0 86.87169899895531,26.441648731833748,0.0 86.87169899895531,26.43998194945848,0.0 86.87503272900385,26.43998194945848,0.0 86.87503272900385,26.438315167083218,0.0 86.87836645905237,26.438315167083218,0.0 86.87836645905237,26.43664838470795,0.0 86.88336705412517,26.43664838470795,0.0 86.88336705412517,26.434981602332684,0.0 86.89836883934356,26.434981602332684,0.0 86.89836883934356,26.433314819957417,0.0 86.91003689451342,26.433314819957417,0.0 86.91003689451342,26.434981602332684,0.0 86.92337181470755,26.434981602332684,0.0 86.92337181470755,26.43664838470795,0.0 86.93503986987741,26.43664838470795,0.0 86.93503986987741,26.438315167083218,0.0 86.9400404649502,26.438315167083218,0.0 86.9400404649502,26.43998194945848,0.0 86.94337419499874,26.43998194945848,0.0 86.94337419499874,26.441648731833748,0.0 86.94670792504726,26.441648731833748,0.0 86.94670792504726,26.443315514209015,0.0 86.9500416550958,26.443315514209015,0.0 86.9500416550958,26.444982296584282,0.0 86.95337538514434,26.444982296584282,0.0 86.95337538514434,26.446649078959545,0.0 86.9550422501686,26.446649078959545,0.0 86.9550422501686,26.448315861334812,0.0 86.95670911519287,26.448315861334812,0.0 86.95670911519287,26.44998264371008,0.0 86.9600428452414,26.44998264371008,0.0 86.9600428452414,26.453316208460613,0.0 86.96337657528993,26.453316208460613,0.0 86.96337657528993,26.454982990835877,0.0 86.96504344031419,26.454982990835877,0.0 86.96504344031419,26.456649773211144,0.0 86.96671030533847,26.456649773211144,0.0 86.96671030533847,26.459983337961678,0.0 86.96837717036273,26.459983337961678,0.0 86.96837717036273,26.46165012033694,0.0 86.97004403538699,26.46165012033694,0.0 86.97004403538699,26.464983685087475,0.0 86.97171090041125,26.464983685087475,0.0 86.97171090041125,26.466650467462742,0.0 86.97337776543553,26.466650467462742,0.0 86.97337776543553,26.468317249838005,0.0 86.97504463045979,26.468317249838005,0.0 86.97504463045979,26.47165081458854,0.0 86.97671149548405,26.47165081458854,0.0 86.97671149548405,26.473317596963806,0.0 86.97837836050832,26.473317596963806,0.0 86.97837836050832,26.476651161714337,0.0 86.98004522553259,26.476651161714337,0.0 86.98004522553259,26.478317944089603,0.0 86.98171209055685,26.478317944089603,0.0 86.98171209055685,26.481651508840137,0.0 86.98337895558112,26.481651508840137,0.0 86.98337895558112,26.489985420716465,0.0 86.98504582060538,26.489985420716465,0.0 86.98504582060538,26.494985767842266,0.0 86.98671268562966,26.494985767842266,0.0 86.98671268562966,26.498319332592796,0.0 86.98837955065392,26.498319332592796,0.0 86.98837955065392,26.50165289734333,0.0 86.99004641567818,26.50165289734333,0.0 86.99004641567818,26.508320026844395,0.0 86.98837955065392,26.508320026844395,0.0 86.98837955065392,26.53165498009812,0.0 86.98671268562966,26.53165498009812,0.0 86.98671268562966,26.53498854484865,0.0 86.98504582060538,26.53498854484865,0.0 86.98504582060538,26.538322109599186,0.0 86.98337895558112,26.538322109599186,0.0 86.98337895558112,26.543322456724983,0.0 86.98171209055685,26.543322456724983,0.0 86.98171209055685,26.54832280385078,0.0 86.98004522553259,26.54832280385078,0.0 86.98004522553259,26.549989586226047,0.0 86.97837836050832,26.549989586226047,0.0 86.97837836050832,26.551656368601314,0.0 86.97671149548405,26.551656368601314,0.0 86.97671149548405,26.55665671572711,0.0 86.97337776543553,26.55665671572711,0.0 86.97337776543553,26.55832349810238,0.0 86.97171090041125,26.55832349810238,0.0 86.97171090041125,26.559990280477646,0.0 86.97004403538699,26.559990280477646,0.0 86.97004403538699,26.563323845228176,0.0 86.96837717036273,26.563323845228176,0.0 86.96837717036273,26.564990627603443,0.0 86.96671030533847,26.564990627603443,0.0 86.96671030533847,26.56665740997871,0.0 86.96337657528993,26.56665740997871,0.0 86.96337657528993,26.56999097472924,0.0 86.95837598021713,26.56999097472924,0.0 86.95837598021713,26.571657757104507,0.0 86.95670911519287,26.571657757104507,0.0 86.95670911519287,26.573324539479774,0.0 86.9550422501686,26.573324539479774,0.0 86.9550422501686,26.574991321855038,0.0 86.95337538514434,26.574991321855038,0.0 86.95337538514434,26.576658104230305,0.0 86.94837479007154,26.576658104230305,0.0 86.94837479007154,26.57832488660557,0.0 86.94337419499874,26.57832488660557,0.0 86.94337419499874,26.57999166898084,0.0 86.93503986987741,26.57999166898084,0.0 86.93503986987741,26.581658451356105,0.0 86.93170613982888,26.581658451356105,0.0 86.93170613982888,26.58332523373137,0.0 86.93003927480461,26.58332523373137,0.0 86.93003927480461,26.581658451356105,0.0 86.92670554475608,26.581658451356105,0.0 86.92670554475608,26.58332523373137,0.0 86.92337181470755,26.58332523373137,0.0 86.92337181470755,26.581658451356105,0.0 86.92003808465901,26.581658451356105,0.0 86.92003808465901,26.58332523373137,0.0 86.91670435461049,26.58332523373137,0.0</coordinates>
                    </LinearRing>
                </outerBoundaryIs>
            </Polygon>
        </Placemark>
    </Document>
</kml>
