{
"type": "FeatureCollection",
"name": "flood_extent_t0165",
"crs": { "type": "name", "properties": { "name": "urn:ogc:def:crs:OGC:1.3:CRS84" } },
"features": [
{ "type": "Feature", "properties": { "flooded": 1.0 }, "geometry": { "type": "Polygon", "coordinates": [ [ [ 86.915037489586226, 26.581658451356105 ], [ 86.915037489586226, 26.579991668980838 ], [ 86.913370624561949, 26.579991668980838 ], [ 86.913370624561949, 26.578324886605571 ], [ 86.910036894513425, 26.578324886605571 ], [ 86.910036894513425, 26.576658104230305 ], [ 86.900035704367824, 26.576658104230305 ], [ 86.900035704367824, 26.574991321855038 ], [ 86.896701974319299, 26.574991321855038 ], [ 86.896701974319299, 26.573324539479774 ], [ 86.891701379246499, 26.573324539479774 ], [ 86.891701379246499, 26.571657757104507 ], [ 86.890034514222236, 26.571657757104507 ], [ 86.890034514222236, 26.56999097472924 ], [ 86.883367054125173, 26.56999097472924 ], [ 86.883367054125173, 26.568324192353973 ], [ 86.881700189100911, 26.568324192353973 ], [ 86.881700189100911, 26.56665740997871 ], [ 86.880033324076635, 26.56665740997871 ], [ 86.880033324076635, 26.564990627603443 ], [ 86.875032729003848, 26.564990627603443 ], [ 86.875032729003848, 26.563323845228176 ], [ 86.87169899895531, 26.563323845228176 ], [ 86.87169899895531, 26.561657062852909 ], [ 86.870032133931048, 26.561657062852909 ], [ 86.870032133931048, 26.559990280477646 ], [ 86.868365268906786, 26.559990280477646 ], [ 86.868365268906786, 26.558323498102379 ], [ 86.866698403882509, 26.558323498102379 ], [ 86.866698403882509, 26.556656715727112 ], [ 86.861697808809723, 26.556656715727112 ], [ 86.861697808809723, 26.554989933351845 ], [ 86.858364078761184, 26.554989933351845 ], [ 86.858364078761184, 26.553323150976581 ], [ 86.856697213736922, 26.553323150976581 ], [ 86.856697213736922, 26.551656368601314 ], [ 86.85503034871266, 26.551656368601314 ], [ 86.85503034871266, 26.549989586226047 ], [ 86.853363483688383, 26.549989586226047 ], [ 86.853363483688383, 26.54832280385078 ], [ 86.850029753639859, 26.54832280385078 ], [ 86.850029753639859, 26.546656021475513 ], [ 86.848362888615597, 26.546656021475513 ], [ 86.848362888615597, 26.54498923910025 ], [ 86.846696023591321, 26.54498923910025 ], [ 86.846696023591321, 26.539988891974449 ], [ 86.845029158567058, 26.539988891974449 ], [ 86.845029158567058, 26.538322109599186 ], [ 86.843362293542796, 26.538322109599186 ], [ 86.843362293542796, 26.536655327223919 ], [ 86.841695428518534, 26.536655327223919 ], [ 86.841695428518534, 26.534988544848652 ], [ 86.840028563494258, 26.534988544848652 ], [ 86.840028563494258, 26.533321762473385 ], [ 86.838361698469996, 26.533321762473385 ], [ 86.838361698469996, 26.526654632972321 ], [ 86.836694833445733, 26.526654632972321 ], [ 86.836694833445733, 26.52332106822179 ], [ 86.835027968421471, 26.52332106822179 ], [ 86.835027968421471, 26.518320721095989 ], [ 86.833361103397195, 26.518320721095989 ], [ 86.833361103397195, 26.508320026844395 ], [ 86.831694238372933, 26.508320026844395 ], [ 86.831694238372933, 26.503319679718597 ], [ 86.833361103397195, 26.503319679718597 ], [ 86.833361103397195, 26.499986114968063 ], [ 86.831694238372933, 26.499986114968063 ], [ 86.831694238372933, 26.496652550217529 ], [ 86.833361103397195, 26.496652550217529 ], [ 86.833361103397195, 26.483318291215401 ], [ 86.835027968421471, 26.483318291215401 ], [ 86.835027968421471, 26.478317944089603 ], [ 86.836694833445733, 26.478317944089603 ], [ 86.836694833445733, 26.47498437933907 ], [ 86.838361698469996, 26.47498437933907 ], [ 86.838361698469996, 26.471650814588539 ], [ 86.840028563494258, 26.471650814588539 ], [ 86.840028563494258, 26.469984032213272 ], [ 86.841695428518534, 26.469984032213272 ], [ 86.841695428518534, 26.468317249838005 ], [ 86.843362293542796, 26.468317249838005 ], [ 86.843362293542796, 26.464983685087475 ], [ 86.845029158567058, 26.464983685087475 ], [ 86.845029158567058, 26.463316902712208 ], [ 86.846696023591321, 26.463316902712208 ], [ 86.846696023591321, 26.461650120336941 ], [ 86.850029753639859, 26.461650120336941 ], [ 86.850029753639859, 26.458316555586411 ], [ 86.853363483688383, 26.458316555586411 ], [ 86.853363483688383, 26.456649773211144 ], [ 86.85503034871266, 26.456649773211144 ], [ 86.85503034871266, 26.454982990835877 ], [ 86.858364078761184, 26.454982990835877 ], [ 86.858364078761184, 26.453316208460613 ], [ 86.860030943785446, 26.453316208460613 ], [ 86.860030943785446, 26.451649426085346 ], [ 86.861697808809723, 26.451649426085346 ], [ 86.861697808809723, 26.449982643710079 ], [ 86.865031538858247, 26.449982643710079 ], [ 86.865031538858247, 26.448315861334812 ], [ 86.866698403882509, 26.448315861334812 ], [ 86.866698403882509, 26.446649078959545 ], [ 86.873365863979572, 26.446649078959545 ], [ 86.873365863979572, 26.444982296584282 ], [ 86.878366459052373, 26.444982296584282 ], [ 86.878366459052373, 26.443315514209015 ], [ 86.880033324076635, 26.443315514209015 ], [ 86.880033324076635, 26.441648731833748 ], [ 86.881700189100911, 26.441648731833748 ], [ 86.881700189100911, 26.439981949458481 ], [ 86.898368839343561, 26.439981949458481 ], [ 86.898368839343561, 26.438315167083218 ], [ 86.900035704367824, 26.438315167083218 ], [ 86.900035704367824, 26.436648384707951 ], [ 86.908370029489163, 26.436648384707951 ], [ 86.908370029489163, 26.438315167083218 ], [ 86.921704949683289, 26.438315167083218 ], [ 86.921704949683289, 26.439981949458481 ], [ 86.933373004853138, 26.439981949458481 ], [ 86.933373004853138, 26.441648731833748 ], [ 86.936706734901676, 26.441648731833748 ], [ 86.936706734901676, 26.443315514209015 ], [ 86.940040464950201, 26.443315514209015 ], [ 86.940040464950201, 26.444982296584282 ], [ 86.941707329974477, 26.444982296584282 ], [ 86.941707329974477, 26.446649078959545 ], [ 86.946707925047264, 26.446649078959545 ], [ 86.946707925047264, 26.448315861334812 ], [ 86.950041655095802, 26.448315861334812 ], [ 86.950041655095802, 26.449982643710079 ], [ 86.953375385144341, 26.449982643710079 ], [ 86.953375385144341, 26.451649426085346 ], [ 86.955042250168603, 26.451649426085346 ], [ 86.955042250168603, 26.453316208460613 ], [ 86.958375980217127, 26.453316208460613 ], [ 86.958375980217127, 26.456649773211144 ], [ 86.961709710265666, 26.456649773211144 ], [ 86.961709710265666, 26.458316555586411 ], [ 86.963376575289928, 26.458316555586411 ], [ 86.963376575289928, 26.461650120336941 ], [ 86.96504344031419, 26.461650120336941 ], [ 86.96504344031419, 26.463316902712208 ], [ 86.966710305338466, 26.463316902712208 ], [ 86.966710305338466, 26.466650467462742 ], [ 86.968377170362729, 26.466650467462742 ], [ 86.968377170362729, 26.468317249838005 ], [ 86.970044035386991, 26.468317249838005 ], [ 86.970044035386991, 26.469984032213272 ], [ 86.971710900411253, 26.469984032213272 ], [ 86.971710900411253, 26.473317596963806 ], [ 86.975044630459792, 26.473317596963806 ], [ 86.975044630459792, 26.476651161714337 ], [ 86.976711495484054, 26.476651161714337 ], [ 86.976711495484054, 26.47998472646487 ], [ 86.978378360508316, 26.47998472646487 ], [ 86.978378360508316, 26.483318291215401 ], [ 86.980045225532592, 26.483318291215401 ], [ 86.980045225532592, 26.486651855965935 ], [ 86.981712090556854, 26.486651855965935 ], [ 86.981712090556854, 26.493318985466999 ], [ 86.983378955581117, 26.493318985466999 ], [ 86.983378955581117, 26.499986114968063 ], [ 86.985045820605379, 26.499986114968063 ], [ 86.985045820605379, 26.503319679718597 ], [ 86.986712685629655, 26.503319679718597 ], [ 86.986712685629655, 26.504986462093861 ], [ 86.985045820605379, 26.504986462093861 ], [ 86.985045820605379, 26.506653244469128 ], [ 86.986712685629655, 26.506653244469128 ], [ 86.986712685629655, 26.524987850597057 ], [ 86.985045820605379, 26.524987850597057 ], [ 86.985045820605379, 26.533321762473385 ], [ 86.983378955581117, 26.533321762473385 ], [ 86.983378955581117, 26.536655327223919 ], [ 86.981712090556854, 26.536655327223919 ], [ 86.981712090556854, 26.543322456724983 ], [ 86.980045225532592, 26.543322456724983 ], [ 86.980045225532592, 26.54832280385078 ], [ 86.978378360508316, 26.54832280385078 ], [ 86.978378360508316, 26.549989586226047 ], [ 86.975044630459792, 26.549989586226047 ], [ 86.975044630459792, 26.554989933351845 ], [ 86.973377765435529, 26.554989933351845 ], [ 86.973377765435529, 26.556656715727112 ], [ 86.970044035386991, 26.556656715727112 ], [ 86.970044035386991, 26.559990280477646 ], [ 86.968377170362729, 26.559990280477646 ], [ 86.968377170362729, 26.561657062852909 ], [ 86.966710305338466, 26.561657062852909 ], [ 86.966710305338466, 26.563323845228176 ], [ 86.963376575289928, 26.563323845228176 ], [ 86.963376575289928, 26.564990627603443 ], [ 86.961709710265666, 26.564990627603443 ], [ 86.961709710265666, 26.568324192353973 ], [ 86.956709115192865, 26.568324192353973 ], [ 86.956709115192865, 26.56999097472924 ], [ 86.955042250168603, 26.56999097472924 ], [ 86.955042250168603, 26.573324539479774 ], [ 86.953375385144341, 26.573324539479774 ], [ 86.953375385144341, 26.574991321855038 ], [ 86.946707925047264, 26.574991321855038 ], [ 86.946707925047264, 26.576658104230305 ], [ 86.940040464950201, 26.576658104230305 ], [ 86.940040464950201, 26.578324886605571 ], [ 86.935039869877414, 26.578324886605571 ], [ 86.935039869877414, 26.579991668980838 ], [ 86.931706139828876, 26.579991668980838 ], [ 86.931706139828876, 26.581658451356105 ], [ 86.930039274804614, 26.581658451356105 ], [ 86.930039274804614, 26.579991668980838 ], [ 86.920038084659012, 26.579991668980838 ], [ 86.920038084659012, 26.581658451356105 ], [ 86.915037489586226, 26.581658451356105 ] ] ] } }
]
}
