{
"type": "FeatureCollection",
"name": "flood_extent_t0075",
"crs": { "type": "name", "properties": { "name": "urn:ogc:def:crs:OGC:1.3:CRS84" } },
"features": [
{ "type": "Feature", "properties": { "flooded": 1.0 }, "geometry": { "type": "Polygon", "coordinates": [ [ [ 86.915037489586226, 26.564990627603443 ], [ 86.915037489586226, 26.563323845228176 ], [ 86.910036894513425, 26.563323845228176 ], [ 86.910036894513425, 26.561657062852909 ], [ 86.906703164464886, 26.561657062852909 ], [ 86.906703164464886, 26.559990280477646 ], [ 86.896701974319299, 26.559990280477646 ], [ 86.896701974319299, 26.558323498102379 ], [ 86.893368244270761, 26.558323498102379 ], [ 86.893368244270761, 26.556656715727112 ], [ 86.891701379246499, 26.556656715727112 ], [ 86.891701379246499, 26.554989933351845 ], [ 86.890034514222236, 26.554989933351845 ], [ 86.890034514222236, 26.553323150976581 ], [ 86.888367649197974, 26.553323150976581 ], [ 86.888367649197974, 26.551656368601314 ], [ 86.885033919149436, 26.551656368601314 ], [ 86.885033919149436, 26.549989586226047 ], [ 86.883367054125173, 26.549989586226047 ], [ 86.883367054125173, 26.54832280385078 ], [ 86.881700189100911, 26.54832280385078 ], [ 86.881700189100911, 26.546656021475513 ], [ 86.880033324076635, 26.546656021475513 ], [ 86.880033324076635, 26.54498923910025 ], [ 86.878366459052373, 26.54498923910025 ], [ 86.878366459052373, 26.543322456724983 ], [ 86.876699594028111, 26.543322456724983 ], [ 86.876699594028111, 26.541655674349716 ], [ 86.875032729003848, 26.541655674349716 ], [ 86.875032729003848, 26.538322109599186 ], [ 86.873365863979572, 26.538322109599186 ], [ 86.873365863979572, 26.536655327223919 ], [ 86.87169899895531, 26.536655327223919 ], [ 86.87169899895531, 26.533321762473385 ], [ 86.870032133931048, 26.533321762473385 ], [ 86.870032133931048, 26.528321415347587 ], [ 86.868365268906786, 26.528321415347587 ], [ 86.868365268906786, 26.519987503471256 ], [ 86.866698403882509, 26.519987503471256 ], [ 86.866698403882509, 26.503319679718597 ], [ 86.868365268906786, 26.503319679718597 ], [ 86.868365268906786, 26.50165289734333 ], [ 86.870032133931048, 26.50165289734333 ], [ 86.870032133931048, 26.498319332592796 ], [ 86.87169899895531, 26.498319332592796 ], [ 86.87169899895531, 26.494985767842266 ], [ 86.873365863979572, 26.494985767842266 ], [ 86.873365863979572, 26.493318985466999 ], [ 86.875032729003848, 26.493318985466999 ], [ 86.875032729003848, 26.489985420716465 ], [ 86.876699594028111, 26.489985420716465 ], [ 86.876699594028111, 26.488318638341202 ], [ 86.878366459052373, 26.488318638341202 ], [ 86.878366459052373, 26.484985073590668 ], [ 86.880033324076635, 26.484985073590668 ], [ 86.880033324076635, 26.483318291215401 ], [ 86.883367054125173, 26.483318291215401 ], [ 86.883367054125173, 26.481651508840137 ], [ 86.885033919149436, 26.481651508840137 ], [ 86.885033919149436, 26.47998472646487 ], [ 86.888367649197974, 26.47998472646487 ], [ 86.888367649197974, 26.478317944089603 ], [ 86.891701379246499, 26.478317944089603 ], [ 86.891701379246499, 26.476651161714337 ], [ 86.896701974319299, 26.476651161714337 ], [ 86.896701974319299, 26.47498437933907 ], [ 86.9017025693921, 26.47498437933907 ], [ 86.9017025693921, 26.473317596963806 ], [ 86.906703164464886, 26.473317596963806 ], [ 86.906703164464886, 26.471650814588539 ], [ 86.920038084659012, 26.471650814588539 ], [ 86.920038084659012, 26.469984032213272 ], [ 86.923371814707551, 26.469984032213272 ], [ 86.923371814707551, 26.471650814588539 ], [ 86.928372409780351, 26.471650814588539 ], [ 86.928372409780351, 26.473317596963806 ], [ 86.935039869877414, 26.473317596963806 ], [ 86.935039869877414, 26.47498437933907 ], [ 86.938373599925939, 26.47498437933907 ], [ 86.938373599925939, 26.476651161714337 ], [ 86.943374194998739, 26.476651161714337 ], [ 86.943374194998739, 26.478317944089603 ], [ 86.945041060023001, 26.478317944089603 ], [ 86.945041060023001, 26.47998472646487 ], [ 86.946707925047264, 26.47998472646487 ], [ 86.946707925047264, 26.481651508840137 ], [ 86.950041655095802, 26.481651508840137 ], [ 86.950041655095802, 26.483318291215401 ], [ 86.951708520120064, 26.483318291215401 ], [ 86.951708520120064, 26.484985073590668 ], [ 86.953375385144341, 26.484985073590668 ], [ 86.953375385144341, 26.488318638341202 ], [ 86.955042250168603, 26.488318638341202 ], [ 86.955042250168603, 26.491652203091732 ], [ 86.956709115192865, 26.491652203091732 ], [ 86.956709115192865, 26.494985767842266 ], [ 86.960042845241404, 26.494985767842266 ], [ 86.960042845241404, 26.498319332592796 ], [ 86.961709710265666, 26.498319332592796 ], [ 86.961709710265666, 26.503319679718597 ], [ 86.963376575289928, 26.503319679718597 ], [ 86.963376575289928, 26.504986462093861 ], [ 86.96504344031419, 26.504986462093861 ], [ 86.96504344031419, 26.514987156345459 ], [ 86.966710305338466, 26.514987156345459 ], [ 86.966710305338466, 26.518320721095989 ], [ 86.968377170362729, 26.518320721095989 ], [ 86.968377170362729, 26.524987850597057 ], [ 86.966710305338466, 26.524987850597057 ], [ 86.966710305338466, 26.534988544848652 ], [ 86.96504344031419, 26.534988544848652 ], [ 86.96504344031419, 26.536655327223919 ], [ 86.963376575289928, 26.536655327223919 ], [ 86.963376575289928, 26.539988891974449 ], [ 86.961709710265666, 26.539988891974449 ], [ 86.961709710265666, 26.54498923910025 ], [ 86.960042845241404, 26.54498923910025 ], [ 86.960042845241404, 26.546656021475513 ], [ 86.958375980217127, 26.546656021475513 ], [ 86.958375980217127, 26.54832280385078 ], [ 86.956709115192865, 26.54832280385078 ], [ 86.956709115192865, 26.549989586226047 ], [ 86.955042250168603, 26.549989586226047 ], [ 86.955042250168603, 26.553323150976581 ], [ 86.953375385144341, 26.553323150976581 ], [ 86.953375385144341, 26.554989933351845 ], [ 86.950041655095802, 26.554989933351845 ], [ 86.950041655095802, 26.556656715727112 ], [ 86.94837479007154, 26.556656715727112 ], [ 86.94837479007154, 26.558323498102379 ], [ 86.946707925047264, 26.558323498102379 ], [ 86.946707925047264, 26.559990280477646 ], [ 86.943374194998739, 26.559990280477646 ], [ 86.943374194998739, 26.561657062852909 ], [ 86.940040464950201, 26.561657062852909 ], [ 86.940040464950201, 26.563323845228176 ], [ 86.936706734901676, 26.563323845228176 ], [ 86.936706734901676, 26.564990627603443 ], [ 86.915037489586226, 26.564990627603443 ] ] ] } }
]
}
