{
"type": "FeatureCollection",
"name": "flood_extent_t0135",
"crs": { "type": "name", "properties": { "name": "urn:ogc:def:crs:OGC:1.3:CRS84" } },
"features": [
{ "type": "Feature", "properties": { "flooded": 1.0 }, "geometry": { "type": "Polygon", "coordinates": [ [ [ 86.925038679731813, 26.576658104230305 ], [ 86.925038679731813, 26.574991321855038 ], [ 86.908370029489163, 26.574991321855038 ], [ 86.908370029489163, 26.573324539479774 ], [ 86.903369434416362, 26.573324539479774 ], [ 86.903369434416362, 26.571657757104507 ], [ 86.900035704367824, 26.571657757104507 ], [ 86.900035704367824, 26.56999097472924 ], [ 86.893368244270761, 26.56999097472924 ], [ 86.893368244270761, 26.568324192353973 ], [ 86.891701379246499, 26.568324192353973 ], [ 86.891701379246499, 26.56665740997871 ], [ 86.886700784173698, 26.56665740997871 ], [ 86.886700784173698, 26.563323845228176 ], [ 86.885033919149436, 26.563323845228176 ], [ 86.885033919149436, 26.561657062852909 ], [ 86.878366459052373, 26.561657062852909 ], [ 86.878366459052373, 26.559990280477646 ], [ 86.875032729003848, 26.559990280477646 ], [ 86.875032729003848, 26.556656715727112 ], [ 86.87169899895531, 26.556656715727112 ], [ 86.87169899895531, 26.554989933351845 ], [ 86.870032133931048, 26.554989933351845 ], [ 86.870032133931048, 26.553323150976581 ], [ 86.868365268906786, 26.553323150976581 ], [ 86.868365268906786, 26.551656368601314 ], [ 86.865031538858247, 26.551656368601314 ], [ 86.865031538858247, 26.549989586226047 ], [ 86.861697808809723, 26.549989586226047 ], [ 86.861697808809723, 26.54832280385078 ], [ 86.860030943785446, 26.54832280385078 ], [ 86.860030943785446, 26.546656021475513 ], [ 86.858364078761184, 26.546656021475513 ], [ 86.858364078761184, 26.54498923910025 ], [ 86.856697213736922, 26.54498923910025 ], [ 86.856697213736922, 26.543322456724983 ], [ 86.85503034871266, 26.543322456724983 ], [ 86.85503034871266, 26.541655674349716 ], [ 86.853363483688383, 26.541655674349716 ], [ 86.853363483688383, 26.539988891974449 ], [ 86.851696618664121, 26.539988891974449 ], [ 86.851696618664121, 26.536655327223919 ], [ 86.850029753639859, 26.536655327223919 ], [ 86.850029753639859, 26.534988544848652 ], [ 86.848362888615597, 26.534988544848652 ], [ 86.848362888615597, 26.531654980098121 ], [ 86.846696023591321, 26.531654980098121 ], [ 86.846696023591321, 26.529988197722854 ], [ 86.845029158567058, 26.529988197722854 ], [ 86.845029158567058, 26.521654285846523 ], [ 86.843362293542796, 26.521654285846523 ], [ 86.843362293542796, 26.516653938720726 ], [ 86.841695428518534, 26.516653938720726 ], [ 86.841695428518534, 26.509986809219662 ], [ 86.843362293542796, 26.509986809219662 ], [ 86.843362293542796, 26.493318985466999 ], [ 86.845029158567058, 26.493318985466999 ], [ 86.845029158567058, 26.483318291215401 ], [ 86.846696023591321, 26.483318291215401 ], [ 86.846696023591321, 26.47998472646487 ], [ 86.848362888615597, 26.47998472646487 ], [ 86.848362888615597, 26.478317944089603 ], [ 86.850029753639859, 26.478317944089603 ], [ 86.850029753639859, 26.476651161714337 ], [ 86.851696618664121, 26.476651161714337 ], [ 86.851696618664121, 26.47498437933907 ], [ 86.853363483688383, 26.47498437933907 ], [ 86.853363483688383, 26.473317596963806 ], [ 86.85503034871266, 26.473317596963806 ], [ 86.85503034871266, 26.469984032213272 ], [ 86.856697213736922, 26.469984032213272 ], [ 86.856697213736922, 26.468317249838005 ], [ 86.860030943785446, 26.468317249838005 ], [ 86.860030943785446, 26.466650467462742 ], [ 86.861697808809723, 26.466650467462742 ], [ 86.861697808809723, 26.464983685087475 ], [ 86.863364673833985, 26.464983685087475 ], [ 86.863364673833985, 26.463316902712208 ], [ 86.865031538858247, 26.463316902712208 ], [ 86.865031538858247, 26.461650120336941 ], [ 86.868365268906786, 26.461650120336941 ], [ 86.868365268906786, 26.459983337961678 ], [ 86.870032133931048, 26.459983337961678 ], [ 86.870032133931048, 26.458316555586411 ], [ 86.873365863979572, 26.458316555586411 ], [ 86.873365863979572, 26.456649773211144 ], [ 86.876699594028111, 26.456649773211144 ], [ 86.876699594028111, 26.454982990835877 ], [ 86.880033324076635, 26.454982990835877 ], [ 86.880033324076635, 26.453316208460613 ], [ 86.883367054125173, 26.453316208460613 ], [ 86.883367054125173, 26.451649426085346 ], [ 86.888367649197974, 26.451649426085346 ], [ 86.888367649197974, 26.449982643710079 ], [ 86.893368244270761, 26.449982643710079 ], [ 86.893368244270761, 26.448315861334812 ], [ 86.903369434416362, 26.448315861334812 ], [ 86.903369434416362, 26.446649078959545 ], [ 86.908370029489163, 26.446649078959545 ], [ 86.908370029489163, 26.448315861334812 ], [ 86.930039274804614, 26.448315861334812 ], [ 86.930039274804614, 26.449982643710079 ], [ 86.933373004853138, 26.449982643710079 ], [ 86.933373004853138, 26.451649426085346 ], [ 86.938373599925939, 26.451649426085346 ], [ 86.938373599925939, 26.453316208460613 ], [ 86.941707329974477, 26.453316208460613 ], [ 86.941707329974477, 26.454982990835877 ], [ 86.943374194998739, 26.454982990835877 ], [ 86.943374194998739, 26.456649773211144 ], [ 86.945041060023001, 26.456649773211144 ], [ 86.945041060023001, 26.458316555586411 ], [ 86.950041655095802, 26.458316555586411 ], [ 86.950041655095802, 26.459983337961678 ], [ 86.953375385144341, 26.459983337961678 ], [ 86.953375385144341, 26.461650120336941 ], [ 86.955042250168603, 26.461650120336941 ], [ 86.955042250168603, 26.463316902712208 ], [ 86.956709115192865, 26.463316902712208 ], [ 86.956709115192865, 26.464983685087475 ], [ 86.960042845241404, 26.464983685087475 ], [ 86.960042845241404, 26.466650467462742 ], [ 86.961709710265666, 26.466650467462742 ], [ 86.961709710265666, 26.469984032213272 ], [ 86.963376575289928, 26.469984032213272 ], [ 86.963376575289928, 26.473317596963806 ], [ 86.96504344031419, 26.473317596963806 ], [ 86.96504344031419, 26.476651161714337 ], [ 86.968377170362729, 26.476651161714337 ], [ 86.968377170362729, 26.478317944089603 ], [ 86.970044035386991, 26.478317944089603 ], [ 86.970044035386991, 26.483318291215401 ], [ 86.971710900411253, 26.483318291215401 ], [ 86.971710900411253, 26.486651855965935 ], [ 86.973377765435529, 26.486651855965935 ], [ 86.973377765435529, 26.489985420716465 ], [ 86.975044630459792, 26.489985420716465 ], [ 86.975044630459792, 26.491652203091732 ], [ 86.976711495484054, 26.491652203091732 ], [ 86.976711495484054, 26.493318985466999 ], [ 86.975044630459792, 26.493318985466999 ], [ 86.975044630459792, 26.494985767842266 ], [ 86.976711495484054, 26.494985767842266 ], [ 86.976711495484054, 26.498319332592796 ], [ 86.978378360508316, 26.498319332592796 ], [ 86.978378360508316, 26.503319679718597 ], [ 86.980045225532592, 26.503319679718597 ], [ 86.980045225532592, 26.514987156345459 ], [ 86.981712090556854, 26.514987156345459 ], [ 86.981712090556854, 26.524987850597057 ], [ 86.980045225532592, 26.524987850597057 ], [ 86.980045225532592, 26.534988544848652 ], [ 86.978378360508316, 26.534988544848652 ], [ 86.978378360508316, 26.539988891974449 ], [ 86.976711495484054, 26.539988891974449 ], [ 86.976711495484054, 26.541655674349716 ], [ 86.975044630459792, 26.541655674349716 ], [ 86.975044630459792, 26.54498923910025 ], [ 86.973377765435529, 26.54498923910025 ], [ 86.973377765435529, 26.546656021475513 ], [ 86.971710900411253, 26.546656021475513 ], [ 86.971710900411253, 26.553323150976581 ], [ 86.968377170362729, 26.553323150976581 ], [ 86.968377170362729, 26.556656715727112 ], [ 86.966710305338466, 26.556656715727112 ], [ 86.966710305338466, 26.558323498102379 ], [ 86.96504344031419, 26.558323498102379 ], [ 86.96504344031419, 26.559990280477646 ], [ 86.961709710265666, 26.559990280477646 ], [ 86.961709710265666, 26.561657062852909 ], [ 86.960042845241404, 26.561657062852909 ], [ 86.960042845241404, 26.563323845228176 ], [ 86.958375980217127, 26.563323845228176 ], [ 86.958375980217127, 26.564990627603443 ], [ 86.955042250168603, 26.564990627603443 ], [ 86.955042250168603, 26.56665740997871 ], [ 86.953375385144341, 26.56665740997871 ], [ 86.953375385144341, 26.568324192353973 ], [ 86.951708520120064, 26.568324192353973 ], [ 86.951708520120064, 26.56999097472924 ], [ 86.946707925047264, 26.56999097472924 ], [ 86.946707925047264, 26.571657757104507 ], [ 86.941707329974477, 26.571657757104507 ], [ 86.941707329974477, 26.573324539479774 ], [ 86.938373599925939, 26.573324539479774 ], [ 86.938373599925939, 26.574991321855038 ], [ 86.935039869877414, 26.574991321855038 ], [ 86.935039869877414, 26.576658104230305 ], [ 86.930039274804614, 26.576658104230305 ], [ 86.930039274804614, 26.574991321855038 ], [ 86.928372409780351, 26.574991321855038 ], [ 86.928372409780351, 26.576658104230305 ], [ 86.925038679731813, 26.576658104230305 ] ] ] } }
]
}
