{
"type": "FeatureCollection",
"name": "flood_extent_t0030",
"crs": { "type": "name", "properties": { "name": "urn:ogc:def:crs:OGC:1.3:CRS84" } },
"features": [
{ "type": "Feature", "properties": { "flooded": 1.0 }, "geometry": { "type": "Polygon", "coordinates": [ [ [ 86.926705544756075, 26.551656368601314 ], [ 86.926705544756075, 26.549989586226047 ], [ 86.91837121963475, 26.549989586226047 ], [ 86.91837121963475, 26.54832280385078 ], [ 86.915037489586226, 26.54832280385078 ], [ 86.915037489586226, 26.546656021475513 ], [ 86.910036894513425, 26.546656021475513 ], [ 86.910036894513425, 26.54498923910025 ], [ 86.906703164464886, 26.54498923910025 ], [ 86.906703164464886, 26.543322456724983 ], [ 86.903369434416362, 26.543322456724983 ], [ 86.903369434416362, 26.541655674349716 ], [ 86.9017025693921, 26.541655674349716 ], [ 86.9017025693921, 26.539988891974449 ], [ 86.900035704367824, 26.539988891974449 ], [ 86.900035704367824, 26.538322109599186 ], [ 86.898368839343561, 26.538322109599186 ], [ 86.898368839343561, 26.534988544848652 ], [ 86.896701974319299, 26.534988544848652 ], [ 86.896701974319299, 26.531654980098121 ], [ 86.895035109295037, 26.531654980098121 ], [ 86.895035109295037, 26.52332106822179 ], [ 86.893368244270761, 26.52332106822179 ], [ 86.893368244270761, 26.521654285846523 ], [ 86.895035109295037, 26.521654285846523 ], [ 86.895035109295037, 26.513320373970192 ], [ 86.896701974319299, 26.513320373970192 ], [ 86.896701974319299, 26.509986809219662 ], [ 86.898368839343561, 26.509986809219662 ], [ 86.898368839343561, 26.508320026844395 ], [ 86.900035704367824, 26.508320026844395 ], [ 86.900035704367824, 26.506653244469128 ], [ 86.9017025693921, 26.506653244469128 ], [ 86.9017025693921, 26.504986462093861 ], [ 86.903369434416362, 26.504986462093861 ], [ 86.903369434416362, 26.503319679718597 ], [ 86.905036299440624, 26.503319679718597 ], [ 86.905036299440624, 26.50165289734333 ], [ 86.906703164464886, 26.50165289734333 ], [ 86.906703164464886, 26.499986114968063 ], [ 86.908370029489163, 26.499986114968063 ], [ 86.908370029489163, 26.498319332592796 ], [ 86.913370624561949, 26.498319332592796 ], [ 86.913370624561949, 26.496652550217529 ], [ 86.920038084659012, 26.496652550217529 ], [ 86.920038084659012, 26.494985767842266 ], [ 86.926705544756075, 26.494985767842266 ], [ 86.926705544756075, 26.496652550217529 ], [ 86.933373004853138, 26.496652550217529 ], [ 86.933373004853138, 26.498319332592796 ], [ 86.938373599925939, 26.498319332592796 ], [ 86.938373599925939, 26.499986114968063 ], [ 86.940040464950201, 26.499986114968063 ], [ 86.940040464950201, 26.50165289734333 ], [ 86.941707329974477, 26.50165289734333 ], [ 86.941707329974477, 26.503319679718597 ], [ 86.943374194998739, 26.503319679718597 ], [ 86.943374194998739, 26.504986462093861 ], [ 86.945041060023001, 26.504986462093861 ], [ 86.945041060023001, 26.509986809219662 ], [ 86.946707925047264, 26.509986809219662 ], [ 86.946707925047264, 26.511653591594925 ], [ 86.94837479007154, 26.511653591594925 ], [ 86.94837479007154, 26.513320373970192 ], [ 86.950041655095802, 26.513320373970192 ], [ 86.950041655095802, 26.519987503471256 ], [ 86.951708520120064, 26.519987503471256 ], [ 86.951708520120064, 26.529988197722854 ], [ 86.950041655095802, 26.529988197722854 ], [ 86.950041655095802, 26.536655327223919 ], [ 86.94837479007154, 26.536655327223919 ], [ 86.94837479007154, 26.539988891974449 ], [ 86.946707925047264, 26.539988891974449 ], [ 86.946707925047264, 26.541655674349716 ], [ 86.945041060023001, 26.541655674349716 ], [ 86.945041060023001, 26.543322456724983 ], [ 86.943374194998739, 26.543322456724983 ], [ 86.943374194998739, 26.54498923910025 ], [ 86.941707329974477, 26.54498923910025 ], [ 86.941707329974477, 26.546656021475513 ], [ 86.940040464950201, 26.546656021475513 ], [ 86.940040464950201, 26.54832280385078 ], [ 86.936706734901676, 26.54832280385078 ], [ 86.936706734901676, 26.549989586226047 ], [ 86.931706139828876, 26.549989586226047 ], [ 86.931706139828876, 26.551656368601314 ], [ 86.926705544756075, 26.551656368601314 ] ] ] } }
]
}
