{
"type": "FeatureCollection",
"name": "flood_extent_t0060",
"crs": { "type": "name", "properties": { "name": "urn:ogc:def:crs:OGC:1.3:CRS84" } },
"features": [
{ "type": "Feature", "properties": { "flooded": 1.0 }, "geometry": { "type": "Polygon", "coordinates": [ [ [ 86.921704949683289, 26.561657062852909 ], [ 86.921704949683289, 26.559990280477646 ], [ 86.915037489586226, 26.559990280477646 ], [ 86.915037489586226, 26.558323498102379 ], [ 86.910036894513425, 26.558323498102379 ], [ 86.910036894513425, 26.556656715727112 ], [ 86.906703164464886, 26.556656715727112 ], [ 86.906703164464886, 26.554989933351845 ], [ 86.896701974319299, 26.554989933351845 ], [ 86.896701974319299, 26.553323150976581 ], [ 86.895035109295037, 26.553323150976581 ], [ 86.895035109295037, 26.551656368601314 ], [ 86.893368244270761, 26.551656368601314 ], [ 86.893368244270761, 26.549989586226047 ], [ 86.891701379246499, 26.549989586226047 ], [ 86.891701379246499, 26.54832280385078 ], [ 86.890034514222236, 26.54832280385078 ], [ 86.890034514222236, 26.546656021475513 ], [ 86.886700784173698, 26.546656021475513 ], [ 86.886700784173698, 26.54498923910025 ], [ 86.885033919149436, 26.54498923910025 ], [ 86.885033919149436, 26.541655674349716 ], [ 86.883367054125173, 26.541655674349716 ], [ 86.883367054125173, 26.539988891974449 ], [ 86.881700189100911, 26.539988891974449 ], [ 86.881700189100911, 26.538322109599186 ], [ 86.880033324076635, 26.538322109599186 ], [ 86.880033324076635, 26.534988544848652 ], [ 86.878366459052373, 26.534988544848652 ], [ 86.878366459052373, 26.529988197722854 ], [ 86.876699594028111, 26.529988197722854 ], [ 86.876699594028111, 26.528321415347587 ], [ 86.875032729003848, 26.528321415347587 ], [ 86.875032729003848, 26.508320026844395 ], [ 86.876699594028111, 26.508320026844395 ], [ 86.876699594028111, 26.503319679718597 ], [ 86.878366459052373, 26.503319679718597 ], [ 86.878366459052373, 26.50165289734333 ], [ 86.880033324076635, 26.50165289734333 ], [ 86.880033324076635, 26.498319332592796 ], [ 86.881700189100911, 26.498319332592796 ], [ 86.881700189100911, 26.496652550217529 ], [ 86.883367054125173, 26.496652550217529 ], [ 86.883367054125173, 26.493318985466999 ], [ 86.885033919149436, 26.493318985466999 ], [ 86.885033919149436, 26.491652203091732 ], [ 86.886700784173698, 26.491652203091732 ], [ 86.886700784173698, 26.489985420716465 ], [ 86.888367649197974, 26.489985420716465 ], [ 86.888367649197974, 26.488318638341202 ], [ 86.891701379246499, 26.488318638341202 ], [ 86.891701379246499, 26.486651855965935 ], [ 86.895035109295037, 26.486651855965935 ], [ 86.895035109295037, 26.484985073590668 ], [ 86.898368839343561, 26.484985073590668 ], [ 86.898368839343561, 26.483318291215401 ], [ 86.9017025693921, 26.483318291215401 ], [ 86.9017025693921, 26.481651508840137 ], [ 86.905036299440624, 26.481651508840137 ], [ 86.905036299440624, 26.47998472646487 ], [ 86.911703759537687, 26.47998472646487 ], [ 86.911703759537687, 26.478317944089603 ], [ 86.928372409780351, 26.478317944089603 ], [ 86.928372409780351, 26.47998472646487 ], [ 86.935039869877414, 26.47998472646487 ], [ 86.935039869877414, 26.481651508840137 ], [ 86.938373599925939, 26.481651508840137 ], [ 86.938373599925939, 26.483318291215401 ], [ 86.941707329974477, 26.483318291215401 ], [ 86.941707329974477, 26.484985073590668 ], [ 86.943374194998739, 26.484985073590668 ], [ 86.943374194998739, 26.486651855965935 ], [ 86.946707925047264, 26.486651855965935 ], [ 86.946707925047264, 26.488318638341202 ], [ 86.950041655095802, 26.488318638341202 ], [ 86.950041655095802, 26.491652203091732 ], [ 86.951708520120064, 26.491652203091732 ], [ 86.951708520120064, 26.494985767842266 ], [ 86.953375385144341, 26.494985767842266 ], [ 86.953375385144341, 26.498319332592796 ], [ 86.955042250168603, 26.498319332592796 ], [ 86.955042250168603, 26.499986114968063 ], [ 86.956709115192865, 26.499986114968063 ], [ 86.956709115192865, 26.50165289734333 ], [ 86.958375980217127, 26.50165289734333 ], [ 86.958375980217127, 26.506653244469128 ], [ 86.960042845241404, 26.506653244469128 ], [ 86.960042845241404, 26.511653591594925 ], [ 86.961709710265666, 26.511653591594925 ], [ 86.961709710265666, 26.516653938720726 ], [ 86.963376575289928, 26.516653938720726 ], [ 86.963376575289928, 26.524987850597057 ], [ 86.961709710265666, 26.524987850597057 ], [ 86.961709710265666, 26.528321415347587 ], [ 86.963376575289928, 26.528321415347587 ], [ 86.963376575289928, 26.529988197722854 ], [ 86.961709710265666, 26.529988197722854 ], [ 86.961709710265666, 26.533321762473385 ], [ 86.960042845241404, 26.533321762473385 ], [ 86.960042845241404, 26.536655327223919 ], [ 86.958375980217127, 26.536655327223919 ], [ 86.958375980217127, 26.541655674349716 ], [ 86.956709115192865, 26.541655674349716 ], [ 86.956709115192865, 26.54498923910025 ], [ 86.955042250168603, 26.54498923910025 ], [ 86.955042250168603, 26.546656021475513 ], [ 86.953375385144341, 26.546656021475513 ], [ 86.953375385144341, 26.549989586226047 ], [ 86.951708520120064, 26.549989586226047 ], [ 86.951708520120064, 26.551656368601314 ], [ 86.950041655095802, 26.551656368601314 ], [ 86.950041655095802, 26.553323150976581 ], [ 86.94837479007154, 26.553323150976581 ], [ 86.94837479007154, 26.554989933351845 ], [ 86.945041060023001, 26.554989933351845 ], [ 86.945041060023001, 26.556656715727112 ], [ 86.943374194998739, 26.556656715727112 ], [ 86.943374194998739, 26.558323498102379 ], [ 86.936706734901676, 26.558323498102379 ], [ 86.936706734901676, 26.559990280477646 ], [ 86.931706139828876, 26.559990280477646 ], [ 86.931706139828876, 26.561657062852909 ], [ 86.921704949683289, 26.561657062852909 ] ] ] } }
]
}
