{
"type": "FeatureCollection",
"name": "flood_extent_t0045",
"crs": { "type": "name", "properties": { "name": "urn:ogc:def:crs:OGC:1.3:CRS84" } },
"features": [
{ "type": "Feature", "properties": { "flooded": 1.0 }, "geometry": { "type": "Polygon", "coordinates": [ [ [ 86.91837121963475, 26.556656715727112 ], [ 86.91837121963475, 26.554989933351845 ], [ 86.915037489586226, 26.554989933351845 ], [ 86.915037489586226, 26.553323150976581 ], [ 86.910036894513425, 26.553323150976581 ], [ 86.910036894513425, 26.551656368601314 ], [ 86.905036299440624, 26.551656368601314 ], [ 86.905036299440624, 26.549989586226047 ], [ 86.9017025693921, 26.549989586226047 ], [ 86.9017025693921, 26.54832280385078 ], [ 86.898368839343561, 26.54832280385078 ], [ 86.898368839343561, 26.546656021475513 ], [ 86.895035109295037, 26.546656021475513 ], [ 86.895035109295037, 26.54498923910025 ], [ 86.893368244270761, 26.54498923910025 ], [ 86.893368244270761, 26.543322456724983 ], [ 86.891701379246499, 26.543322456724983 ], [ 86.891701379246499, 26.541655674349716 ], [ 86.890034514222236, 26.541655674349716 ], [ 86.890034514222236, 26.538322109599186 ], [ 86.888367649197974, 26.538322109599186 ], [ 86.888367649197974, 26.534988544848652 ], [ 86.886700784173698, 26.534988544848652 ], [ 86.886700784173698, 26.531654980098121 ], [ 86.885033919149436, 26.531654980098121 ], [ 86.885033919149436, 26.524987850597057 ], [ 86.883367054125173, 26.524987850597057 ], [ 86.883367054125173, 26.516653938720726 ], [ 86.885033919149436, 26.516653938720726 ], [ 86.885033919149436, 26.508320026844395 ], [ 86.886700784173698, 26.508320026844395 ], [ 86.886700784173698, 26.504986462093861 ], [ 86.888367649197974, 26.504986462093861 ], [ 86.888367649197974, 26.50165289734333 ], [ 86.890034514222236, 26.50165289734333 ], [ 86.890034514222236, 26.499986114968063 ], [ 86.891701379246499, 26.499986114968063 ], [ 86.891701379246499, 26.498319332592796 ], [ 86.893368244270761, 26.498319332592796 ], [ 86.893368244270761, 26.496652550217529 ], [ 86.895035109295037, 26.496652550217529 ], [ 86.895035109295037, 26.494985767842266 ], [ 86.898368839343561, 26.494985767842266 ], [ 86.898368839343561, 26.493318985466999 ], [ 86.900035704367824, 26.493318985466999 ], [ 86.900035704367824, 26.491652203091732 ], [ 86.903369434416362, 26.491652203091732 ], [ 86.903369434416362, 26.489985420716465 ], [ 86.908370029489163, 26.489985420716465 ], [ 86.908370029489163, 26.488318638341202 ], [ 86.911703759537687, 26.488318638341202 ], [ 86.911703759537687, 26.486651855965935 ], [ 86.933373004853138, 26.486651855965935 ], [ 86.933373004853138, 26.488318638341202 ], [ 86.936706734901676, 26.488318638341202 ], [ 86.936706734901676, 26.489985420716465 ], [ 86.940040464950201, 26.489985420716465 ], [ 86.940040464950201, 26.491652203091732 ], [ 86.941707329974477, 26.491652203091732 ], [ 86.941707329974477, 26.493318985466999 ], [ 86.945041060023001, 26.493318985466999 ], [ 86.945041060023001, 26.494985767842266 ], [ 86.946707925047264, 26.494985767842266 ], [ 86.946707925047264, 26.498319332592796 ], [ 86.94837479007154, 26.498319332592796 ], [ 86.94837479007154, 26.499986114968063 ], [ 86.950041655095802, 26.499986114968063 ], [ 86.950041655095802, 26.504986462093861 ], [ 86.951708520120064, 26.504986462093861 ], [ 86.951708520120064, 26.506653244469128 ], [ 86.953375385144341, 26.506653244469128 ], [ 86.953375385144341, 26.509986809219662 ], [ 86.955042250168603, 26.509986809219662 ], [ 86.955042250168603, 26.513320373970192 ], [ 86.956709115192865, 26.513320373970192 ], [ 86.956709115192865, 26.518320721095989 ], [ 86.958375980217127, 26.518320721095989 ], [ 86.958375980217127, 26.519987503471256 ], [ 86.956709115192865, 26.519987503471256 ], [ 86.956709115192865, 26.534988544848652 ], [ 86.955042250168603, 26.534988544848652 ], [ 86.955042250168603, 26.538322109599186 ], [ 86.953375385144341, 26.538322109599186 ], [ 86.953375385144341, 26.541655674349716 ], [ 86.951708520120064, 26.541655674349716 ], [ 86.951708520120064, 26.54498923910025 ], [ 86.950041655095802, 26.54498923910025 ], [ 86.950041655095802, 26.546656021475513 ], [ 86.94837479007154, 26.546656021475513 ], [ 86.94837479007154, 26.54832280385078 ], [ 86.946707925047264, 26.54832280385078 ], [ 86.946707925047264, 26.549989586226047 ], [ 86.945041060023001, 26.549989586226047 ], [ 86.945041060023001, 26.551656368601314 ], [ 86.941707329974477, 26.551656368601314 ], [ 86.941707329974477, 26.553323150976581 ], [ 86.940040464950201, 26.553323150976581 ], [ 86.940040464950201, 26.554989933351845 ], [ 86.933373004853138, 26.554989933351845 ], [ 86.933373004853138, 26.556656715727112 ], [ 86.91837121963475, 26.556656715727112 ] ] ] } }
]
}
