{
"type": "FeatureCollection",
"name": "flood_extent_t0150",
"crs": { "type": "name", "properties": { "name": "urn:ogc:def:crs:OGC:1.3:CRS84" } },
"features": [
{ "type": "Feature", "properties": { "flooded": 1.0 }, "geometry": { "type": "Polygon", "coordinates": [ [ [ 86.916704354610488, 26.579991668980838 ], [ 86.916704354610488, 26.578324886605571 ], [ 86.913370624561949, 26.578324886605571 ], [ 86.913370624561949, 26.576658104230305 ], [ 86.908370029489163, 26.576658104230305 ], [ 86.908370029489163, 26.574991321855038 ], [ 86.903369434416362, 26.574991321855038 ], [ 86.903369434416362, 26.573324539479774 ], [ 86.898368839343561, 26.573324539479774 ], [ 86.898368839343561, 26.571657757104507 ], [ 86.893368244270761, 26.571657757104507 ], [ 86.893368244270761, 26.56999097472924 ], [ 86.890034514222236, 26.56999097472924 ], [ 86.890034514222236, 26.568324192353973 ], [ 86.885033919149436, 26.568324192353973 ], [ 86.885033919149436, 26.56665740997871 ], [ 86.883367054125173, 26.56665740997871 ], [ 86.883367054125173, 26.564990627603443 ], [ 86.878366459052373, 26.564990627603443 ], [ 86.878366459052373, 26.563323845228176 ], [ 86.876699594028111, 26.563323845228176 ], [ 86.876699594028111, 26.561657062852909 ], [ 86.873365863979572, 26.561657062852909 ], [ 86.873365863979572, 26.559990280477646 ], [ 86.870032133931048, 26.559990280477646 ], [ 86.870032133931048, 26.558323498102379 ], [ 86.868365268906786, 26.558323498102379 ], [ 86.868365268906786, 26.554989933351845 ], [ 86.866698403882509, 26.554989933351845 ], [ 86.866698403882509, 26.553323150976581 ], [ 86.865031538858247, 26.553323150976581 ], [ 86.865031538858247, 26.554989933351845 ], [ 86.863364673833985, 26.554989933351845 ], [ 86.863364673833985, 26.553323150976581 ], [ 86.860030943785446, 26.553323150976581 ], [ 86.860030943785446, 26.551656368601314 ], [ 86.858364078761184, 26.551656368601314 ], [ 86.858364078761184, 26.549989586226047 ], [ 86.856697213736922, 26.549989586226047 ], [ 86.856697213736922, 26.54832280385078 ], [ 86.85503034871266, 26.54832280385078 ], [ 86.85503034871266, 26.546656021475513 ], [ 86.853363483688383, 26.546656021475513 ], [ 86.853363483688383, 26.54498923910025 ], [ 86.851696618664121, 26.54498923910025 ], [ 86.851696618664121, 26.543322456724983 ], [ 86.850029753639859, 26.543322456724983 ], [ 86.850029753639859, 26.541655674349716 ], [ 86.848362888615597, 26.541655674349716 ], [ 86.848362888615597, 26.538322109599186 ], [ 86.846696023591321, 26.538322109599186 ], [ 86.846696023591321, 26.534988544848652 ], [ 86.845029158567058, 26.534988544848652 ], [ 86.845029158567058, 26.533321762473385 ], [ 86.843362293542796, 26.533321762473385 ], [ 86.843362293542796, 26.531654980098121 ], [ 86.841695428518534, 26.531654980098121 ], [ 86.841695428518534, 26.526654632972321 ], [ 86.840028563494258, 26.526654632972321 ], [ 86.840028563494258, 26.519987503471256 ], [ 86.838361698469996, 26.519987503471256 ], [ 86.838361698469996, 26.516653938720726 ], [ 86.836694833445733, 26.516653938720726 ], [ 86.836694833445733, 26.499986114968063 ], [ 86.838361698469996, 26.499986114968063 ], [ 86.838361698469996, 26.486651855965935 ], [ 86.840028563494258, 26.486651855965935 ], [ 86.840028563494258, 26.47998472646487 ], [ 86.841695428518534, 26.47998472646487 ], [ 86.841695428518534, 26.476651161714337 ], [ 86.843362293542796, 26.476651161714337 ], [ 86.843362293542796, 26.47498437933907 ], [ 86.845029158567058, 26.47498437933907 ], [ 86.845029158567058, 26.473317596963806 ], [ 86.846696023591321, 26.473317596963806 ], [ 86.846696023591321, 26.469984032213272 ], [ 86.848362888615597, 26.469984032213272 ], [ 86.848362888615597, 26.468317249838005 ], [ 86.850029753639859, 26.468317249838005 ], [ 86.850029753639859, 26.466650467462742 ], [ 86.853363483688383, 26.466650467462742 ], [ 86.853363483688383, 26.464983685087475 ], [ 86.85503034871266, 26.464983685087475 ], [ 86.85503034871266, 26.461650120336941 ], [ 86.856697213736922, 26.461650120336941 ], [ 86.856697213736922, 26.459983337961678 ], [ 86.858364078761184, 26.459983337961678 ], [ 86.858364078761184, 26.458316555586411 ], [ 86.863364673833985, 26.458316555586411 ], [ 86.863364673833985, 26.456649773211144 ], [ 86.865031538858247, 26.456649773211144 ], [ 86.865031538858247, 26.454982990835877 ], [ 86.866698403882509, 26.454982990835877 ], [ 86.866698403882509, 26.453316208460613 ], [ 86.870032133931048, 26.453316208460613 ], [ 86.870032133931048, 26.451649426085346 ], [ 86.873365863979572, 26.451649426085346 ], [ 86.873365863979572, 26.449982643710079 ], [ 86.878366459052373, 26.449982643710079 ], [ 86.878366459052373, 26.448315861334812 ], [ 86.881700189100911, 26.448315861334812 ], [ 86.881700189100911, 26.446649078959545 ], [ 86.885033919149436, 26.446649078959545 ], [ 86.885033919149436, 26.444982296584282 ], [ 86.891701379246499, 26.444982296584282 ], [ 86.891701379246499, 26.443315514209015 ], [ 86.9017025693921, 26.443315514209015 ], [ 86.9017025693921, 26.441648731833748 ], [ 86.913370624561949, 26.441648731833748 ], [ 86.913370624561949, 26.443315514209015 ], [ 86.925038679731813, 26.443315514209015 ], [ 86.925038679731813, 26.444982296584282 ], [ 86.933373004853138, 26.444982296584282 ], [ 86.933373004853138, 26.446649078959545 ], [ 86.938373599925939, 26.446649078959545 ], [ 86.938373599925939, 26.448315861334812 ], [ 86.941707329974477, 26.448315861334812 ], [ 86.941707329974477, 26.449982643710079 ], [ 86.943374194998739, 26.449982643710079 ], [ 86.943374194998739, 26.451649426085346 ], [ 86.94837479007154, 26.451649426085346 ], [ 86.94837479007154, 26.453316208460613 ], [ 86.950041655095802, 26.453316208460613 ], [ 86.950041655095802, 26.454982990835877 ], [ 86.953375385144341, 26.454982990835877 ], [ 86.953375385144341, 26.456649773211144 ], [ 86.955042250168603, 26.456649773211144 ], [ 86.955042250168603, 26.458316555586411 ], [ 86.958375980217127, 26.458316555586411 ], [ 86.958375980217127, 26.459983337961678 ], [ 86.960042845241404, 26.459983337961678 ], [ 86.960042845241404, 26.461650120336941 ], [ 86.961709710265666, 26.461650120336941 ], [ 86.961709710265666, 26.463316902712208 ], [ 86.963376575289928, 26.463316902712208 ], [ 86.963376575289928, 26.466650467462742 ], [ 86.96504344031419, 26.466650467462742 ], [ 86.96504344031419, 26.468317249838005 ], [ 86.966710305338466, 26.468317249838005 ], [ 86.966710305338466, 26.471650814588539 ], [ 86.968377170362729, 26.471650814588539 ], [ 86.968377170362729, 26.473317596963806 ], [ 86.970044035386991, 26.473317596963806 ], [ 86.970044035386991, 26.47498437933907 ], [ 86.971710900411253, 26.47498437933907 ], [ 86.971710900411253, 26.476651161714337 ], [ 86.973377765435529, 26.476651161714337 ], [ 86.973377765435529, 26.483318291215401 ], [ 86.976711495484054, 26.483318291215401 ], [ 86.976711495484054, 26.486651855965935 ], [ 86.978378360508316, 26.486651855965935 ], [ 86.978378360508316, 26.489985420716465 ], [ 86.980045225532592, 26.489985420716465 ], [ 86.980045225532592, 26.50165289734333 ], [ 86.981712090556854, 26.50165289734333 ], [ 86.981712090556854, 26.503319679718597 ], [ 86.983378955581117, 26.503319679718597 ], [ 86.983378955581117, 26.516653938720726 ], [ 86.985045820605379, 26.516653938720726 ], [ 86.985045820605379, 26.524987850597057 ], [ 86.983378955581117, 26.524987850597057 ], [ 86.983378955581117, 26.529988197722854 ], [ 86.981712090556854, 26.529988197722854 ], [ 86.981712090556854, 26.536655327223919 ], [ 86.980045225532592, 26.536655327223919 ], [ 86.980045225532592, 26.543322456724983 ], [ 86.978378360508316, 26.543322456724983 ], [ 86.978378360508316, 26.546656021475513 ], [ 86.976711495484054, 26.546656021475513 ], [ 86.976711495484054, 26.54832280385078 ], [ 86.973377765435529, 26.54832280385078 ], [ 86.973377765435529, 26.553323150976581 ], [ 86.971710900411253, 26.553323150976581 ], [ 86.971710900411253, 26.554989933351845 ], [ 86.970044035386991, 26.554989933351845 ], [ 86.970044035386991, 26.556656715727112 ], [ 86.968377170362729, 26.556656715727112 ], [ 86.968377170362729, 26.558323498102379 ], [ 86.966710305338466, 26.558323498102379 ], [ 86.966710305338466, 26.561657062852909 ], [ 86.961709710265666, 26.561657062852909 ], [ 86.961709710265666, 26.563323845228176 ], [ 86.960042845241404, 26.563323845228176 ], [ 86.960042845241404, 26.56665740997871 ], [ 86.955042250168603, 26.56665740997871 ], [ 86.955042250168603, 26.568324192353973 ], [ 86.953375385144341, 26.568324192353973 ], [ 86.953375385144341, 26.571657757104507 ], [ 86.94837479007154, 26.571657757104507 ], [ 86.94837479007154, 26.573324539479774 ], [ 86.945041060023001, 26.573324539479774 ], [ 86.945041060023001, 26.574991321855038 ], [ 86.938373599925939, 26.574991321855038 ], [ 86.938373599925939, 26.576658104230305 ], [ 86.936706734901676, 26.576658104230305 ], [ 86.936706734901676, 26.578324886605571 ], [ 86.91837121963475, 26.578324886605571 ], [ 86.91837121963475, 26.579991668980838 ], [ 86.916704354610488, 26.579991668980838 ] ] ] } }
]
}
