{
"type": "FeatureCollection",
"name": "flood_extent_t0015",
"crs": { "type": "name", "properties": { "name": "urn:ogc:def:crs:OGC:1.3:CRS84" } },
"features": [
{ "type": "Feature", "properties": { "flooded": 1.0 }, "geometry": { "type": "Polygon", "coordinates": [ [ [ 86.921704949683289, 26.541655674349716 ], [ 86.921704949683289, 26.539988891974449 ], [ 86.91837121963475, 26.539988891974449 ], [ 86.91837121963475, 26.538322109599186 ], [ 86.915037489586226, 26.538322109599186 ], [ 86.915037489586226, 26.536655327223919 ], [ 86.913370624561949, 26.536655327223919 ], [ 86.913370624561949, 26.534988544848652 ], [ 86.911703759537687, 26.534988544848652 ], [ 86.911703759537687, 26.533321762473385 ], [ 86.910036894513425, 26.533321762473385 ], [ 86.910036894513425, 26.529988197722854 ], [ 86.908370029489163, 26.529988197722854 ], [ 86.908370029489163, 26.518320721095989 ], [ 86.910036894513425, 26.518320721095989 ], [ 86.910036894513425, 26.516653938720726 ], [ 86.911703759537687, 26.516653938720726 ], [ 86.911703759537687, 26.513320373970192 ], [ 86.915037489586226, 26.513320373970192 ], [ 86.915037489586226, 26.511653591594925 ], [ 86.916704354610488, 26.511653591594925 ], [ 86.916704354610488, 26.509986809219662 ], [ 86.91837121963475, 26.509986809219662 ], [ 86.91837121963475, 26.508320026844395 ], [ 86.933373004853138, 26.508320026844395 ], [ 86.933373004853138, 26.509986809219662 ], [ 86.935039869877414, 26.509986809219662 ], [ 86.935039869877414, 26.511653591594925 ], [ 86.936706734901676, 26.511653591594925 ], [ 86.936706734901676, 26.513320373970192 ], [ 86.938373599925939, 26.513320373970192 ], [ 86.938373599925939, 26.514987156345459 ], [ 86.940040464950201, 26.514987156345459 ], [ 86.940040464950201, 26.518320721095989 ], [ 86.941707329974477, 26.518320721095989 ], [ 86.941707329974477, 26.52332106822179 ], [ 86.943374194998739, 26.52332106822179 ], [ 86.943374194998739, 26.528321415347587 ], [ 86.941707329974477, 26.528321415347587 ], [ 86.941707329974477, 26.534988544848652 ], [ 86.940040464950201, 26.534988544848652 ], [ 86.940040464950201, 26.536655327223919 ], [ 86.938373599925939, 26.536655327223919 ], [ 86.938373599925939, 26.538322109599186 ], [ 86.936706734901676, 26.538322109599186 ], [ 86.936706734901676, 26.539988891974449 ], [ 86.933373004853138, 26.539988891974449 ], [ 86.933373004853138, 26.541655674349716 ], [ 86.921704949683289, 26.541655674349716 ] ] ] } }
]
}
