{
"type": "FeatureCollection",
"name": "flood_extent_t0105",
"crs": { "type": "name", "properties": { "name": "urn:ogc:def:crs:OGC:1.3:CRS84" } },
"features": [
{ "type": "Feature", "properties": { "flooded": 1.0 }, "geometry": { "type": "Polygon", "coordinates": [ [ [ 86.923371814707551, 26.571657757104507 ], [ 86.923371814707551, 26.56999097472924 ], [ 86.910036894513425, 26.56999097472924 ], [ 86.910036894513425, 26.568324192353973 ], [ 86.903369434416362, 26.568324192353973 ], [ 86.903369434416362, 26.56665740997871 ], [ 86.896701974319299, 26.56665740997871 ], [ 86.896701974319299, 26.564990627603443 ], [ 86.893368244270761, 26.564990627603443 ], [ 86.893368244270761, 26.563323845228176 ], [ 86.890034514222236, 26.563323845228176 ], [ 86.890034514222236, 26.561657062852909 ], [ 86.888367649197974, 26.561657062852909 ], [ 86.888367649197974, 26.559990280477646 ], [ 86.886700784173698, 26.559990280477646 ], [ 86.886700784173698, 26.558323498102379 ], [ 86.885033919149436, 26.558323498102379 ], [ 86.885033919149436, 26.556656715727112 ], [ 86.880033324076635, 26.556656715727112 ], [ 86.880033324076635, 26.554989933351845 ], [ 86.878366459052373, 26.554989933351845 ], [ 86.878366459052373, 26.553323150976581 ], [ 86.876699594028111, 26.553323150976581 ], [ 86.876699594028111, 26.551656368601314 ], [ 86.873365863979572, 26.551656368601314 ], [ 86.873365863979572, 26.549989586226047 ], [ 86.87169899895531, 26.549989586226047 ], [ 86.87169899895531, 26.54832280385078 ], [ 86.870032133931048, 26.54832280385078 ], [ 86.870032133931048, 26.546656021475513 ], [ 86.868365268906786, 26.546656021475513 ], [ 86.868365268906786, 26.54498923910025 ], [ 86.866698403882509, 26.54498923910025 ], [ 86.866698403882509, 26.543322456724983 ], [ 86.865031538858247, 26.543322456724983 ], [ 86.865031538858247, 26.539988891974449 ], [ 86.863364673833985, 26.539988891974449 ], [ 86.863364673833985, 26.538322109599186 ], [ 86.861697808809723, 26.538322109599186 ], [ 86.861697808809723, 26.536655327223919 ], [ 86.860030943785446, 26.536655327223919 ], [ 86.860030943785446, 26.533321762473385 ], [ 86.858364078761184, 26.533321762473385 ], [ 86.858364078761184, 26.529988197722854 ], [ 86.856697213736922, 26.529988197722854 ], [ 86.856697213736922, 26.524987850597057 ], [ 86.85503034871266, 26.524987850597057 ], [ 86.85503034871266, 26.519987503471256 ], [ 86.853363483688383, 26.519987503471256 ], [ 86.853363483688383, 26.50165289734333 ], [ 86.85503034871266, 26.50165289734333 ], [ 86.85503034871266, 26.494985767842266 ], [ 86.856697213736922, 26.494985767842266 ], [ 86.856697213736922, 26.489985420716465 ], [ 86.858364078761184, 26.489985420716465 ], [ 86.858364078761184, 26.486651855965935 ], [ 86.860030943785446, 26.486651855965935 ], [ 86.860030943785446, 26.484985073590668 ], [ 86.861697808809723, 26.484985073590668 ], [ 86.861697808809723, 26.483318291215401 ], [ 86.863364673833985, 26.483318291215401 ], [ 86.863364673833985, 26.481651508840137 ], [ 86.865031538858247, 26.481651508840137 ], [ 86.865031538858247, 26.47998472646487 ], [ 86.866698403882509, 26.47998472646487 ], [ 86.866698403882509, 26.478317944089603 ], [ 86.868365268906786, 26.478317944089603 ], [ 86.868365268906786, 26.47498437933907 ], [ 86.870032133931048, 26.47498437933907 ], [ 86.870032133931048, 26.473317596963806 ], [ 86.873365863979572, 26.473317596963806 ], [ 86.873365863979572, 26.471650814588539 ], [ 86.875032729003848, 26.471650814588539 ], [ 86.875032729003848, 26.469984032213272 ], [ 86.878366459052373, 26.469984032213272 ], [ 86.878366459052373, 26.468317249838005 ], [ 86.880033324076635, 26.468317249838005 ], [ 86.880033324076635, 26.466650467462742 ], [ 86.883367054125173, 26.466650467462742 ], [ 86.883367054125173, 26.464983685087475 ], [ 86.886700784173698, 26.464983685087475 ], [ 86.886700784173698, 26.463316902712208 ], [ 86.891701379246499, 26.463316902712208 ], [ 86.891701379246499, 26.461650120336941 ], [ 86.898368839343561, 26.461650120336941 ], [ 86.898368839343561, 26.459983337961678 ], [ 86.906703164464886, 26.459983337961678 ], [ 86.906703164464886, 26.458316555586411 ], [ 86.920038084659012, 26.458316555586411 ], [ 86.920038084659012, 26.459983337961678 ], [ 86.923371814707551, 26.459983337961678 ], [ 86.923371814707551, 26.458316555586411 ], [ 86.928372409780351, 26.458316555586411 ], [ 86.928372409780351, 26.459983337961678 ], [ 86.933373004853138, 26.459983337961678 ], [ 86.933373004853138, 26.461650120336941 ], [ 86.936706734901676, 26.461650120336941 ], [ 86.936706734901676, 26.463316902712208 ], [ 86.940040464950201, 26.463316902712208 ], [ 86.940040464950201, 26.464983685087475 ], [ 86.943374194998739, 26.464983685087475 ], [ 86.943374194998739, 26.466650467462742 ], [ 86.945041060023001, 26.466650467462742 ], [ 86.945041060023001, 26.468317249838005 ], [ 86.94837479007154, 26.468317249838005 ], [ 86.94837479007154, 26.471650814588539 ], [ 86.951708520120064, 26.471650814588539 ], [ 86.951708520120064, 26.473317596963806 ], [ 86.955042250168603, 26.473317596963806 ], [ 86.955042250168603, 26.47498437933907 ], [ 86.956709115192865, 26.47498437933907 ], [ 86.956709115192865, 26.476651161714337 ], [ 86.958375980217127, 26.476651161714337 ], [ 86.958375980217127, 26.478317944089603 ], [ 86.960042845241404, 26.478317944089603 ], [ 86.960042845241404, 26.483318291215401 ], [ 86.961709710265666, 26.483318291215401 ], [ 86.961709710265666, 26.484985073590668 ], [ 86.963376575289928, 26.484985073590668 ], [ 86.963376575289928, 26.486651855965935 ], [ 86.96504344031419, 26.486651855965935 ], [ 86.96504344031419, 26.488318638341202 ], [ 86.966710305338466, 26.488318638341202 ], [ 86.966710305338466, 26.493318985466999 ], [ 86.968377170362729, 26.493318985466999 ], [ 86.968377170362729, 26.496652550217529 ], [ 86.970044035386991, 26.496652550217529 ], [ 86.970044035386991, 26.50165289734333 ], [ 86.971710900411253, 26.50165289734333 ], [ 86.971710900411253, 26.504986462093861 ], [ 86.973377765435529, 26.504986462093861 ], [ 86.973377765435529, 26.509986809219662 ], [ 86.975044630459792, 26.509986809219662 ], [ 86.975044630459792, 26.531654980098121 ], [ 86.973377765435529, 26.531654980098121 ], [ 86.973377765435529, 26.536655327223919 ], [ 86.971710900411253, 26.536655327223919 ], [ 86.971710900411253, 26.538322109599186 ], [ 86.970044035386991, 26.538322109599186 ], [ 86.970044035386991, 26.539988891974449 ], [ 86.968377170362729, 26.539988891974449 ], [ 86.968377170362729, 26.541655674349716 ], [ 86.966710305338466, 26.541655674349716 ], [ 86.966710305338466, 26.54832280385078 ], [ 86.96504344031419, 26.54832280385078 ], [ 86.96504344031419, 26.549989586226047 ], [ 86.963376575289928, 26.549989586226047 ], [ 86.963376575289928, 26.553323150976581 ], [ 86.961709710265666, 26.553323150976581 ], [ 86.961709710265666, 26.554989933351845 ], [ 86.958375980217127, 26.554989933351845 ], [ 86.958375980217127, 26.556656715727112 ], [ 86.956709115192865, 26.556656715727112 ], [ 86.956709115192865, 26.559990280477646 ], [ 86.955042250168603, 26.559990280477646 ], [ 86.955042250168603, 26.561657062852909 ], [ 86.951708520120064, 26.561657062852909 ], [ 86.951708520120064, 26.563323845228176 ], [ 86.950041655095802, 26.563323845228176 ], [ 86.950041655095802, 26.564990627603443 ], [ 86.946707925047264, 26.564990627603443 ], [ 86.946707925047264, 26.56665740997871 ], [ 86.943374194998739, 26.56665740997871 ], [ 86.943374194998739, 26.568324192353973 ], [ 86.940040464950201, 26.568324192353973 ], [ 86.940040464950201, 26.56999097472924 ], [ 86.935039869877414, 26.56999097472924 ], [ 86.935039869877414, 26.571657757104507 ], [ 86.923371814707551, 26.571657757104507 ] ] ] } }
]
}
