{
"type": "FeatureCollection",
"name": "flood_extent_t0090",
"crs": { "type": "name", "properties": { "name": "urn:ogc:def:crs:OGC:1.3:CRS84" } },
"features": [
{ "type": "Feature", "properties": { "flooded": 1.0 }, "geometry": { "type": "Polygon", "coordinates": [ [ [ 79.58170878459687, 30.569959102269571 ], [ 79.58170878459687, 30.568292056920217 ], [ 79.576708036941298, 30.568292056920217 ], [ 79.576708036941298, 30.56662501157086 ], [ 79.575041121056117, 30.56662501157086 ], [ 79.575041121056117, 30.564957966221503 ], [ 79.573374205170921, 30.564957966221503 ], [ 79.573374205170921, 30.563290920872149 ], [ 79.57170728928574, 30.563290920872149 ], [ 79.57170728928574, 30.561623875522791 ], [ 79.570040373400545, 30.561623875522791 ], [ 79.570040373400545, 30.554955694125368 ], [ 79.568373457515364, 30.554955694125368 ], [ 79.568373457515364, 30.5349511499331 ], [ 79.570040373400545, 30.5349511499331 ], [ 79.570040373400545, 30.521614787138255 ], [ 79.57170728928574, 30.521614787138255 ], [ 79.57170728928574, 30.51828069643954 ], [ 79.573374205170921, 30.51828069643954 ], [ 79.573374205170921, 30.514946605740828 ], [ 79.575041121056117, 30.514946605740828 ], [ 79.575041121056117, 30.509945469692763 ], [ 79.576708036941298, 30.509945469692763 ], [ 79.576708036941298, 30.506611378994052 ], [ 79.578374952826493, 30.506611378994052 ], [ 79.578374952826493, 30.501610242945983 ], [ 79.580041868711675, 30.501610242945983 ], [ 79.580041868711675, 30.488273880151137 ], [ 79.578374952826493, 30.488273880151137 ], [ 79.578374952826493, 30.476604562705646 ], [ 79.580041868711675, 30.476604562705646 ], [ 79.580041868711675, 30.469936381308223 ], [ 79.58170878459687, 30.469936381308223 ], [ 79.58170878459687, 30.468269335958865 ], [ 79.583375700482051, 30.468269335958865 ], [ 79.583375700482051, 30.466602290609512 ], [ 79.585042616367247, 30.466602290609512 ], [ 79.585042616367247, 30.4632681999108 ], [ 79.586709532252442, 30.4632681999108 ], [ 79.586709532252442, 30.461601154561443 ], [ 79.588376448137623, 30.461601154561443 ], [ 79.588376448137623, 30.459934109212089 ], [ 79.590043364022819, 30.459934109212089 ], [ 79.590043364022819, 30.458267063862731 ], [ 79.591710279908, 30.458267063862731 ], [ 79.591710279908, 30.456600018513377 ], [ 79.593377195793195, 30.456600018513377 ], [ 79.593377195793195, 30.45493297316402 ], [ 79.595044111678376, 30.45493297316402 ], [ 79.595044111678376, 30.453265927814666 ], [ 79.596711027563572, 30.453265927814666 ], [ 79.596711027563572, 30.451598882465309 ], [ 79.598377943448753, 30.451598882465309 ], [ 79.598377943448753, 30.449931837115951 ], [ 79.60171177521913, 30.449931837115951 ], [ 79.60171177521913, 30.448264791766597 ], [ 79.603378691104325, 30.448264791766597 ], [ 79.603378691104325, 30.44659774641724 ], [ 79.606712522874702, 30.44659774641724 ], [ 79.606712522874702, 30.444930701067886 ], [ 79.610046354645078, 30.444930701067886 ], [ 79.610046354645078, 30.443263655718528 ], [ 79.615047102300636, 30.443263655718528 ], [ 79.615047102300636, 30.441596610369174 ], [ 79.623381681726585, 30.441596610369174 ], [ 79.623381681726585, 30.443263655718528 ], [ 79.626715513496961, 30.443263655718528 ], [ 79.626715513496961, 30.444930701067886 ], [ 79.628382429382157, 30.444930701067886 ], [ 79.628382429382157, 30.44659774641724 ], [ 79.631716261152533, 30.44659774641724 ], [ 79.631716261152533, 30.448264791766597 ], [ 79.638383924693287, 30.448264791766597 ], [ 79.638383924693287, 30.449931837115951 ], [ 79.653386167659974, 30.449931837115951 ], [ 79.653386167659974, 30.451598882465309 ], [ 79.65505308354517, 30.451598882465309 ], [ 79.65505308354517, 30.453265927814666 ], [ 79.656719999430351, 30.453265927814666 ], [ 79.656719999430351, 30.45493297316402 ], [ 79.658386915315546, 30.45493297316402 ], [ 79.658386915315546, 30.456600018513377 ], [ 79.660053831200727, 30.456600018513377 ], [ 79.660053831200727, 30.458267063862731 ], [ 79.661720747085923, 30.458267063862731 ], [ 79.661720747085923, 30.459934109212089 ], [ 79.663387662971104, 30.459934109212089 ], [ 79.663387662971104, 30.461601154561443 ], [ 79.666721494741495, 30.461601154561443 ], [ 79.666721494741495, 30.4632681999108 ], [ 79.670055326511871, 30.4632681999108 ], [ 79.670055326511871, 30.464935245260154 ], [ 79.673389158282248, 30.464935245260154 ], [ 79.673389158282248, 30.466602290609512 ], [ 79.676722990052625, 30.466602290609512 ], [ 79.676722990052625, 30.468269335958865 ], [ 79.678389905937806, 30.468269335958865 ], [ 79.678389905937806, 30.469936381308223 ], [ 79.680056821823001, 30.469936381308223 ], [ 79.680056821823001, 30.471603426657577 ], [ 79.681723737708182, 30.471603426657577 ], [ 79.681723737708182, 30.473270472006934 ], [ 79.683390653593378, 30.473270472006934 ], [ 79.683390653593378, 30.476604562705646 ], [ 79.685057569478559, 30.476604562705646 ], [ 79.685057569478559, 30.479938653404357 ], [ 79.686724485363754, 30.479938653404357 ], [ 79.686724485363754, 30.483272744103068 ], [ 79.688391401248936, 30.483272744103068 ], [ 79.688391401248936, 30.48660683480178 ], [ 79.690058317134131, 30.48660683480178 ], [ 79.690058317134131, 30.489940925500491 ], [ 79.688391401248936, 30.489940925500491 ], [ 79.688391401248936, 30.493275016199203 ], [ 79.686724485363754, 30.493275016199203 ], [ 79.686724485363754, 30.496609106897914 ], [ 79.685057569478559, 30.496609106897914 ], [ 79.685057569478559, 30.498276152247271 ], [ 79.683390653593378, 30.498276152247271 ], [ 79.683390653593378, 30.501610242945983 ], [ 79.681723737708182, 30.501610242945983 ], [ 79.681723737708182, 30.506611378994052 ], [ 79.680056821823001, 30.506611378994052 ], [ 79.680056821823001, 30.508278424343406 ], [ 79.676722990052625, 30.508278424343406 ], [ 79.676722990052625, 30.509945469692763 ], [ 79.673389158282248, 30.509945469692763 ], [ 79.673389158282248, 30.511612515042117 ], [ 79.671722242397053, 30.511612515042117 ], [ 79.671722242397053, 30.513279560391474 ], [ 79.668388410626676, 30.513279560391474 ], [ 79.668388410626676, 30.519947741788897 ], [ 79.666721494741495, 30.519947741788897 ], [ 79.666721494741495, 30.523281832487609 ], [ 79.665054578856299, 30.523281832487609 ], [ 79.665054578856299, 30.524948877836966 ], [ 79.661720747085923, 30.524948877836966 ], [ 79.661720747085923, 30.52661592318632 ], [ 79.660053831200727, 30.52661592318632 ], [ 79.660053831200727, 30.528282968535677 ], [ 79.65505308354517, 30.528282968535677 ], [ 79.65505308354517, 30.529950013885031 ], [ 79.651719251774793, 30.529950013885031 ], [ 79.651719251774793, 30.531617059234389 ], [ 79.648385420004416, 30.531617059234389 ], [ 79.648385420004416, 30.533284104583743 ], [ 79.646718504119221, 30.533284104583743 ], [ 79.646718504119221, 30.536618195282454 ], [ 79.64505158823404, 30.536618195282454 ], [ 79.64505158823404, 30.539952285981165 ], [ 79.643384672348844, 30.539952285981165 ], [ 79.643384672348844, 30.541619331330523 ], [ 79.641717756463663, 30.541619331330523 ], [ 79.641717756463663, 30.543286376679877 ], [ 79.640050840578468, 30.543286376679877 ], [ 79.640050840578468, 30.546620467378592 ], [ 79.638383924693287, 30.546620467378592 ], [ 79.638383924693287, 30.549954558077303 ], [ 79.636717008808091, 30.549954558077303 ], [ 79.636717008808091, 30.551621603426657 ], [ 79.63505009292291, 30.551621603426657 ], [ 79.63505009292291, 30.553288648776014 ], [ 79.633383177037715, 30.553288648776014 ], [ 79.633383177037715, 30.554955694125368 ], [ 79.631716261152533, 30.554955694125368 ], [ 79.631716261152533, 30.556622739474726 ], [ 79.630049345267338, 30.556622739474726 ], [ 79.630049345267338, 30.55828978482408 ], [ 79.628382429382157, 30.55828978482408 ], [ 79.628382429382157, 30.561623875522791 ], [ 79.626715513496961, 30.561623875522791 ], [ 79.626715513496961, 30.563290920872149 ], [ 79.625048597611766, 30.563290920872149 ], [ 79.625048597611766, 30.564957966221503 ], [ 79.623381681726585, 30.564957966221503 ], [ 79.623381681726585, 30.56662501157086 ], [ 79.621714765841389, 30.56662501157086 ], [ 79.621714765841389, 30.568292056920217 ], [ 79.615047102300636, 30.568292056920217 ], [ 79.615047102300636, 30.569959102269571 ], [ 79.611713270530259, 30.569959102269571 ], [ 79.611713270530259, 30.568292056920217 ], [ 79.596711027563572, 30.568292056920217 ], [ 79.596711027563572, 30.569959102269571 ], [ 79.58170878459687, 30.569959102269571 ] ] ] } }
]
}
