{
"type": "FeatureCollection",
"name": "flood_extent_t0050",
"crs": { "type": "name", "properties": { "name": "urn:ogc:def:crs:OGC:1.3:CRS84" } },
"features": [
{ "type": "Feature", "properties": { "flooded": 1.0 }, "geometry": { "type": "Polygon", "coordinates": [ [ [ 79.603378691104325, 30.544953422029234 ], [ 79.603378691104325, 30.543286376679877 ], [ 79.598377943448753, 30.543286376679877 ], [ 79.598377943448753, 30.541619331330523 ], [ 79.595044111678376, 30.541619331330523 ], [ 79.595044111678376, 30.539952285981165 ], [ 79.593377195793195, 30.539952285981165 ], [ 79.593377195793195, 30.536618195282454 ], [ 79.591710279908, 30.536618195282454 ], [ 79.591710279908, 30.533284104583743 ], [ 79.590043364022819, 30.533284104583743 ], [ 79.590043364022819, 30.529950013885031 ], [ 79.588376448137623, 30.529950013885031 ], [ 79.588376448137623, 30.521614787138255 ], [ 79.586709532252442, 30.521614787138255 ], [ 79.586709532252442, 30.489940925500491 ], [ 79.585042616367247, 30.489940925500491 ], [ 79.585042616367247, 30.474937517356288 ], [ 79.586709532252442, 30.474937517356288 ], [ 79.586709532252442, 30.471603426657577 ], [ 79.588376448137623, 30.471603426657577 ], [ 79.588376448137623, 30.468269335958865 ], [ 79.590043364022819, 30.468269335958865 ], [ 79.590043364022819, 30.466602290609512 ], [ 79.591710279908, 30.466602290609512 ], [ 79.591710279908, 30.464935245260154 ], [ 79.593377195793195, 30.464935245260154 ], [ 79.593377195793195, 30.461601154561443 ], [ 79.595044111678376, 30.461601154561443 ], [ 79.595044111678376, 30.459934109212089 ], [ 79.596711027563572, 30.459934109212089 ], [ 79.596711027563572, 30.458267063862731 ], [ 79.598377943448753, 30.458267063862731 ], [ 79.598377943448753, 30.456600018513377 ], [ 79.60171177521913, 30.456600018513377 ], [ 79.60171177521913, 30.45493297316402 ], [ 79.603378691104325, 30.45493297316402 ], [ 79.603378691104325, 30.453265927814666 ], [ 79.606712522874702, 30.453265927814666 ], [ 79.606712522874702, 30.451598882465309 ], [ 79.611713270530259, 30.451598882465309 ], [ 79.611713270530259, 30.449931837115951 ], [ 79.623381681726585, 30.449931837115951 ], [ 79.623381681726585, 30.451598882465309 ], [ 79.626715513496961, 30.451598882465309 ], [ 79.626715513496961, 30.453265927814666 ], [ 79.630049345267338, 30.453265927814666 ], [ 79.630049345267338, 30.45493297316402 ], [ 79.63505009292291, 30.45493297316402 ], [ 79.63505009292291, 30.456600018513377 ], [ 79.638383924693287, 30.456600018513377 ], [ 79.638383924693287, 30.458267063862731 ], [ 79.641717756463663, 30.458267063862731 ], [ 79.641717756463663, 30.459934109212089 ], [ 79.646718504119221, 30.459934109212089 ], [ 79.646718504119221, 30.461601154561443 ], [ 79.651719251774793, 30.461601154561443 ], [ 79.651719251774793, 30.4632681999108 ], [ 79.653386167659974, 30.4632681999108 ], [ 79.653386167659974, 30.464935245260154 ], [ 79.65505308354517, 30.464935245260154 ], [ 79.65505308354517, 30.466602290609512 ], [ 79.656719999430351, 30.466602290609512 ], [ 79.656719999430351, 30.468269335958865 ], [ 79.658386915315546, 30.468269335958865 ], [ 79.658386915315546, 30.471603426657577 ], [ 79.660053831200727, 30.471603426657577 ], [ 79.660053831200727, 30.473270472006934 ], [ 79.661720747085923, 30.473270472006934 ], [ 79.661720747085923, 30.474937517356288 ], [ 79.663387662971104, 30.474937517356288 ], [ 79.663387662971104, 30.478271608055003 ], [ 79.665054578856299, 30.478271608055003 ], [ 79.665054578856299, 30.479938653404357 ], [ 79.666721494741495, 30.479938653404357 ], [ 79.666721494741495, 30.481605698753715 ], [ 79.668388410626676, 30.481605698753715 ], [ 79.668388410626676, 30.484939789452426 ], [ 79.670055326511871, 30.484939789452426 ], [ 79.670055326511871, 30.493275016199203 ], [ 79.668388410626676, 30.493275016199203 ], [ 79.668388410626676, 30.498276152247271 ], [ 79.666721494741495, 30.498276152247271 ], [ 79.666721494741495, 30.499943197596629 ], [ 79.665054578856299, 30.499943197596629 ], [ 79.665054578856299, 30.501610242945983 ], [ 79.663387662971104, 30.501610242945983 ], [ 79.663387662971104, 30.50327728829534 ], [ 79.661720747085923, 30.50327728829534 ], [ 79.661720747085923, 30.504944333644694 ], [ 79.660053831200727, 30.504944333644694 ], [ 79.660053831200727, 30.508278424343406 ], [ 79.658386915315546, 30.508278424343406 ], [ 79.658386915315546, 30.511612515042117 ], [ 79.656719999430351, 30.511612515042117 ], [ 79.656719999430351, 30.514946605740828 ], [ 79.65505308354517, 30.514946605740828 ], [ 79.65505308354517, 30.516613651090186 ], [ 79.653386167659974, 30.516613651090186 ], [ 79.653386167659974, 30.51828069643954 ], [ 79.651719251774793, 30.51828069643954 ], [ 79.651719251774793, 30.519947741788897 ], [ 79.648385420004416, 30.519947741788897 ], [ 79.648385420004416, 30.521614787138255 ], [ 79.643384672348844, 30.521614787138255 ], [ 79.643384672348844, 30.523281832487609 ], [ 79.638383924693287, 30.523281832487609 ], [ 79.638383924693287, 30.52661592318632 ], [ 79.636717008808091, 30.52661592318632 ], [ 79.636717008808091, 30.528282968535677 ], [ 79.63505009292291, 30.528282968535677 ], [ 79.63505009292291, 30.529950013885031 ], [ 79.633383177037715, 30.529950013885031 ], [ 79.633383177037715, 30.531617059234389 ], [ 79.631716261152533, 30.531617059234389 ], [ 79.631716261152533, 30.533284104583743 ], [ 79.630049345267338, 30.533284104583743 ], [ 79.630049345267338, 30.5349511499331 ], [ 79.628382429382157, 30.5349511499331 ], [ 79.628382429382157, 30.536618195282454 ], [ 79.626715513496961, 30.536618195282454 ], [ 79.626715513496961, 30.538285240631811 ], [ 79.623381681726585, 30.538285240631811 ], [ 79.623381681726585, 30.539952285981165 ], [ 79.621714765841389, 30.539952285981165 ], [ 79.621714765841389, 30.541619331330523 ], [ 79.618380934071013, 30.541619331330523 ], [ 79.618380934071013, 30.543286376679877 ], [ 79.615047102300636, 30.543286376679877 ], [ 79.615047102300636, 30.544953422029234 ], [ 79.603378691104325, 30.544953422029234 ] ] ] } }
]
}
