{
"type": "FeatureCollection",
"name": "flood_extent_t0020",
"crs": { "type": "name", "properties": { "name": "urn:ogc:def:crs:OGC:1.3:CRS84" } },
"features": [
{ "type": "Feature", "properties": { "flooded": 1.0 }, "geometry": { "type": "Polygon", "coordinates": [ [ [ 79.611713270530259, 30.514946605740828 ], [ 79.611713270530259, 30.513279560391474 ], [ 79.610046354645078, 30.513279560391474 ], [ 79.610046354645078, 30.511612515042117 ], [ 79.608379438759883, 30.511612515042117 ], [ 79.608379438759883, 30.509945469692763 ], [ 79.606712522874702, 30.509945469692763 ], [ 79.606712522874702, 30.508278424343406 ], [ 79.605045606989506, 30.508278424343406 ], [ 79.605045606989506, 30.506611378994052 ], [ 79.603378691104325, 30.506611378994052 ], [ 79.603378691104325, 30.50327728829534 ], [ 79.60171177521913, 30.50327728829534 ], [ 79.60171177521913, 30.501610242945983 ], [ 79.600044859333948, 30.501610242945983 ], [ 79.600044859333948, 30.498276152247271 ], [ 79.598377943448753, 30.498276152247271 ], [ 79.598377943448753, 30.493275016199203 ], [ 79.596711027563572, 30.493275016199203 ], [ 79.596711027563572, 30.488273880151137 ], [ 79.595044111678376, 30.488273880151137 ], [ 79.595044111678376, 30.476604562705646 ], [ 79.596711027563572, 30.476604562705646 ], [ 79.596711027563572, 30.473270472006934 ], [ 79.598377943448753, 30.473270472006934 ], [ 79.598377943448753, 30.469936381308223 ], [ 79.600044859333948, 30.469936381308223 ], [ 79.600044859333948, 30.468269335958865 ], [ 79.60171177521913, 30.468269335958865 ], [ 79.60171177521913, 30.466602290609512 ], [ 79.603378691104325, 30.466602290609512 ], [ 79.603378691104325, 30.464935245260154 ], [ 79.605045606989506, 30.464935245260154 ], [ 79.605045606989506, 30.4632681999108 ], [ 79.608379438759883, 30.4632681999108 ], [ 79.608379438759883, 30.461601154561443 ], [ 79.611713270530259, 30.461601154561443 ], [ 79.611713270530259, 30.459934109212089 ], [ 79.620047849956208, 30.459934109212089 ], [ 79.620047849956208, 30.461601154561443 ], [ 79.625048597611766, 30.461601154561443 ], [ 79.625048597611766, 30.4632681999108 ], [ 79.626715513496961, 30.4632681999108 ], [ 79.626715513496961, 30.464935245260154 ], [ 79.630049345267338, 30.464935245260154 ], [ 79.630049345267338, 30.466602290609512 ], [ 79.631716261152533, 30.466602290609512 ], [ 79.631716261152533, 30.468269335958865 ], [ 79.63505009292291, 30.468269335958865 ], [ 79.63505009292291, 30.469936381308223 ], [ 79.636717008808091, 30.469936381308223 ], [ 79.636717008808091, 30.471603426657577 ], [ 79.638383924693287, 30.471603426657577 ], [ 79.638383924693287, 30.474937517356288 ], [ 79.640050840578468, 30.474937517356288 ], [ 79.640050840578468, 30.478271608055003 ], [ 79.641717756463663, 30.478271608055003 ], [ 79.641717756463663, 30.479938653404357 ], [ 79.643384672348844, 30.479938653404357 ], [ 79.643384672348844, 30.483272744103068 ], [ 79.64505158823404, 30.483272744103068 ], [ 79.64505158823404, 30.496609106897914 ], [ 79.643384672348844, 30.496609106897914 ], [ 79.643384672348844, 30.499943197596629 ], [ 79.641717756463663, 30.499943197596629 ], [ 79.641717756463663, 30.501610242945983 ], [ 79.640050840578468, 30.501610242945983 ], [ 79.640050840578468, 30.50327728829534 ], [ 79.638383924693287, 30.50327728829534 ], [ 79.638383924693287, 30.504944333644694 ], [ 79.636717008808091, 30.504944333644694 ], [ 79.636717008808091, 30.506611378994052 ], [ 79.63505009292291, 30.506611378994052 ], [ 79.63505009292291, 30.508278424343406 ], [ 79.633383177037715, 30.508278424343406 ], [ 79.633383177037715, 30.509945469692763 ], [ 79.630049345267338, 30.509945469692763 ], [ 79.630049345267338, 30.511612515042117 ], [ 79.628382429382157, 30.511612515042117 ], [ 79.628382429382157, 30.513279560391474 ], [ 79.623381681726585, 30.513279560391474 ], [ 79.623381681726585, 30.514946605740828 ], [ 79.611713270530259, 30.514946605740828 ] ] ] } }
]
}
