{
"type": "FeatureCollection",
"name": "flood_extent_t0070",
"crs": { "type": "name", "properties": { "name": "urn:ogc:def:crs:OGC:1.3:CRS84" } },
"features": [
{ "type": "Feature", "properties": { "flooded": 1.0 }, "geometry": { "type": "Polygon", "coordinates": [ [ [ 79.610046354645078, 30.559956830173437 ], [ 79.610046354645078, 30.55828978482408 ], [ 79.605045606989506, 30.55828978482408 ], [ 79.605045606989506, 30.556622739474726 ], [ 79.588376448137623, 30.556622739474726 ], [ 79.588376448137623, 30.554955694125368 ], [ 79.585042616367247, 30.554955694125368 ], [ 79.585042616367247, 30.553288648776014 ], [ 79.583375700482051, 30.553288648776014 ], [ 79.583375700482051, 30.551621603426657 ], [ 79.58170878459687, 30.551621603426657 ], [ 79.58170878459687, 30.548287512727946 ], [ 79.580041868711675, 30.548287512727946 ], [ 79.580041868711675, 30.541619331330523 ], [ 79.578374952826493, 30.541619331330523 ], [ 79.578374952826493, 30.51828069643954 ], [ 79.580041868711675, 30.51828069643954 ], [ 79.580041868711675, 30.508278424343406 ], [ 79.58170878459687, 30.508278424343406 ], [ 79.58170878459687, 30.501610242945983 ], [ 79.583375700482051, 30.501610242945983 ], [ 79.583375700482051, 30.491607970849849 ], [ 79.58170878459687, 30.491607970849849 ], [ 79.58170878459687, 30.473270472006934 ], [ 79.583375700482051, 30.473270472006934 ], [ 79.583375700482051, 30.469936381308223 ], [ 79.585042616367247, 30.469936381308223 ], [ 79.585042616367247, 30.466602290609512 ], [ 79.586709532252442, 30.466602290609512 ], [ 79.586709532252442, 30.464935245260154 ], [ 79.588376448137623, 30.464935245260154 ], [ 79.588376448137623, 30.4632681999108 ], [ 79.590043364022819, 30.4632681999108 ], [ 79.590043364022819, 30.461601154561443 ], [ 79.591710279908, 30.461601154561443 ], [ 79.591710279908, 30.459934109212089 ], [ 79.593377195793195, 30.459934109212089 ], [ 79.593377195793195, 30.456600018513377 ], [ 79.596711027563572, 30.456600018513377 ], [ 79.596711027563572, 30.45493297316402 ], [ 79.598377943448753, 30.45493297316402 ], [ 79.598377943448753, 30.453265927814666 ], [ 79.600044859333948, 30.453265927814666 ], [ 79.600044859333948, 30.451598882465309 ], [ 79.603378691104325, 30.451598882465309 ], [ 79.603378691104325, 30.449931837115951 ], [ 79.605045606989506, 30.449931837115951 ], [ 79.605045606989506, 30.448264791766597 ], [ 79.610046354645078, 30.448264791766597 ], [ 79.610046354645078, 30.44659774641724 ], [ 79.615047102300636, 30.44659774641724 ], [ 79.615047102300636, 30.444930701067886 ], [ 79.623381681726585, 30.444930701067886 ], [ 79.623381681726585, 30.44659774641724 ], [ 79.626715513496961, 30.44659774641724 ], [ 79.626715513496961, 30.448264791766597 ], [ 79.628382429382157, 30.448264791766597 ], [ 79.628382429382157, 30.449931837115951 ], [ 79.633383177037715, 30.449931837115951 ], [ 79.633383177037715, 30.451598882465309 ], [ 79.638383924693287, 30.451598882465309 ], [ 79.638383924693287, 30.453265927814666 ], [ 79.648385420004416, 30.453265927814666 ], [ 79.648385420004416, 30.45493297316402 ], [ 79.653386167659974, 30.45493297316402 ], [ 79.653386167659974, 30.456600018513377 ], [ 79.65505308354517, 30.456600018513377 ], [ 79.65505308354517, 30.458267063862731 ], [ 79.656719999430351, 30.458267063862731 ], [ 79.656719999430351, 30.459934109212089 ], [ 79.658386915315546, 30.459934109212089 ], [ 79.658386915315546, 30.461601154561443 ], [ 79.660053831200727, 30.461601154561443 ], [ 79.660053831200727, 30.464935245260154 ], [ 79.661720747085923, 30.464935245260154 ], [ 79.661720747085923, 30.466602290609512 ], [ 79.663387662971104, 30.466602290609512 ], [ 79.663387662971104, 30.468269335958865 ], [ 79.665054578856299, 30.468269335958865 ], [ 79.665054578856299, 30.469936381308223 ], [ 79.668388410626676, 30.469936381308223 ], [ 79.668388410626676, 30.471603426657577 ], [ 79.670055326511871, 30.471603426657577 ], [ 79.670055326511871, 30.473270472006934 ], [ 79.671722242397053, 30.473270472006934 ], [ 79.671722242397053, 30.474937517356288 ], [ 79.673389158282248, 30.474937517356288 ], [ 79.673389158282248, 30.476604562705646 ], [ 79.675056074167429, 30.476604562705646 ], [ 79.675056074167429, 30.478271608055003 ], [ 79.676722990052625, 30.478271608055003 ], [ 79.676722990052625, 30.479938653404357 ], [ 79.678389905937806, 30.479938653404357 ], [ 79.678389905937806, 30.483272744103068 ], [ 79.680056821823001, 30.483272744103068 ], [ 79.680056821823001, 30.48660683480178 ], [ 79.681723737708182, 30.48660683480178 ], [ 79.681723737708182, 30.488273880151137 ], [ 79.680056821823001, 30.488273880151137 ], [ 79.680056821823001, 30.493275016199203 ], [ 79.678389905937806, 30.493275016199203 ], [ 79.678389905937806, 30.498276152247271 ], [ 79.676722990052625, 30.498276152247271 ], [ 79.676722990052625, 30.501610242945983 ], [ 79.675056074167429, 30.501610242945983 ], [ 79.675056074167429, 30.50327728829534 ], [ 79.673389158282248, 30.50327728829534 ], [ 79.673389158282248, 30.504944333644694 ], [ 79.671722242397053, 30.504944333644694 ], [ 79.671722242397053, 30.506611378994052 ], [ 79.670055326511871, 30.506611378994052 ], [ 79.670055326511871, 30.508278424343406 ], [ 79.668388410626676, 30.508278424343406 ], [ 79.668388410626676, 30.509945469692763 ], [ 79.666721494741495, 30.509945469692763 ], [ 79.666721494741495, 30.511612515042117 ], [ 79.665054578856299, 30.511612515042117 ], [ 79.665054578856299, 30.513279560391474 ], [ 79.663387662971104, 30.513279560391474 ], [ 79.663387662971104, 30.51828069643954 ], [ 79.661720747085923, 30.51828069643954 ], [ 79.661720747085923, 30.519947741788897 ], [ 79.660053831200727, 30.519947741788897 ], [ 79.660053831200727, 30.521614787138255 ], [ 79.658386915315546, 30.521614787138255 ], [ 79.658386915315546, 30.523281832487609 ], [ 79.65505308354517, 30.523281832487609 ], [ 79.65505308354517, 30.524948877836966 ], [ 79.653386167659974, 30.524948877836966 ], [ 79.653386167659974, 30.52661592318632 ], [ 79.646718504119221, 30.52661592318632 ], [ 79.646718504119221, 30.528282968535677 ], [ 79.64505158823404, 30.528282968535677 ], [ 79.64505158823404, 30.529950013885031 ], [ 79.643384672348844, 30.529950013885031 ], [ 79.643384672348844, 30.533284104583743 ], [ 79.641717756463663, 30.533284104583743 ], [ 79.641717756463663, 30.5349511499331 ], [ 79.640050840578468, 30.5349511499331 ], [ 79.640050840578468, 30.538285240631811 ], [ 79.638383924693287, 30.538285240631811 ], [ 79.638383924693287, 30.539952285981165 ], [ 79.636717008808091, 30.539952285981165 ], [ 79.636717008808091, 30.541619331330523 ], [ 79.63505009292291, 30.541619331330523 ], [ 79.63505009292291, 30.543286376679877 ], [ 79.633383177037715, 30.543286376679877 ], [ 79.633383177037715, 30.544953422029234 ], [ 79.631716261152533, 30.544953422029234 ], [ 79.631716261152533, 30.546620467378592 ], [ 79.630049345267338, 30.546620467378592 ], [ 79.630049345267338, 30.548287512727946 ], [ 79.628382429382157, 30.548287512727946 ], [ 79.628382429382157, 30.549954558077303 ], [ 79.626715513496961, 30.549954558077303 ], [ 79.626715513496961, 30.551621603426657 ], [ 79.623381681726585, 30.551621603426657 ], [ 79.623381681726585, 30.553288648776014 ], [ 79.621714765841389, 30.553288648776014 ], [ 79.621714765841389, 30.554955694125368 ], [ 79.620047849956208, 30.554955694125368 ], [ 79.620047849956208, 30.556622739474726 ], [ 79.616714018185831, 30.556622739474726 ], [ 79.616714018185831, 30.55828978482408 ], [ 79.613380186415455, 30.55828978482408 ], [ 79.613380186415455, 30.559956830173437 ], [ 79.610046354645078, 30.559956830173437 ] ] ] } }
]
}
