{
"type": "FeatureCollection",
"name": "flood_extent_t0030",
"crs": { "type": "name", "properties": { "name": "urn:ogc:def:crs:OGC:1.3:CRS84" } },
"features": [
{ "type": "Feature", "properties": { "flooded": 1.0 }, "geometry": { "type": "Polygon", "coordinates": [ [ [ 79.610046354645078, 30.52661592318632 ], [ 79.610046354645078, 30.524948877836966 ], [ 79.606712522874702, 30.524948877836966 ], [ 79.606712522874702, 30.523281832487609 ], [ 79.605045606989506, 30.523281832487609 ], [ 79.605045606989506, 30.521614787138255 ], [ 79.603378691104325, 30.521614787138255 ], [ 79.603378691104325, 30.519947741788897 ], [ 79.60171177521913, 30.519947741788897 ], [ 79.60171177521913, 30.516613651090186 ], [ 79.600044859333948, 30.516613651090186 ], [ 79.600044859333948, 30.513279560391474 ], [ 79.598377943448753, 30.513279560391474 ], [ 79.598377943448753, 30.508278424343406 ], [ 79.596711027563572, 30.508278424343406 ], [ 79.596711027563572, 30.50327728829534 ], [ 79.595044111678376, 30.50327728829534 ], [ 79.595044111678376, 30.498276152247271 ], [ 79.593377195793195, 30.498276152247271 ], [ 79.593377195793195, 30.489940925500491 ], [ 79.591710279908, 30.489940925500491 ], [ 79.591710279908, 30.473270472006934 ], [ 79.593377195793195, 30.473270472006934 ], [ 79.593377195793195, 30.471603426657577 ], [ 79.595044111678376, 30.471603426657577 ], [ 79.595044111678376, 30.468269335958865 ], [ 79.596711027563572, 30.468269335958865 ], [ 79.596711027563572, 30.466602290609512 ], [ 79.598377943448753, 30.466602290609512 ], [ 79.598377943448753, 30.464935245260154 ], [ 79.600044859333948, 30.464935245260154 ], [ 79.600044859333948, 30.4632681999108 ], [ 79.60171177521913, 30.4632681999108 ], [ 79.60171177521913, 30.461601154561443 ], [ 79.603378691104325, 30.461601154561443 ], [ 79.603378691104325, 30.459934109212089 ], [ 79.606712522874702, 30.459934109212089 ], [ 79.606712522874702, 30.458267063862731 ], [ 79.610046354645078, 30.458267063862731 ], [ 79.610046354645078, 30.456600018513377 ], [ 79.615047102300636, 30.456600018513377 ], [ 79.615047102300636, 30.45493297316402 ], [ 79.618380934071013, 30.45493297316402 ], [ 79.618380934071013, 30.456600018513377 ], [ 79.623381681726585, 30.456600018513377 ], [ 79.623381681726585, 30.458267063862731 ], [ 79.626715513496961, 30.458267063862731 ], [ 79.626715513496961, 30.459934109212089 ], [ 79.630049345267338, 30.459934109212089 ], [ 79.630049345267338, 30.461601154561443 ], [ 79.631716261152533, 30.461601154561443 ], [ 79.631716261152533, 30.4632681999108 ], [ 79.63505009292291, 30.4632681999108 ], [ 79.63505009292291, 30.464935245260154 ], [ 79.638383924693287, 30.464935245260154 ], [ 79.638383924693287, 30.466602290609512 ], [ 79.640050840578468, 30.466602290609512 ], [ 79.640050840578468, 30.468269335958865 ], [ 79.641717756463663, 30.468269335958865 ], [ 79.641717756463663, 30.469936381308223 ], [ 79.643384672348844, 30.469936381308223 ], [ 79.643384672348844, 30.471603426657577 ], [ 79.64505158823404, 30.471603426657577 ], [ 79.64505158823404, 30.473270472006934 ], [ 79.646718504119221, 30.473270472006934 ], [ 79.646718504119221, 30.474937517356288 ], [ 79.648385420004416, 30.474937517356288 ], [ 79.648385420004416, 30.476604562705646 ], [ 79.650052335889598, 30.476604562705646 ], [ 79.650052335889598, 30.478271608055003 ], [ 79.651719251774793, 30.478271608055003 ], [ 79.651719251774793, 30.481605698753715 ], [ 79.653386167659974, 30.481605698753715 ], [ 79.653386167659974, 30.484939789452426 ], [ 79.65505308354517, 30.484939789452426 ], [ 79.65505308354517, 30.49494206154856 ], [ 79.653386167659974, 30.49494206154856 ], [ 79.653386167659974, 30.498276152247271 ], [ 79.651719251774793, 30.498276152247271 ], [ 79.651719251774793, 30.501610242945983 ], [ 79.650052335889598, 30.501610242945983 ], [ 79.650052335889598, 30.50327728829534 ], [ 79.648385420004416, 30.50327728829534 ], [ 79.648385420004416, 30.506611378994052 ], [ 79.646718504119221, 30.506611378994052 ], [ 79.646718504119221, 30.508278424343406 ], [ 79.64505158823404, 30.508278424343406 ], [ 79.64505158823404, 30.509945469692763 ], [ 79.643384672348844, 30.509945469692763 ], [ 79.643384672348844, 30.511612515042117 ], [ 79.641717756463663, 30.511612515042117 ], [ 79.641717756463663, 30.513279560391474 ], [ 79.638383924693287, 30.513279560391474 ], [ 79.638383924693287, 30.514946605740828 ], [ 79.63505009292291, 30.514946605740828 ], [ 79.63505009292291, 30.516613651090186 ], [ 79.633383177037715, 30.516613651090186 ], [ 79.633383177037715, 30.51828069643954 ], [ 79.631716261152533, 30.51828069643954 ], [ 79.631716261152533, 30.519947741788897 ], [ 79.628382429382157, 30.519947741788897 ], [ 79.628382429382157, 30.521614787138255 ], [ 79.626715513496961, 30.521614787138255 ], [ 79.626715513496961, 30.523281832487609 ], [ 79.621714765841389, 30.523281832487609 ], [ 79.621714765841389, 30.524948877836966 ], [ 79.616714018185831, 30.524948877836966 ], [ 79.616714018185831, 30.52661592318632 ], [ 79.610046354645078, 30.52661592318632 ] ] ] } }
]
}
