{
"type": "FeatureCollection",
"name": "flood_extent_t0110",
"crs": { "type": "name", "properties": { "name": "urn:ogc:def:crs:OGC:1.3:CRS84" } },
"features": [
{ "type": "Feature", "properties": { "flooded": 1.0 }, "geometry": { "type": "Polygon", "coordinates": [ [ [ 79.580041868711675, 30.583295465064417 ], [ 79.580041868711675, 30.581628419715063 ], [ 79.570040373400545, 30.581628419715063 ], [ 79.570040373400545, 30.579961374365705 ], [ 79.568373457515364, 30.579961374365705 ], [ 79.568373457515364, 30.578294329016352 ], [ 79.566706541630168, 30.578294329016352 ], [ 79.566706541630168, 30.57496023831764 ], [ 79.565039625744987, 30.57496023831764 ], [ 79.565039625744987, 30.573293192968283 ], [ 79.563372709859792, 30.573293192968283 ], [ 79.563372709859792, 30.571626147618929 ], [ 79.560038878089415, 30.571626147618929 ], [ 79.560038878089415, 30.569959102269571 ], [ 79.558371962204234, 30.569959102269571 ], [ 79.558371962204234, 30.568292056920217 ], [ 79.556705046319038, 30.568292056920217 ], [ 79.556705046319038, 30.564957966221503 ], [ 79.555038130433857, 30.564957966221503 ], [ 79.555038130433857, 30.556622739474726 ], [ 79.556705046319038, 30.556622739474726 ], [ 79.556705046319038, 30.548287512727946 ], [ 79.558371962204234, 30.548287512727946 ], [ 79.558371962204234, 30.543286376679877 ], [ 79.560038878089415, 30.543286376679877 ], [ 79.560038878089415, 30.538285240631811 ], [ 79.56170579397461, 30.538285240631811 ], [ 79.56170579397461, 30.5349511499331 ], [ 79.563372709859792, 30.5349511499331 ], [ 79.563372709859792, 30.528282968535677 ], [ 79.565039625744987, 30.528282968535677 ], [ 79.565039625744987, 30.519947741788897 ], [ 79.566706541630168, 30.519947741788897 ], [ 79.566706541630168, 30.516613651090186 ], [ 79.568373457515364, 30.516613651090186 ], [ 79.568373457515364, 30.514946605740828 ], [ 79.570040373400545, 30.514946605740828 ], [ 79.570040373400545, 30.511612515042117 ], [ 79.57170728928574, 30.511612515042117 ], [ 79.57170728928574, 30.509945469692763 ], [ 79.573374205170921, 30.509945469692763 ], [ 79.573374205170921, 30.506611378994052 ], [ 79.575041121056117, 30.506611378994052 ], [ 79.575041121056117, 30.50327728829534 ], [ 79.576708036941298, 30.50327728829534 ], [ 79.576708036941298, 30.499943197596629 ], [ 79.578374952826493, 30.499943197596629 ], [ 79.578374952826493, 30.488273880151137 ], [ 79.576708036941298, 30.488273880151137 ], [ 79.576708036941298, 30.476604562705646 ], [ 79.578374952826493, 30.476604562705646 ], [ 79.578374952826493, 30.468269335958865 ], [ 79.580041868711675, 30.468269335958865 ], [ 79.580041868711675, 30.466602290609512 ], [ 79.58170878459687, 30.466602290609512 ], [ 79.58170878459687, 30.464935245260154 ], [ 79.583375700482051, 30.464935245260154 ], [ 79.583375700482051, 30.4632681999108 ], [ 79.585042616367247, 30.4632681999108 ], [ 79.585042616367247, 30.459934109212089 ], [ 79.586709532252442, 30.459934109212089 ], [ 79.586709532252442, 30.458267063862731 ], [ 79.588376448137623, 30.458267063862731 ], [ 79.588376448137623, 30.456600018513377 ], [ 79.590043364022819, 30.456600018513377 ], [ 79.590043364022819, 30.45493297316402 ], [ 79.591710279908, 30.45493297316402 ], [ 79.591710279908, 30.453265927814666 ], [ 79.593377195793195, 30.453265927814666 ], [ 79.593377195793195, 30.451598882465309 ], [ 79.596711027563572, 30.451598882465309 ], [ 79.596711027563572, 30.449931837115951 ], [ 79.598377943448753, 30.449931837115951 ], [ 79.598377943448753, 30.448264791766597 ], [ 79.60171177521913, 30.448264791766597 ], [ 79.60171177521913, 30.44659774641724 ], [ 79.603378691104325, 30.44659774641724 ], [ 79.603378691104325, 30.444930701067886 ], [ 79.606712522874702, 30.444930701067886 ], [ 79.606712522874702, 30.443263655718528 ], [ 79.610046354645078, 30.443263655718528 ], [ 79.610046354645078, 30.441596610369174 ], [ 79.613380186415455, 30.441596610369174 ], [ 79.613380186415455, 30.439929565019817 ], [ 79.618380934071013, 30.439929565019817 ], [ 79.618380934071013, 30.438262519670463 ], [ 79.620047849956208, 30.438262519670463 ], [ 79.620047849956208, 30.439929565019817 ], [ 79.626715513496961, 30.439929565019817 ], [ 79.626715513496961, 30.441596610369174 ], [ 79.628382429382157, 30.441596610369174 ], [ 79.628382429382157, 30.443263655718528 ], [ 79.630049345267338, 30.443263655718528 ], [ 79.630049345267338, 30.444930701067886 ], [ 79.633383177037715, 30.444930701067886 ], [ 79.633383177037715, 30.44659774641724 ], [ 79.651719251774793, 30.44659774641724 ], [ 79.651719251774793, 30.448264791766597 ], [ 79.65505308354517, 30.448264791766597 ], [ 79.65505308354517, 30.449931837115951 ], [ 79.656719999430351, 30.449931837115951 ], [ 79.656719999430351, 30.451598882465309 ], [ 79.658386915315546, 30.451598882465309 ], [ 79.658386915315546, 30.453265927814666 ], [ 79.660053831200727, 30.453265927814666 ], [ 79.660053831200727, 30.45493297316402 ], [ 79.665054578856299, 30.45493297316402 ], [ 79.665054578856299, 30.456600018513377 ], [ 79.670055326511871, 30.456600018513377 ], [ 79.670055326511871, 30.458267063862731 ], [ 79.675056074167429, 30.458267063862731 ], [ 79.675056074167429, 30.459934109212089 ], [ 79.678389905937806, 30.459934109212089 ], [ 79.678389905937806, 30.461601154561443 ], [ 79.680056821823001, 30.461601154561443 ], [ 79.680056821823001, 30.4632681999108 ], [ 79.681723737708182, 30.4632681999108 ], [ 79.681723737708182, 30.464935245260154 ], [ 79.683390653593378, 30.464935245260154 ], [ 79.683390653593378, 30.466602290609512 ], [ 79.685057569478559, 30.466602290609512 ], [ 79.685057569478559, 30.469936381308223 ], [ 79.686724485363754, 30.469936381308223 ], [ 79.686724485363754, 30.473270472006934 ], [ 79.688391401248936, 30.473270472006934 ], [ 79.688391401248936, 30.474937517356288 ], [ 79.690058317134131, 30.474937517356288 ], [ 79.690058317134131, 30.476604562705646 ], [ 79.691725233019312, 30.476604562705646 ], [ 79.691725233019312, 30.478271608055003 ], [ 79.693392148904508, 30.478271608055003 ], [ 79.693392148904508, 30.479938653404357 ], [ 79.695059064789689, 30.479938653404357 ], [ 79.695059064789689, 30.483272744103068 ], [ 79.696725980674884, 30.483272744103068 ], [ 79.696725980674884, 30.493275016199203 ], [ 79.695059064789689, 30.493275016199203 ], [ 79.695059064789689, 30.49494206154856 ], [ 79.693392148904508, 30.49494206154856 ], [ 79.693392148904508, 30.496609106897914 ], [ 79.691725233019312, 30.496609106897914 ], [ 79.691725233019312, 30.498276152247271 ], [ 79.690058317134131, 30.498276152247271 ], [ 79.690058317134131, 30.501610242945983 ], [ 79.688391401248936, 30.501610242945983 ], [ 79.688391401248936, 30.50327728829534 ], [ 79.686724485363754, 30.50327728829534 ], [ 79.686724485363754, 30.504944333644694 ], [ 79.685057569478559, 30.504944333644694 ], [ 79.685057569478559, 30.509945469692763 ], [ 79.683390653593378, 30.509945469692763 ], [ 79.683390653593378, 30.511612515042117 ], [ 79.681723737708182, 30.511612515042117 ], [ 79.681723737708182, 30.513279560391474 ], [ 79.678389905937806, 30.513279560391474 ], [ 79.678389905937806, 30.514946605740828 ], [ 79.675056074167429, 30.514946605740828 ], [ 79.675056074167429, 30.516613651090186 ], [ 79.671722242397053, 30.516613651090186 ], [ 79.671722242397053, 30.521614787138255 ], [ 79.670055326511871, 30.521614787138255 ], [ 79.670055326511871, 30.52661592318632 ], [ 79.668388410626676, 30.52661592318632 ], [ 79.668388410626676, 30.528282968535677 ], [ 79.663387662971104, 30.528282968535677 ], [ 79.663387662971104, 30.529950013885031 ], [ 79.661720747085923, 30.529950013885031 ], [ 79.661720747085923, 30.531617059234389 ], [ 79.65505308354517, 30.531617059234389 ], [ 79.65505308354517, 30.533284104583743 ], [ 79.651719251774793, 30.533284104583743 ], [ 79.651719251774793, 30.5349511499331 ], [ 79.650052335889598, 30.5349511499331 ], [ 79.650052335889598, 30.538285240631811 ], [ 79.648385420004416, 30.538285240631811 ], [ 79.648385420004416, 30.541619331330523 ], [ 79.646718504119221, 30.541619331330523 ], [ 79.646718504119221, 30.543286376679877 ], [ 79.64505158823404, 30.543286376679877 ], [ 79.64505158823404, 30.546620467378592 ], [ 79.643384672348844, 30.546620467378592 ], [ 79.643384672348844, 30.549954558077303 ], [ 79.641717756463663, 30.549954558077303 ], [ 79.641717756463663, 30.556622739474726 ], [ 79.640050840578468, 30.556622739474726 ], [ 79.640050840578468, 30.559956830173437 ], [ 79.638383924693287, 30.559956830173437 ], [ 79.638383924693287, 30.563290920872149 ], [ 79.636717008808091, 30.563290920872149 ], [ 79.636717008808091, 30.564957966221503 ], [ 79.63505009292291, 30.564957966221503 ], [ 79.63505009292291, 30.568292056920217 ], [ 79.633383177037715, 30.568292056920217 ], [ 79.633383177037715, 30.569959102269571 ], [ 79.631716261152533, 30.569959102269571 ], [ 79.631716261152533, 30.571626147618929 ], [ 79.628382429382157, 30.571626147618929 ], [ 79.628382429382157, 30.573293192968283 ], [ 79.621714765841389, 30.573293192968283 ], [ 79.621714765841389, 30.57496023831764 ], [ 79.613380186415455, 30.57496023831764 ], [ 79.613380186415455, 30.576627283666994 ], [ 79.610046354645078, 30.576627283666994 ], [ 79.610046354645078, 30.578294329016352 ], [ 79.606712522874702, 30.578294329016352 ], [ 79.606712522874702, 30.579961374365705 ], [ 79.590043364022819, 30.579961374365705 ], [ 79.590043364022819, 30.581628419715063 ], [ 79.58170878459687, 30.581628419715063 ], [ 79.58170878459687, 30.583295465064417 ], [ 79.580041868711675, 30.583295465064417 ] ] ] } }
]
}
