{
"type": "FeatureCollection",
"name": "flood_extent_t0010",
"crs": { "type": "name", "properties": { "name": "urn:ogc:def:crs:OGC:1.3:CRS84" } },
"features": [
{ "type": "Feature", "properties": { "flooded": 1.0 }, "geometry": { "type": "Polygon", "coordinates": [ [ [ 79.611713270530259, 30.498276152247271 ], [ 79.611713270530259, 30.496609106897914 ], [ 79.610046354645078, 30.496609106897914 ], [ 79.610046354645078, 30.49494206154856 ], [ 79.608379438759883, 30.49494206154856 ], [ 79.608379438759883, 30.493275016199203 ], [ 79.606712522874702, 30.493275016199203 ], [ 79.606712522874702, 30.491607970849849 ], [ 79.605045606989506, 30.491607970849849 ], [ 79.605045606989506, 30.488273880151137 ], [ 79.603378691104325, 30.488273880151137 ], [ 79.603378691104325, 30.483272744103068 ], [ 79.60171177521913, 30.483272744103068 ], [ 79.60171177521913, 30.479938653404357 ], [ 79.603378691104325, 30.479938653404357 ], [ 79.603378691104325, 30.474937517356288 ], [ 79.605045606989506, 30.474937517356288 ], [ 79.605045606989506, 30.471603426657577 ], [ 79.606712522874702, 30.471603426657577 ], [ 79.606712522874702, 30.469936381308223 ], [ 79.610046354645078, 30.469936381308223 ], [ 79.610046354645078, 30.468269335958865 ], [ 79.613380186415455, 30.468269335958865 ], [ 79.613380186415455, 30.466602290609512 ], [ 79.620047849956208, 30.466602290609512 ], [ 79.620047849956208, 30.468269335958865 ], [ 79.623381681726585, 30.468269335958865 ], [ 79.623381681726585, 30.469936381308223 ], [ 79.625048597611766, 30.469936381308223 ], [ 79.625048597611766, 30.471603426657577 ], [ 79.628382429382157, 30.471603426657577 ], [ 79.628382429382157, 30.473270472006934 ], [ 79.630049345267338, 30.473270472006934 ], [ 79.630049345267338, 30.476604562705646 ], [ 79.631716261152533, 30.476604562705646 ], [ 79.631716261152533, 30.478271608055003 ], [ 79.633383177037715, 30.478271608055003 ], [ 79.633383177037715, 30.491607970849849 ], [ 79.631716261152533, 30.491607970849849 ], [ 79.631716261152533, 30.493275016199203 ], [ 79.630049345267338, 30.493275016199203 ], [ 79.630049345267338, 30.49494206154856 ], [ 79.628382429382157, 30.49494206154856 ], [ 79.628382429382157, 30.496609106897914 ], [ 79.625048597611766, 30.496609106897914 ], [ 79.625048597611766, 30.498276152247271 ], [ 79.611713270530259, 30.498276152247271 ] ] ] } }
]
}
