<?xml version="1.0" encoding="UTF-8"?>
<kml xmlns="http://www.opengis.net/kml/2.2" xmlns:gx="http://www.google.com/kml/ext/2.2">
    <Document id="1">
        <Placemark id="3">
            <Polygon id="2">
                <outerBoundaryIs>
                    <LinearRing id="4">
                        <coordinates>87.04338609645468,26.66499757011941,0.0 87.04338609645468,26.663330787744144,0.0 87.03505177133336,26.663330787744144,0.0 87.03505177133336,26.661664005368877,0.0 87.0333849063091,26.661664005368877,0.0 87.0333849063091,26.659997222993614,0.0 87.03171804128482,26.659997222993614,0.0 87.03171804128482,26.658330440618347,0.0 87.03005117626056,26.658330440618347,0.0 87.03005117626056,26.65666365824308,0.0 87.0283843112363,26.65666365824308,0.0 87.0283843112363,26.654996875867813,0.0 87.02171685113923,26.654996875867813,0.0 87.02171685113923,26.651663311117282,0.0 87.0183831210907,26.651663311117282,0.0 87.0183831210907,26.65333009349255,0.0 87.01504939104217,26.65333009349255,0.0 87.01504939104217,26.651663311117282,0.0 87.0133825260179,26.651663311117282,0.0 87.0133825260179,26.649996528742015,0.0 87.01171566099363,26.649996528742015,0.0 87.01171566099363,26.64832974636675,0.0 87.01004879596937,26.64832974636675,0.0 87.01004879596937,26.64666296399148,0.0 87.0083819309451,26.64666296399148,0.0 87.0083819309451,26.64332939924095,0.0 87.00671506592084,26.64332939924095,0.0 87.00671506592084,26.641662616865684,0.0 87.00504820089657,26.641662616865684,0.0 87.00504820089657,26.639995834490417,0.0 87.0033813358723,26.639995834490417,0.0 87.0033813358723,26.636662269739887,0.0 87.00171447084804,26.636662269739887,0.0 87.00171447084804,26.63499548736462,0.0 87.00004760582378,26.63499548736462,0.0 87.00004760582378,26.63166192261409,0.0 86.9983807407995,26.63166192261409,0.0 86.9983807407995,26.628328357863555,0.0 86.99671387577524,26.628328357863555,0.0 86.99671387577524,26.62666157548829,0.0 86.99504701075098,26.62666157548829,0.0 86.99504701075098,26.618327663611957,0.0 86.99338014572672,26.618327663611957,0.0 86.99338014572672,26.603326622234565,0.0 86.99504701075098,26.603326622234565,0.0 86.99504701075098,26.6016598398593,0.0 86.99338014572672,26.6016598398593,0.0 86.99338014572672,26.586658798481903,0.0 86.99504701075098,26.586658798481903,0.0 86.99504701075098,26.57832488660557,0.0 86.99671387577524,26.57832488660557,0.0 86.99671387577524,26.571657757104507,0.0 86.9983807407995,26.571657757104507,0.0 86.9983807407995,26.56665740997871,0.0 87.00004760582378,26.56665740997871,0.0 87.00004760582378,26.564990627603443,0.0 87.00171447084804,26.564990627603443,0.0 87.00171447084804,26.563323845228176,0.0 87.0033813358723,26.563323845228176,0.0 87.0033813358723,26.56165706285291,0.0 87.00671506592084,26.56165706285291,0.0 87.00671506592084,26.559990280477646,0.0 87.0083819309451,26.559990280477646,0.0 87.0083819309451,26.55832349810238,0.0 87.01004879596937,26.55832349810238,0.0 87.01004879596937,26.55665671572711,0.0 87.01171566099363,26.55665671572711,0.0 87.01171566099363,26.554989933351845,0.0 87.0133825260179,26.554989933351845,0.0 87.0133825260179,26.55332315097658,0.0 87.01504939104217,26.55332315097658,0.0 87.01504939104217,26.551656368601314,0.0 87.01671625606643,26.551656368601314,0.0 87.01671625606643,26.549989586226047,0.0 87.0183831210907,26.549989586226047,0.0 87.0183831210907,26.54832280385078,0.0 87.02004998611497,26.54832280385078,0.0 87.02004998611497,26.546656021475513,0.0 87.0333849063091,26.546656021475513,0.0 87.0333849063091,26.54498923910025,0.0 87.04338609645468,26.54498923910025,0.0 87.04338609645468,26.543322456724983,0.0 87.05338728660028,26.543322456724983,0.0 87.05338728660028,26.54498923910025,0.0 87.05672101664881,26.54498923910025,0.0 87.05672101664881,26.546656021475513,0.0 87.06005474669735,26.546656021475513,0.0 87.06005474669735,26.54498923910025,0.0 87.06172161172161,26.54498923910025,0.0 87.06172161172161,26.546656021475513,0.0 87.06338847674587,26.546656021475513,0.0 87.06338847674587,26.54832280385078,0.0 87.06672220679441,26.54832280385078,0.0 87.06672220679441,26.549989586226047,0.0 87.0717228018672,26.549989586226047,0.0 87.0717228018672,26.551656368601314,0.0 87.07338966689147,26.551656368601314,0.0 87.07338966689147,26.55332315097658,0.0 87.07505653191573,26.55332315097658,0.0 87.07505653191573,26.554989933351845,0.0 87.07672339694,26.554989933351845,0.0 87.07672339694,26.55665671572711,0.0 87.08005712698854,26.55665671572711,0.0 87.08005712698854,26.55832349810238,0.0 87.0817239920128,26.55832349810238,0.0 87.0817239920128,26.559990280477646,0.0 87.08339085703706,26.559990280477646,0.0 87.08339085703706,26.56165706285291,0.0 87.0867245870856,26.56165706285291,0.0 87.0867245870856,26.563323845228176,0.0 87.09005831713412,26.563323845228176,0.0 87.09005831713412,26.56665740997871,0.0 87.09172518215838,26.56665740997871,0.0 87.09172518215838,26.568324192353973,0.0 87.09339204718266,26.568324192353973,0.0 87.09339204718266,26.571657757104507,0.0 87.09505891220692,26.571657757104507,0.0 87.09505891220692,26.574991321855038,0.0 87.09672577723119,26.574991321855038,0.0 87.09672577723119,26.576658104230305,0.0 87.09839264225545,26.576658104230305,0.0 87.09839264225545,26.584992016106636,0.0 87.10005950727972,26.584992016106636,0.0 87.10005950727972,26.586658798481903,0.0 87.10172637230399,26.586658798481903,0.0 87.10172637230399,26.594992710358234,0.0 87.10339323732825,26.594992710358234,0.0 87.10339323732825,26.603326622234565,0.0 87.10172637230399,26.603326622234565,0.0 87.10172637230399,26.61332731648616,0.0 87.10339323732825,26.61332731648616,0.0 87.10339323732825,26.618327663611957,0.0 87.10172637230399,26.618327663611957,0.0 87.10172637230399,26.62166122836249,0.0 87.10005950727972,26.62166122836249,0.0 87.10005950727972,26.628328357863555,0.0 87.09839264225545,26.628328357863555,0.0 87.09839264225545,26.633328704989353,0.0 87.09672577723119,26.633328704989353,0.0 87.09672577723119,26.63499548736462,0.0 87.09505891220692,26.63499548736462,0.0 87.09505891220692,26.639995834490417,0.0 87.09339204718266,26.639995834490417,0.0 87.09339204718266,26.64332939924095,0.0 87.09172518215838,26.64332939924095,0.0 87.09172518215838,26.64666296399148,0.0 87.09005831713412,26.64666296399148,0.0 87.09005831713412,26.64832974636675,0.0 87.08839145210986,26.64832974636675,0.0 87.08839145210986,26.649996528742015,0.0 87.0867245870856,26.649996528742015,0.0 87.0867245870856,26.651663311117282,0.0 87.08339085703706,26.651663311117282,0.0 87.08339085703706,26.65333009349255,0.0 87.0817239920128,26.65333009349255,0.0 87.0817239920128,26.654996875867813,0.0 87.07839026196426,26.654996875867813,0.0 87.07839026196426,26.65666365824308,0.0 87.07672339694,26.65666365824308,0.0 87.07672339694,26.658330440618347,0.0 87.0717228018672,26.658330440618347,0.0 87.0717228018672,26.659997222993614,0.0 87.06172161172161,26.659997222993614,0.0 87.06172161172161,26.661664005368877,0.0 87.06005474669735,26.661664005368877,0.0 87.06005474669735,26.663330787744144,0.0 87.05005355655175,26.663330787744144,0.0 87.05005355655175,26.66499757011941,0.0 87.04338609645468,26.66499757011941,0.0</coordinates>
                    </LinearRing>
                </outerBoundaryIs>
            </Polygon>
        </Placemark>
    </Document>
</kml>
